Provider Number,Hospital Name,Address 1,Address 2,Address 3,City,State,ZIP Code,County,Phone Number,Hospital Type,Hospital Ownership,Emergency Services,Location,Provider ID,Hospital Name,Address,City,State,ZIP Code,County Name,Phone Number,Hospital Type,Hospital Ownership,Emergency Services,Location
450002,Providence Memorial Hospital,2001 N. Oregon St.,,,El Paso,TX,79902,El Paso,915-577-6011,Acute Care,Proprietary,Yes,"(31.771691253000483, -106.49985294199968)",450002,PROVIDENCE MEMORIAL HOSPITAL,2001 N OREGON ST,EL PASO,TX,79902,EL PASO,9155776011,Acute Care Hospitals,Proprietary,true,"2001 N OREGON ST
EL PASO, TX 79902
(31.771813, -106.499907)"
450005,Memorial Hermann Baptist Orange Hospital,608 Strickland Drive,,,Orange,TX,77630,Orange,409-883-9361,Acute Care,Nonprofit - Church,Yes,"(30.09942102700046, -93.76764915199965)",450005,MEMORIAL HERMANN BAPTIST ORANGE HOSPITAL,608 STRICKLAND DRIVE,ORANGE,TX,77630,ORANGE,4098839361,Acute Care Hospitals,Voluntary non-profit - Other,true,"608 STRICKLAND DRIVE
ORANGE, TX 77630
(30.100458, -93.768661)"
450007,Peterson Regional Medical Center,551 Hill Country Drive,,,Kerrville,TX,78028,Kerr,830-896-4200,Acute Care,Nonprofit - Church,Yes,"(30.044887701000448, -99.15177382699966)",450007,PETERSON REGIONAL MEDICAL CENTER,551 HILL COUNTRY DRIVE,KERRVILLE,TX,78028,KERR,8308964200,Acute Care Hospitals,Voluntary non-profit - Private,true,"551 HILL COUNTRY DRIVE
KERRVILLE, TX 78028
(30.044733, -99.151596)"
450010,United Regional Health Care System,1600 11th St.,,,Wichita Falls,TX,76301,Wichita,940-764-3055,Acute Care,Nonprofit - Church,Yes,"(33.90291267200047, -98.50044645099968)",450010,UNITED REGIONAL HEALTH CARE SYSTEM,1600 11TH STREET,WICHITA FALLS,TX,76301,WICHITA,9407643055,Acute Care Hospitals,Voluntary non-profit - Private,true,"1600 11TH STREET
WICHITA FALLS, TX 76301
(33.902109, -98.501852)"
450011,St Joseph Regional Health Center,2801 Franciscan Drive,,,Bryan,TX,77802,Brazos,979-776-3912,Acute Care,Nonprofit - Church,Yes,"(30.655558166000446, -96.34736305399969)",450011,ST JOSEPH REGIONAL HEALTH CENTER,2801 FRANCISCAN DR,BRYAN,TX,77802,BRAZOS,9797763912,Acute Care Hospitals,Voluntary non-profit - Private,true,"2801 FRANCISCAN DR
BRYAN, TX 77802
(30.655598, -96.346767)"
450015,Parkland Health And Hospital System,5201 Harry Hines Blvd.,,,Dallas,TX,75235,Dallas,214-590-8000,Acute Care,Government - Hospital District or Authority,Yes,"(32.81152823000048, -96.83703823599967)",450015,PARKLAND HEALTH AND HOSPITAL SYSTEM,5201 HARRY HINES BLVD,DALLAS,TX,75235,DALLAS,2145908000,Acute Care Hospitals,Government - Hospital District or Authority,true,"5201 HARRY HINES BLVD
DALLAS, TX 75235
(32.812034, -96.837709)"
450018,University Of Texas Medical Branch Gal,301 University Blvd.,,,Galveston,TX,77555,Galveston,409-772-1011,Acute Care,Government - State,Yes,"(29.311109555000485, -94.77554777299969)",450018,UNIVERSITY OF TEXAS MEDICAL BRANCH,301 UNIVERSITY BOULEVARD,GALVESTON,TX,77555,GALVESTON,4097721011,Acute Care Hospitals,Government - State,true,"301 UNIVERSITY BOULEVARD
GALVESTON, TX 77555
(29.31122, -94.774556)"
450021,Baylor University Medical Center,3500 Gaston Ave.,,,Dallas,TX,75246,Dallas,214-820-0111,Acute Care,Nonprofit - Church,Yes,"(32.79078733400047, -96.78053864299966)",450021,BAYLOR UNIVERSITY MEDICAL CENTER,3500 GASTON AVE,DALLAS,TX,75246,DALLAS,2148200111,Acute Care Hospitals,Voluntary non-profit - Church,true,"3500 GASTON AVE
DALLAS, TX 75246
(32.790685, -96.780663)"
450023,Citizens Medical Center,2701 Hospital Drive,,,Victoria,TX,77901,Victoria,361-572-5113,Acute Care,Nonprofit - Other,Yes,"(28.812806397000486, -96.97675118699965)",450023,CITIZENS MEDICAL CENTER,2701 HOSPITAL DRIVE,VICTORIA,TX,77901,VICTORIA,3615725113,Acute Care Hospitals,Voluntary non-profit - Other,true,"2701 HOSPITAL DRIVE
VICTORIA, TX 77901
(28.812866, -96.976723)"
450024,University Medical Center Of El Paso,4815 Alameda Ave.,,,El Paso,TX,79905,El Paso,915-521-7602,Acute Care,Government - Hospital District or Authority,Yes,"(31.770719968000435, -106.43452111899967)",450024,UNIVERSITY MEDICAL CENTER OF EL PASO,4815 ALAMEDA AVE,EL PASO,TX,79905,EL PASO,9155217602,Acute Care Hospitals,Government - Hospital District or Authority,true,"4815 ALAMEDA AVE
EL PASO, TX 79905
(31.770742, -106.434452)"
450028,"Vhs Brownsville Hospital Company, Llc",1040 W Jefferson St.,,,Brownsville,TX,78520,Cameron,956-544-1400,Acute Care,Proprietary,Yes,"(25.91785218500047, -97.51184619599968)",450028,"VHS BROWNSVILLE HOSPITAL COMPANY, LLC",1040 W JEFFERSON ST,BROWNSVILLE,TX,78520,CAMERON,9565441400,Acute Care Hospitals,Proprietary,true,"1040 W JEFFERSON ST
BROWNSVILLE, TX 78520
(25.916569, -97.510566)"
450029,Laredo Medical Center,1700 E. Saunders,,,Laredo,TX,78044,Webb,956-796-5000,Acute Care,Nonprofit - Church,Yes,"(27.53062335800047, -99.46895641199967)",450029,LAREDO MEDICAL CENTER,1700 EAST SAUNDERS,LAREDO,TX,78044,WEBB,9567965000,Acute Care Hospitals,Voluntary non-profit - Church,true,"1700 EAST SAUNDERS
LAREDO, TX 78044
(27.530589, -99.479142)"
450032,Good Shepherd Medical Center Marshall,811 S. Washington,,,Marshall,TX,75670,Harrison,903-927-6712,Acute Care,Nonprofit - Church,Yes,"(32.53729202000045, -94.36783029599968)",450032,GOOD SHEPHERD MEDICAL CENTER MARSHALL,811 S WASHINGTON,MARSHALL,TX,75670,HARRISON,9039276712,Acute Care Hospitals,Voluntary non-profit - Private,true,"811 S WASHINGTON
MARSHALL, TX 75670
(32.536651, -94.367868)"
450033,Vhs Harlingen Hospital Company Llc,2101 Pease St.,,,Harlingen,TX,78550,Cameron,956-389-1100,Acute Care,Proprietary,Yes,"(26.174020442000483, -97.67118933999967)",450033,VHS HARLINGEN HOSPITAL COMPANY LLC,2101 PEASE ST,HARLINGEN,TX,78550,CAMERON,9563891100,Acute Care Hospitals,Proprietary,true,"2101 PEASE ST
HARLINGEN, TX 78550
(26.173893, -97.671081)"
450034,Christus Hospital,2830 Calder Ave.,,,Beaumont,TX,77702,Jefferson,409-892-7171,Acute Care,Nonprofit - Church,Yes,"(30.085627275000434, -94.13118063699966)",450034,CHRISTUS HOSPITAL,2830 CALDER AVENUE,BEAUMONT,TX,77702,JEFFERSON,4098927171,Acute Care Hospitals,Voluntary non-profit - Church,true,"2830 CALDER AVENUE
BEAUMONT, TX 77702
(30.085592, -94.131263)"
450035,St Joseph Medical Center,1401 St. Joseph Parkway,,,Houston,TX,77002,Harris,713-757-1000,Acute Care,Government - Federal,Yes,"(29.747805361000474, -95.36622659999966)",450035,ST JOSEPH MEDICAL CENTER,1401 ST. JOSEPH PARKWAY,HOUSTON,TX,77002,HARRIS,7137571000,Acute Care Hospitals,Physician,true,"1401 ST. JOSEPH PARKWAY
HOUSTON, TX 77002
(29.747785, -95.366182)"
450037,Good Shepherd Medical Center,700 E. Marshall Ave.,,,Longview,TX,75601,Gregg,903-315-2000,Acute Care,Nonprofit - Church,Yes,"(32.50147763600046, -94.73134817899967)",450037,GOOD SHEPHERD MEDICAL CENTER,700 EAST MARSHALL AVENUE,LONGVIEW,TX,75601,GREGG,9033152000,Acute Care Hospitals,Voluntary non-profit - Private,true,"700 EAST MARSHALL AVENUE
LONGVIEW, TX 75601
(32.501448, -94.731471)"
450039,Jps Health Network,1500 S. Main St.,,,Fort Worth,TX,76104,Tarrant,817-921-3431,Acute Care,Government - Hospital District or Authority,Yes,"(32.72647222600045, -97.32645284799969)",450039,JPS HEALTH NETWORK,1500 S MAIN ST,FORT WORTH,TX,76104,TARRANT,8179213431,Acute Care Hospitals,Government - Hospital District or Authority,true,"1500 S MAIN ST
FORT WORTH, TX 76104
(32.726764, -97.326407)"
450040,Covenant Medical Center,3615 19th St.,,,Lubbock,TX,79410,Lubbock,806-725-6000,Acute Care,Nonprofit - Church,Yes,"(33.57787319400046, -101.89255068299968)",450040,COVENANT MEDICAL CENTER,3615 19TH STREET,LUBBOCK,TX,79410,LUBBOCK,8067256000,Acute Care Hospitals,Voluntary non-profit - Church,true,"3615 19TH STREET
LUBBOCK, TX 79410
(33.577867, -101.892357)"
450042,Providence Health Center,6901 Medical Parkway,,,Waco,TX,76712,McLennan,254-751-4000,Acute Care,Nonprofit - Church,Yes,"(31.513228214000435, -97.1985460899997)",450042,PROVIDENCE HEALTH CENTER,6901 MEDICAL PARKWAY,WACO,TX,76712,MCLENNAN,2547514000,Acute Care Hospitals,Government - Hospital District or Authority,true,"6901 MEDICAL PARKWAY
WACO, TX 76712
(31.514649, -97.197926)"
450044,UT Southwestern University Hospital,5909 Harry Hines Blvd.,,,Dallas,TX,75390,Dallas,214-879-3758,Acute Care,Government - State,Yes,"(32.81775433100046, -96.84473258599968)",450044,UT SOUTHWESTERN UNIVERSITY HOSPITAL ST PAUL,6201 HARRY HINES BLVD,DALLAS,TX,75390,DALLAS,2146335555,Acute Care Hospitals,Government - State,true,"6201 HARRY HINES BLVD
DALLAS, TX 75390
"
450046,Christus Spohn Hospital Corpus Christi,600 Elizabeth St.,,,Corpus Christi,TX,78404,Nueces,361-902-4103,Acute Care,Nonprofit - Church,Yes,"600 ELIZABETH STREET
CORPUS CHRISTI, TX 78404
(27.777535767000472, -97.39521913999965)",450046,CHRISTUS SPOHN HOSPITAL CORPUS CHRISTI,600 ELIZABETH STREET,CORPUS CHRISTI,TX,78404,NUECES,3619024103,Acute Care Hospitals,Voluntary non-profit - Private,true,"600 ELIZABETH STREET
CORPUS CHRISTI, TX 78404
(27.777489, -97.395121)"
450051,Methodist Dallas Medical Center,1441 N. Beckley Ave.,,,Dallas,TX,75203,Dallas,214-947-2879,Acute Care,Nonprofit - Other,Yes,"1441 NORTH BECKLEY AVENUE
DALLAS, TX 75203
(32.76155917500046, -96.82305272699966)",450051,METHODIST DALLAS MEDICAL CENTER,1441 NORTH BECKLEY AVENUE,DALLAS,TX,75203,DALLAS,2149472879,Acute Care Hospitals,Voluntary non-profit - Other,true,"1441 NORTH BECKLEY AVENUE
DALLAS, TX 75203
(32.761639, -96.823006)"
450052,Goodall Witcher Hospital,101 Posey Ave.,,,Clifton,TX,76634,Bosque,254-675-8322,Acute Care,Government - Hospital District or Authority,Yes,"101 POSEY AVENUE
CLIFTON, TX 76634
(31.802211300000465, -97.55040619899967)",450052,GOODALL WITCHER HOSPITAL,101 POSEY AVENUE,CLIFTON,TX,76634,BOSQUE,2546758322,Acute Care Hospitals,Government - Hospital District or Authority,true,"101 POSEY AVENUE
CLIFTON, TX 76634
"
450054,Scott & White Memorial Hospital,2401 31st St.,,,Temple,TX,76508,Bell,254-724-2111,Acute Care,Nonprofit - Church,Yes,"2401 31ST ST
TEMPLE, TX 76508
(31.077060297000457, -97.36658639599966)",450054,SCOTT & WHITE MEMORIAL HOSPITAL,2401 31ST ST,TEMPLE,TX,76508,BELL,2547242111,Acute Care Hospitals,Voluntary non-profit - Private,true,"2401 31ST ST
TEMPLE, TX 76508
(31.078693, -97.365938)"
450055,Rolling Plains Memorial Hospital,200 E. Arizona,,,Sweetwater,TX,79556,Nolan,325-235-1701,Acute Care,Government - Hospital District or Authority,Yes,"200 E ARIZONA
SWEETWATER, TX 79556
(32.453868213000476, -100.39816803999969)",450055,ROLLING PLAINS MEMORIAL HOSPITAL,200 E ARIZONA,SWEETWATER,TX,79556,NOLAN,3252351701,Acute Care Hospitals,Government - Hospital District or Authority,true,"200 E ARIZONA
SWEETWATER, TX 79556
(32.453882, -100.398314)"
450056,Seton Medical Center Austin,1201 W. 38th St.,,,Austin,TX,78705,Travis,512-324-1000,Acute Care,Nonprofit - Church,Yes,"1201 W 38TH ST
AUSTIN, TX 78705
(30.306274603000475, -97.74556209299965)",450056,SETON MEDICAL CENTER AUSTIN,1201 W 38TH ST,AUSTIN,TX,78705,TRAVIS,5123241000,Acute Care Hospitals,Voluntary non-profit - Private,true,"1201 W 38TH ST
AUSTIN, TX 78705
(30.306075, -97.745038)"
450058,Baptist Medical Center,111 Dallas St.,,,San Antonio,TX,78205,Bexar,210-297-1020,Acute Care,Proprietary,Yes,"111 DALLAS STREET
SAN ANTONIO, TX 78205
(29.432884646000446, -98.49282708899966)",450058,BAPTIST MEDICAL CENTER,111 DALLAS STREET,SAN ANTONIO,TX,78205,BEXAR,2102971020,Acute Care Hospitals,Proprietary,true,"111 DALLAS STREET
SAN ANTONIO, TX 78205
(29.433174, -98.492305)"
450064,Texas Health Arlington Memorial Hospital,800 W. Randol Mill Road,,,Arlington,TX,76012,Tarrant,817-548-6100,Acute Care,Nonprofit - Church,Yes,"800 W RANDOL MILL RD
ARLINGTON, TX 76012
(32.750092906000475, -97.11521103399969)",450064,TEXAS HEALTH ARLINGTON MEMORIAL HOSPITAL,800 W RANDOL MILL RD,ARLINGTON,TX,76012,TARRANT,8175486100,Acute Care Hospitals,Voluntary non-profit - Private,true,"800 W RANDOL MILL RD
ARLINGTON, TX 76012
(32.750113, -97.114916)"
450068,Memorial Hermann Texas Medical Center,6411 Fannin,,,Houston,TX,77030,Harris,713-704-3700,Acute Care,Nonprofit - Church,Yes,"6411 FANNIN
HOUSTON, TX 77030
(29.714854132000482, -95.39671805399968)",450068,MEMORIAL HERMANN TEXAS MEDICAL CENTER,6411 FANNIN,HOUSTON,TX,77030,HARRIS,7137043700,Acute Care Hospitals,Voluntary non-profit - Private,true,"6411 FANNIN
HOUSTON, TX 77030
(29.713791, -95.397547)"
450072,Brazosport Regional Health System,100 Medical Drive,,,Lake Jackson,TX,77566,Brazoria,979-297-4411,Acute Care,Nonprofit - Church,Yes,"100 MEDICAL DRIVE
LAKE JACKSON, TX 77566
(29.03191861200048, -95.4521614359997)",450072,BRAZOSPORT REGIONAL HEALTH SYSTEM,100 MEDICAL DRIVE,LAKE JACKSON,TX,77566,BRAZORIA,9792974411,Acute Care Hospitals,Voluntary non-profit - Private,true,"100 MEDICAL DRIVE
LAKE JACKSON, TX 77566
(29.031022, -95.451843)"
450073,Cogdell Memorial Hospital,1700 Cogdell Blvd.,,,Snyder,TX,79549,Scurry,325-574-7437,Acute Care,Government - Hospital District or Authority,Yes,"1700 COGDELL BLVD
SNYDER, TX 79549
(32.68847800000049, -100.9171367189997)",450073,COGDELL MEMORIAL HOSPITAL,1700 COGDELL BLVD,SNYDER,TX,79549,SCURRY,3255747437,Acute Care Hospitals,Government - Hospital District or Authority,true,"1700 COGDELL BLVD
SNYDER, TX 79549
(32.688484, -100.915039)"
450076,"University Of Texas M D Anderson Cancer Center,The",1515 Holcombe Blvd.,,,Houston,TX,77030,Harris,713-792-2121,Acute Care,Government - State,Yes,"1515 HOLCOMBE BLVD
HOUSTON, TX 77030
(29.706352887000435, -95.39693895799968)",,,,,,,,,,,,
450078,Anson General Hospital,101 AVE. J,,,Anson,TX,79501,Jones,325-823-3231,Acute Care,Nonprofit - Other,Yes,"101 AVENUE J
ANSON, TX 79501
(32.76742223100047, -99.89548544199965)",450078,ANSON GENERAL HOSPITAL,101 AVENUE J,ANSON,TX,79501,JONES,3258233231,Acute Care Hospitals,Government - Local,true,"101 AVENUE J
ANSON, TX 79501
(32.767506, -99.895515)"
450079,Baylor Medical Center At Irving,1901 N. MacArthur Blvd.,,,Irving,TX,75061,Dallas,972-579-8100,Acute Care,Proprietary,Yes,"1901 N MACARTHUR BLVD
IRVING, TX 75061
(32.834260602000484, -96.95925271999965)",450079,BAYLOR MEDICAL CENTER AT IRVING,1901 N MACARTHUR BLVD,IRVING,TX,75061,DALLAS,9725798100,Acute Care Hospitals,Voluntary non-profit - Private,true,"1901 N MACARTHUR BLVD
IRVING, TX 75061
(32.834578, -96.959215)"
450080,Titus Regional Medical Center,2001 N. Jefferson,,,Mount Pleasant,TX,75455,Titus,903-577-6000,Acute Care,Government - Hospital District or Authority,Yes,"2001 N JEFFERSON
MOUNT PLEASANT, TX 75455
(33.17582892200045, -94.97047391199965)",450080,TITUS REGIONAL MEDICAL CENTER,2001 N JEFFERSON,MOUNT PLEASANT,TX,75455,TITUS,9035776000,Acute Care Hospitals,Government - Hospital District or Authority,true,"2001 N JEFFERSON
MOUNT PLEASANT, TX 75455
(33.175273, -94.97043)"
450082,Christus Spohn Hospital Beeville,1500 E. Houston Highway,,,Beeville,TX,78102,Bee,361-354-2000,Acute Care,Nonprofit - Church,Yes,"1500 E HOUSTON HWY
BEEVILLE, TX 78102
(28.40794559900047, -97.7326875609997)",450082,CHRISTUS SPOHN HOSPITAL BEEVILLE,1500 E HOUSTON HWY,BEEVILLE,TX,78102,BEE,3613542000,Acute Care Hospitals,Voluntary non-profit - Church,true,"1500 E HOUSTON HWY
BEEVILLE, TX 78102
(28.408247, -97.732159)"
450083,East Texas Medical Center,1000 S. Beckham St.,,,Tyler,TX,75701,Smith,903-597-0351,Acute Care,Government - Local,Yes,"1000 SOUTH BECKHAM STREET
TYLER, TX 75701
(32.33848393100044, -95.29189685099965)",450083,EAST TEXAS MEDICAL CENTER,1000 SOUTH BECKHAM STREET,TYLER,TX,75701,SMITH,9035970351,Acute Care Hospitals,Government - Local,true,"1000 SOUTH BECKHAM STREET
TYLER, TX 75701
(32.338102, -95.291862)"
450085,Graham Regional Medical Center,1301 Montgomery Road,,,Graham,TX,76450,Young,940-549-3400,Acute Care,Government - Local,Yes,"1301 MONTGOMERY ROAD
GRAHAM, TX 76450
(33.08987958600045, -98.58576011499969)",450085,GRAHAM REGIONAL MEDICAL CENTER,1301 MONTGOMERY ROAD,GRAHAM,TX,76450,YOUNG,9405493400,Acute Care Hospitals,Government - Local,true,"1301 MONTGOMERY ROAD
GRAHAM, TX 76450
(33.089869, -98.584909)"
450087,North Hills Hospital,4401 Booth Calloway Road,,,North Richland Hills,TX,76180,Tarrant,817-255-1000,Acute Care,Proprietary,Yes,"4401 BOOTH CALLOWAY ROAD
NORTH RICHLAND HILLS, TX 76180
(32.82889048900046, -97.21224378799968)",450087,NORTH HILLS HOSPITAL,4401 BOOTH CALLOWAY ROAD,NORTH RICHLAND HILLS,TX,76180,TARRANT,8172551000,Acute Care Hospitals,Proprietary,true,"4401 BOOTH CALLOWAY ROAD
NORTH RICHLAND HILLS, TX 76180
(32.829303, -97.212235)"
450090,North Texas Medical Center,1900 Hospital Blvd.,,,Gainesville,TX,76240,Cooke,940-612-8600,Acute Care,Government - Hospital District or Authority,Yes,"1900 HOSPITAL BLVD
GAINESVILLE, TX 76240
(33.64615093200047, -97.16250571099965)",450090,NORTH TEXAS MEDICAL CENTER,1900 HOSPITAL BLVD,GAINESVILLE,TX,76240,COOKE,9406128600,Acute Care Hospitals,Government - Hospital District or Authority,true,"1900 HOSPITAL BLVD
GAINESVILLE, TX 76240
(33.645361, -97.162143)"
450092,Fort Duncan Medical Center,3333 N. Foster Maldonado Blvd.,,,Eagle Pass,TX,78852,Maverick,830-773-5321,Acute Care,Proprietary,Yes,"3333 N FOSTER MALDONADO BLVD
EAGLE PASS, TX 78852
(28.70944556200044, -100.45392437099969)",450092,FORT DUNCAN MEDICAL CENTER,3333 N FOSTER MALDONADO BLVD,EAGLE PASS,TX,78852,MAVERICK,8307735321,Acute Care Hospitals,Proprietary,true,"3333 N FOSTER MALDONADO BLVD
EAGLE PASS, TX 78852
(28.711418, -100.454105)"
450097,Bayshore Medical Center,4000 Spencer Highway,,,Pasadena,TX,77504,Harris,713-359-1000,Acute Care,Proprietary,Yes,"4000 SPENCER HWY
PASADENA, TX 77504
(29.66515698900048, -95.18371238199967)",450097,BAYSHORE MEDICAL CENTER,4000 SPENCER HWY,PASADENA,TX,77504,HARRIS,7133591000,Acute Care Hospitals,Proprietary,true,"4000 SPENCER HWY
PASADENA, TX 77504
(29.665195, -95.181617)"
450099,Pampa Regional Medical Center,1 Medical Plaza,,,Pampa,TX,79065,Gray,806-665-3721,Acute Care,Proprietary,Yes,"1 MEDICAL PLAZA
PAMPA, TX 79065
(35.57211432700046, -100.96348470099969)",450099,PAMPA REGIONAL MEDICAL CENTER,1 MEDICAL PLAZA,PAMPA,TX,79065,GRAY,8066653721,Acute Care Hospitals,Proprietary,true,"1 MEDICAL PLAZA
PAMPA, TX 79065
"
450101,Hillcrest Baptist Medical Center,100 Hillcrest Medical Blvd.,,,Waco,TX,76712,McLennan,254-202-2000,Acute Care,Nonprofit - Church,Yes,"100 HILLCREST MEDICAL BLVD
WACO, TX 76712
(31.489150708000466, -97.15696089499966)",450101,HILLCREST BAPTIST MEDICAL CENTER,100 HILLCREST MEDICAL BLVD,WACO,TX,76712,MCLENNAN,2542022000,Acute Care Hospitals,Voluntary non-profit - Private,true,"100 HILLCREST MEDICAL BLVD
WACO, TX 76712
(31.489272, -97.156788)"
450102,Mother Frances Hospital,800 E. Dawson,,,Tyler,TX,75701,Smith,903-593-8441,Acute Care,Nonprofit - Church,Yes,"800 EAST DAWSON
TYLER, TX 75701
(32.34216567100049, -95.29195701399965)",450102,MOTHER FRANCES HOSPITAL,800 EAST DAWSON,TYLER,TX,75701,SMITH,9035938441,Acute Care Hospitals,Voluntary non-profit - Church,true,"800 EAST DAWSON
TYLER, TX 75701
(32.342265, -95.292285)"
450104,Guadalupe Regional Medical Center,1215 E. Court St.,,,Seguin,TX,78155,Guadalupe,830-379-2411,Acute Care,Government - Local,Yes,"1215 E COURT ST
SEGUIN, TX 78155
(29.569053085000462, -97.9477502799997)",450104,GUADALUPE REGIONAL MEDICAL CENTER,1215 E COURT ST,SEGUIN,TX,78155,GUADALUPE,8303792411,Acute Care Hospitals,Government - Local,true,"1215 E COURT ST
SEGUIN, TX 78155
(29.569035, -97.948297)"
450107,Las Palmas Medical Center,1801 N. Oregon St.,,,El Paso,TX,79902,El Paso,915-521-1200,Acute Care,Proprietary,Yes,"1801 NORTH OREGON STREET
EL PASO, TX 79902
(31.77003071100046, -106.49841269899969)",450107,LAS PALMAS MEDICAL CENTER,1801 NORTH OREGON STREET,EL PASO,TX,79902,EL PASO,9155211200,Acute Care Hospitals,Proprietary,true,"1801 NORTH OREGON STREET
EL PASO, TX 79902
(31.770257, -106.498544)"
450108,Connally Memorial Medical Center,499 10th St.,,,Floresville,TX,78114,Wilson,830-393-1300,Acute Care,Government - Hospital District or Authority,Yes,"499 10TH STREET
FLORESVILLE, TX 78114
(29.15957012500047, -98.17340903599967)",450108,CONNALLY MEMORIAL MEDICAL CENTER,499 10TH STREET,FLORESVILLE,TX,78114,WILSON,8303931300,Acute Care Hospitals,Government - Hospital District or Authority,true,"499 10TH STREET
FLORESVILLE, TX 78114
(29.158608, -98.172361)"
450119,South Texas Health System,1102 W. Trenton Road,,,Edinburg,TX,78539,Hidalgo,956-632-4000,Acute Care,Proprietary,Yes,"1102 W TRENTON ROAD
EDINBURG, TX 78539
(26.26306279500045, -98.18136440599966)",450119,SOUTH TEXAS HEALTH SYSTEM,1102 W TRENTON ROAD,EDINBURG,TX,78539,HIDALGO,9566324000,Acute Care Hospitals,Proprietary,true,"1102 W TRENTON ROAD
EDINBURG, TX 78539
(26.262556, -98.177336)"
450124,University Medical Center At Brackenridge,601 E. 15th St.,,,Austin,TX,78701,Travis,512-324-7000,Acute Care,Nonprofit - Church,Yes,"601 E 15TH STREET
AUSTIN, TX 78701
(30.275163717000453, -97.73335793599966)",450124,UNIVERSITY MEDICAL CENTER AT BRACKENRIDGE,601 E 15TH STREET,AUSTIN,TX,78701,TRAVIS,5123247000,Acute Care Hospitals,Voluntary non-profit - Private,true,"601 E 15TH STREET
AUSTIN, TX 78701
(30.274993, -97.732749)"
450128,Knapp Medical Center,1401 E. Eighth St.,,,Weslaco,TX,78596,Hidalgo,956-968-8567,Acute Care,Nonprofit - Church,Yes,"1401 EAST EIGHT STREET
WESLACO, TX 78596
(26.15193250000044, -97.97634874799968)",450128,KNAPP MEDICAL CENTER,1401 EAST EIGHT STREET,WESLACO,TX,78596,HIDALGO,9569688567,Acute Care Hospitals,Voluntary non-profit - Private,true,"1401 EAST EIGHT STREET
WESLACO, TX 78596
"
450130,Nix Health Care System,"414 Navarro, Suite 600",,,San Antonio,TX,78205,Bexar,210-271-2188,Acute Care,Proprietary,Yes,"414 NAVARRO, SUITE 600
SAN ANTONIO, TX 78205
(29.425128266000456, -98.48965736099967)",450130,NIX HEALTH CARE SYSTEM,"414 NAVARRO, SUITE 600",SAN ANTONIO,TX,78205,BEXAR,2102712188,Acute Care Hospitals,Proprietary,true,"414 NAVARRO, SUITE 600
SAN ANTONIO, TX 78205
(29.425383, -98.489706)"
450132,Medical Center Hospital,500 W. 4th St.,,,Odessa,TX,79761,Ector,432-640-4000,Acute Care,Government - Hospital District or Authority,No,"500 W 4TH STREET
ODESSA, TX 79761
(31.84994519300045, -102.36411742699966)",450132,MEDICAL CENTER HOSPITAL,500 W 4TH STREET,ODESSA,TX,79761,ECTOR,4326404000,Acute Care Hospitals,Government - Hospital District or Authority,true,"500 W 4TH STREET
ODESSA, TX 79761
(31.844698, -102.374336)"
450133,Midland Memorial Hospital,400 Rosalind Redfern Grover Parkway,,,Midland,TX,79701,Midland,432-685-1111,Acute Care,Government - Hospital District or Authority,Yes,"400 ROSALIND REDFERN GROVER PARKWAY
MIDLAND, TX 79701
(31.996541671000443, -102.08318980099966)",450133,MIDLAND MEMORIAL HOSPITAL,400 ROSALIND REDFERN GROVER PARKWAY,MIDLAND,TX,79701,MIDLAND,4326851111,Acute Care Hospitals,Government - Hospital District or Authority,true,"400 ROSALIND REDFERN GROVER PARKWAY
MIDLAND, TX 79701
(31.997585, -102.100006)"
450135,Texas Health Harris Methodist Fort Worth,1301 Pennsylvania Ave.,,,Fort Worth,TX,76104,Tarrant,817-250-2100,Acute Care,Nonprofit - Church,Yes,"1301 PENNSYLVANIA AVENUE
FORT WORTH, TX 76104
(32.73843357800047, -97.3393107979997)",450135,TEXAS HEALTH HARRIS METHODIST FORT WORTH,1301 PENNSYLVANIA AVENUE,FORT WORTH,TX,76104,TARRANT,8172502100,Acute Care Hospitals,Voluntary non-profit - Church,true,"1301 PENNSYLVANIA AVENUE
FORT WORTH, TX 76104
(32.73848, -97.339313)"
450137,Baylor All Saints Medical Center At Fw,1400 Eighth Ave.,,,Fort Worth,TX,76104,Tarrant,817-926-2544,Acute Care,Nonprofit - Church,Yes,"1400 EIGHTH AVE
FORT WORTH, TX 76104
(32.73043999800046, -97.3437831279997)",450137,BAYLOR SCOTT AND WHITE ALL SAINTS MEDICAL CENTER,1400 EIGHTH AVE,FORT WORTH,TX,76104,TARRANT,8179262544,Acute Care Hospitals,Voluntary non-profit - Private,true,"1400 EIGHTH AVE
FORT WORTH, TX 76104
(32.730288, -97.34373)"
450143,Seton Smithville Regional Hospital,800 E. Highway 71,,,Smithville,TX,78957,Bastrop,512-237-3214,Acute Care,Nonprofit - Church,Yes,"800 EAST HIGHWAY 71
SMITHVILLE, TX 78957
(29.948611602000483, -97.07995891699966)",450143,SETON SMITHVILLE REGIONAL HOSPITAL,800 EAST HIGHWAY 71,SMITHVILLE,TX,78957,BASTROP,5122373214,Acute Care Hospitals,Voluntary non-profit - Private,true,"800 EAST HIGHWAY 71
SMITHVILLE, TX 78957
(29.974448, -97.105872)"
450144,Permian Regional Medical Center Andrews County Ho,720 Hospital Drive,,,Andrews,TX,79714,Andrews,432-523-2200,Acute Care,Government - Hospital District or Authority,Yes,"720 HOSPITAL DRIVE
ANDREWS, TX 79714
(32.33708692300047, -102.5461718359997)",450144,PERMIAN REGIONAL MEDICAL CENTER ANDREWS COUNTY HO,720 HOSPITAL DRIVE,ANDREWS,TX,79714,ANDREWS,4325232200,Acute Care Hospitals,Government - Hospital District or Authority,true,"720 HOSPITAL DRIVE
ANDREWS, TX 79714
(32.337144, -102.546362)"
450147,Detar Hospital Navarro,506 E. San Antonio St.,,,Victoria,TX,77902,Victoria,361-575-7441,Acute Care,Proprietary,Yes,"506 E SAN ANTONIO ST
VICTORIA, TX 77902
(28.807605655000486, -96.99848391899968)",450147,DETAR HOSPITAL NAVARRO,506 E SAN ANTONIO ST,VICTORIA,TX,77902,VICTORIA,3615757441,Acute Care Hospitals,Proprietary,true,"506 E SAN ANTONIO ST
VICTORIA, TX 77902
(28.807595, -96.99946)"
450148,Texas Health Harris Methodist Hospital Cleburne,201 Walls Drive,,,Cleburne,TX,76033,Johnson,817-641-2551,Acute Care,Nonprofit - Church,Yes,"201 WALLS DRIVE
CLEBURNE, TX 76033
(32.33106601500049, -97.43765403399965)",450148,TEXAS HEALTH HARRIS METHODIST HOSPITAL CLEBURNE,201 WALLS DRIVE,CLEBURNE,TX,76033,JOHNSON,8176412551,Acute Care Hospitals,Voluntary non-profit - Church,true,"201 WALLS DRIVE
CLEBURNE, TX 76033
(32.332874, -97.438798)"
450152,Metroplex Hospital,2201 S. Clear Creek Road,,,Killeen,TX,76542,Bell,254-526-7523,Acute Care,Nonprofit - Church,Yes,"2201 S CLEAR CREEK ROAD
KILLEEN, TX 76542
(31.112461921000488, -97.79993004499966)",450152,METROPLEX HOSPITAL,2201 S CLEAR CREEK ROAD,KILLEEN,TX,76542,BELL,2545267523,Acute Care Hospitals,Voluntary non-profit - Private,true,"2201 S CLEAR CREEK ROAD
KILLEEN, TX 76542
(31.112873, -97.799705)"
450154,Val Verde Regional Medical Center,801 Bedell Ave.,,,Del Rio,TX,78840,Val Verde,830-775-8566,Acute Care,Government - Hospital District or Authority,Yes,"801 BEDELL AVE
DEL RIO, TX 78840
(29.37499328400048, -100.89362680399967)",450154,VAL VERDE REGIONAL MEDICAL CENTER,801 BEDELL AVE,DEL RIO,TX,78840,VAL VERDE,8307758566,Acute Care Hospitals,Government - Hospital District or Authority,true,"801 BEDELL AVE
DEL RIO, TX 78840
(29.374519, -100.89314)"
450155,Hereford Regional Medical Center,801 E. Third,,,Hereford,TX,79045,Deaf Smith,806-364-2141,Acute Care,Government - Hospital District or Authority,Yes,"801 EAST THIRD
HEREFORD, TX 79045
(34.82073573500048, -102.39119302899968)",450155,HEREFORD REGIONAL MEDICAL CENTER,801 EAST THIRD,HEREFORD,TX,79045,DEAF SMITH,8063642141,Acute Care Hospitals,Government - Hospital District or Authority,true,"801 EAST THIRD
HEREFORD, TX 79045
(34.820348, -102.391915)"
450162,Grace Medical Center,2412 50th St.,,,Lubbock,TX,79412,Lubbock,806-788-4100,Acute Care,Proprietary,Yes,"2412 50TH ST
LUBBOCK, TX 79412
(33.548807783000484, -101.87010019999968)",450162,GRACE MEDICAL CENTER,2412 50TH ST,LUBBOCK,TX,79412,LUBBOCK,8067884100,Acute Care Hospitals,Proprietary,true,"2412 50TH ST
LUBBOCK, TX 79412
(33.548786, -101.869732)"
450163,Christus Spohn Hospital Kleberg,1311 E. General Cavazos Blvd.,,,Kingsville,TX,78363,Kleberg,361-595-1661,Acute Care,Nonprofit - Church,Yes,"1311 EAST GENERAL CAVAZOS BLVD
KINGSVILLE, TX 78363
(27.491443560000448, -97.85040010499966)",450163,CHRISTUS SPOHN HOSPITAL KLEBERG,1311 EAST GENERAL CAVAZOS BLVD,KINGSVILLE,TX,78363,KLEBERG,3615951661,Acute Care Hospitals,Voluntary non-profit - Private,true,"1311 EAST GENERAL CAVAZOS BLVD
KINGSVILLE, TX 78363
(27.491403, -97.850797)"
450165,South Texas Regional Medical Center,1905 Highway 97 East,,,Jourdanton,TX,78026,Atascosa,830-769-3515,Acute Care,Proprietary,Yes,"1905 HWY 97 EAST
JOURDANTON, TX 78026
(28.931356646000438, -98.5260969519997)",450165,SOUTH TEXAS REGIONAL MEDICAL CENTER,1905 HWY 97 EAST,JOURDANTON,TX,78026,ATASCOSA,8307693515,Acute Care Hospitals,Proprietary,true,"1905 HWY 97 EAST
JOURDANTON, TX 78026
"
450176,Mission Regional Medical Center,900 S. Bryan Road,,,Mission,TX,78572,Hidalgo,956-323-9000,Acute Care,Nonprofit - Church,Yes,"900 SOUTH BRYAN ROAD
MISSION, TX 78572
(26.196397118000448, -98.31274029799965)",450176,MISSION REGIONAL MEDICAL CENTER,900 SOUTH BRYAN ROAD,MISSION,TX,78572,HIDALGO,9563239000,Acute Care Hospitals,Voluntary non-profit - Private,true,"900 SOUTH BRYAN ROAD
MISSION, TX 78572
(26.19658, -98.312673)"
450177,Uvalde Memorial Hospital,1025 Garner Field Road,,,Uvalde,TX,78801,Uvalde,830-278-6251,Acute Care,Government - Hospital District or Authority,Yes,"1025 GARNER FIELD ROAD
UVALDE, TX 78801
(29.21514294500048, -99.76852128399969)",450177,UVALDE MEMORIAL HOSPITAL,1025 GARNER FIELD ROAD,UVALDE,TX,78801,UVALDE,8302786251,Acute Care Hospitals,Government - Hospital District or Authority,true,"1025 GARNER FIELD ROAD
UVALDE, TX 78801
(29.215109, -99.768688)"
450178,Pecos County Memorial Hospital,387 W. Interstate 10,,,Fort Stockton,TX,79735,Pecos,432-336-4201,Acute Care,Government - Local,Yes,"387 WEST I 10
FORT STOCKTON, TX 79735
(30.892351841000448, -102.26636752199965)",450178,PECOS COUNTY MEMORIAL HOSPITAL,387 WEST I 10,FORT STOCKTON,TX,79735,PECOS,4323364201,Acute Care Hospitals,Government - Local,true,"387 WEST I 10
FORT STOCKTON, TX 79735
(30.904962, -102.875306)"
450184,Memorial Hermann Hospital System,1635 North Loop West,,,Houston,TX,77008,Harris,713-448-6796,Acute Care,Nonprofit - Church,Yes,"1635 NORTH LOOP WEST
HOUSTON, TX 77008
(29.81224316200047, -95.43058859999968)",450184,MEMORIAL HERMANN HOSPITAL SYSTEM,1635  NORTH LOOP WEST,HOUSTON,TX,77008,HARRIS,7134486796,Acute Care Hospitals,Voluntary non-profit - Private,true,"1635 NORTH LOOP WEST
HOUSTON, TX 77008
(29.812283, -95.430685)"
450187,Scott & White Hospital Brenham,700 Medical Parkway,,,Brenham,TX,77833,Washington,979-836-6173,Acute Care,Nonprofit - Church,Yes,"700 MEDICAL PARKWAY
BRENHAM, TX 77833
(30.145335848000457, -96.39907674399967)",450187,SCOTT & WHITE HOSPITAL BRENHAM,700 MEDICAL PARKWAY,BRENHAM,TX,77833,WASHINGTON,9798366173,Acute Care Hospitals,Voluntary non-profit - Private,true,"700 MEDICAL PARKWAY
BRENHAM, TX 77833
(30.145217, -96.398828)"
450188,Etmc Clarksville,3000 W. Main St.,,,Clarksville,TX,75426,Red River,903-427-3851,Acute Care,Nonprofit - Other,Yes,"3000 W MAIN ST
CLARKSVILLE, TX 75426
(33.61115273200045, -95.04896668199967)",,,,,,,,,,,,
450192,Hill Regional Hospital,101 Circle Drive,,,Hillsboro,TX,76645,Hill,254-580-8500,Acute Care,Nonprofit - Church,Yes,"101 CIRCLE DRIVE
HILLSBORO, TX 76645
(32.012306425000475, -97.0994275919997)",450192,HILL REGIONAL HOSPITAL,101 CIRCLE DRIVE,HILLSBORO,TX,76645,HILL,2545808500,Acute Care Hospitals,Voluntary non-profit - Private,true,"101 CIRCLE DRIVE
HILLSBORO, TX 76645
(32.011484, -97.099044)"
450193,St Lukes Episcopal Hospital,6720 Bertner,,,Houston,TX,77030,Harris,832-355-1000,Acute Care,Nonprofit - Church,Yes,"6720 BERTNER
HOUSTON, TX 77030
(29.70839968000047, -95.39916400699968)",450193,CHI ST LUKE'S HEALTH BAYLOR COLLEGE OF MEDICINE ME,6720 BERTNER,HOUSTON,TX,77030,HARRIS,8323551000,Acute Care Hospitals,Voluntary non-profit - Church,true,"6720 BERTNER
HOUSTON, TX 77030
(29.708468, -95.399166)"
450194,East Texas Medical Center Jacksonville,501 S. Ragsdale,,,Jacksonville,TX,75766,Cherokee,903-541-5000,Acute Care,Nonprofit - Church,Yes,"501 S RAGSDALE
JACKSONVILLE, TX 75766
(31.960945688000436, -95.27033798699966)",450194,EAST TEXAS MEDICAL CENTER JACKSONVILLE,501 S RAGSDALE,JACKSONVILLE,TX,75766,CHEROKEE,9035415000,Acute Care Hospitals,Voluntary non-profit - Private,true,"501 S RAGSDALE
JACKSONVILLE, TX 75766
(31.961418, -95.270547)"
450196,Paris Regional Medical Center,820 Clarksville St.,,,Paris,TX,75460,Lamar,903-785-4521,Acute Care,Proprietary,Yes,"820 CLARKSVILLE ST
PARIS, TX 75460
(33.66044312200046, -95.54808321199965)",450196,PARIS REGIONAL MEDICAL CENTER,820 CLARKSVILLE ST,PARIS,TX,75460,LAMAR,9037854521,Acute Care Hospitals,Proprietary,true,"820 CLARKSVILLE ST
PARIS, TX 75460
(33.660277, -95.546783)"
450200,Wadley Regional Medical Center,1000 Pine St.,,,Texarkana,TX,75501,Bowie,903-798-8000,Acute Care,Proprietary,Yes,"1000 PINE STREET
TEXARKANA, TX 75501
(33.42760624200048, -94.04667523399968)",450200,WADLEY REGIONAL MEDICAL CENTER,1000 PINE STREET,TEXARKANA,TX,75501,BOWIE,9037988000,Acute Care Hospitals,Proprietary,true,"1000 PINE STREET
TEXARKANA, TX 75501
(33.428603, -94.047255)"
450203,Weatherford Regional Medical Center,713 E. Anderson St.,,,Weatherford,TX,76086,Parker,817-599-1190,Acute Care,Proprietary,Yes,"713 E ANDERSON ST
WEATHERFORD, TX 76086
(32.74753921100046, -97.78684751699967)",450203,WEATHERFORD REGIONAL MEDICAL CENTER,713 E ANDERSON ST,WEATHERFORD,TX,76086,PARKER,8175991190,Acute Care Hospitals,Proprietary,true,"713 E ANDERSON ST
WEATHERFORD, TX 76086
(32.747472, -97.785759)"
450209,Northwest Texas Hospital,1501 Coulter Road,,,Amarillo,TX,79106,Potter,806-354-1110,Acute Care,Proprietary,Yes,"1501 COULTER ROAD
AMARILLO, TX 79106
(35.185893878000456, -101.92037962399968)",450209,NORTHWEST TEXAS HOSPITAL,1501 COULTER ROAD,AMARILLO,TX,79106,POTTER,8063541110,Acute Care Hospitals,Proprietary,true,"1501 COULTER ROAD
AMARILLO, TX 79106
(35.198606, -101.921855)"
450210,Etmc Carthage,409 W. Cottage,,,Carthage,TX,75633,Panola,936-933-3841,Acute Care,Nonprofit - Church,Yes,"409 WEST COTTAGE
CARTHAGE, TX 75633
(32.143793908000475, -94.33337716199969)",450210,ETMC CARTHAGE,409 WEST COTTAGE,CARTHAGE,TX,75633,PANOLA,0936933841,Acute Care Hospitals,Voluntary non-profit - Private,true,"409 WEST COTTAGE
CARTHAGE, TX 75633
"
450211,Memorial Medical Center Of East Texas,1201 W. Frank St.,,,Lufkin,TX,75901,Angelina,936-634-8111,Acute Care,Nonprofit - Church,Yes,"1201 WEST FRANK STREET
LUFKIN, TX 75901
(31.325333912000474, -94.68526612199969)",450211,MEMORIAL MEDICAL CENTER OF EAST TEXAS,1201 WEST FRANK STREET,LUFKIN,TX,75901,ANGELINA,9366348111,Acute Care Hospitals,Voluntary non-profit - Private,true,"1201 WEST FRANK STREET
LUFKIN, TX 75901
"
450213,University Health System,4502 Medical Drive,,,San Antonio,TX,78229,Bexar,210-358-4000,Acute Care,Government - Hospital District or Authority,Yes,"4502 MEDICAL DR
SAN ANTONIO, TX 78229
(29.510074227000473, -98.57945748799966)",450213,UNIVERSITY HEALTH SYSTEM,4502 MEDICAL DR,SAN ANTONIO,TX,78229,BEXAR,2103584000,Acute Care Hospitals,Government - Hospital District or Authority,true,"4502 MEDICAL DR
SAN ANTONIO, TX 78229
(29.509532, -98.577242)"
450214,Gulf Coast Medical Center,10141 U.S. Highway 59 North,,,Wharton,TX,77488,Wharton,979-532-2500,Acute Care,Proprietary,Yes,"10141 US 59 NORTH
WHARTON, TX 77488
(29.325922837000462, -96.12076792499965)",450214,GULF COAST MEDICAL CENTER,10141 US 59 NORTH,WHARTON,TX,77488,WHARTON,9795322500,Acute Care Hospitals,Proprietary,true,"10141 US 59 NORTH
WHARTON, TX 77488
(29.328013, -96.120493)"
450219,Scott & White Hospital-Llano,200 W. Ollie,,,Llano,TX,78643,Llano,325-247-5040,Acute Care,Nonprofit - Church,Yes,"200 W OLLIE
LLANO, TX 78643
(30.743282645000477, -98.67767109699969)",450219,BAYLOR SCOTT & WHITE MEDICAL CENTER - LLANO,200 W OLLIE,LLANO,TX,78643,LLANO,3252475040,Acute Care Hospitals,Voluntary non-profit - Private,true,"200 W OLLIE
LLANO, TX 78643
(30.743343, -98.677078)"
450221,Moore County Hospital District,224 E. Second St.,,,Dumas,TX,79029,Moore,806-935-7171,Acute Care,Government - Hospital District or Authority,Yes,"224 E SECOND STREET
DUMAS, TX 79029
(35.86427041300044, -101.97030118399965)",450221,MOORE COUNTY HOSPITAL DISTRICT,224 E SECOND STREET,DUMAS,TX,79029,MOORE,8069357171,Acute Care Hospitals,Government - Hospital District or Authority,true,"224 E SECOND STREET
DUMAS, TX 79029
(35.864265, -101.971058)"
450222,Conroe Regional Medical Center,504 Medical Center Blvd.,,,Conroe,TX,77304,Montgomery,936-539-1111,Acute Care,Proprietary,Yes,"504 MEDICAL CENTER BLVD
CONROE, TX 77304
(30.28451513200048, -95.46626886099966)",450222,CONROE REGIONAL MEDICAL CENTER,504 MEDICAL CENTER BLVD,CONROE,TX,77304,MONTGOMERY,9365391111,Acute Care Hospitals,Proprietary,true,"504 MEDICAL CENTER BLVD
CONROE, TX 77304
(30.283054, -95.46936)"
450229,Hendrick Medical Center,1900 Pine,,,Abilene,TX,79601,Taylor,325-670-2000,Acute Care,Nonprofit - Church,Yes,"1900 PINE
ABILENE, TX 79601
(32.47147132900045, -99.73114769599965)",450229,HENDRICK MEDICAL CENTER,1900 PINE,ABILENE,TX,79601,TAYLOR,3256702000,Acute Care Hospitals,Voluntary non-profit - Private,true,"1900 PINE
ABILENE, TX 79601
(32.471542, -99.73115)"
450231,Baptist St Anthony's Hospital,1600 Wallace Blvd.,,,Amarillo,TX,79106,Potter,806-212-2000,Acute Care,Government - Federal,Yes,"1600 WALLACE BLVD
AMARILLO, TX 79106
(35.19498783600045, -101.91922595399967)",450231,BAPTIST ST ANTHONY'S HOSPITAL,1600 WALLACE BLVD,AMARILLO,TX,79106,POTTER,8062122000,Acute Care Hospitals,Proprietary,true,"1600 WALLACE BLVD
AMARILLO, TX 79106
(35.196243, -101.917897)"
450235,Memorial Hospital,1110 N. Sarah Dewitt Drive,,,Gonzales,TX,78629,Gonzales,830-672-7581,Acute Care,Government - Hospital District or Authority,Yes,"1110 NORTH SARAH DEWITT DRIVE
GONZALES, TX 78629
(29.516863760000433, -97.4299158229997)",450235,MEMORIAL HOSPITAL,1110 NORTH SARAH DEWITT DRIVE,GONZALES,TX,78629,GONZALES,8306727581,Acute Care Hospitals,Government - Hospital District or Authority,true,"1110 NORTH SARAH DEWITT DRIVE
GONZALES, TX 78629
(29.519215, -97.450983)"
450236,Hopkins County Memorial Hospital,115 Airport Road,,,Sulphur Springs,TX,75482,Hopkins,903-885-7671,Acute Care,Government - Hospital District or Authority,Yes,"115 AIRPORT RD
SULPHUR SPRINGS, TX 75482
(33.15631452800045, -95.60012823899967)",450236,HOPKINS COUNTY MEMORIAL HOSPITAL,115 AIRPORT RD,SULPHUR SPRINGS,TX,75482,HOPKINS,9038857671,Acute Care Hospitals,Government - Hospital District or Authority,true,"115 AIRPORT RD
SULPHUR SPRINGS, TX 75482
(33.156216, -95.599632)"
450237,Christus Santa Rosa Hospital,2827 Babcock Road,,,San Antonio,TX,78229,Bexar,210-704-2011,Acute Care,Nonprofit - Church,Yes,"2827 BABCOCK ROAD
SAN ANTONIO, TX 78229
(29.512315130000445, -98.59152898999969)",450237,CHRISTUS SANTA ROSA HOSPITAL,333 NORTH SANTA ROSA STEET,SAN ANTONIO,TX,78207,BEXAR,2107043342,Acute Care Hospitals,Voluntary non-profit - Church,true,"333 NORTH SANTA ROSA STEET
SAN ANTONIO, TX 78207
"
450241,Faith Community Hospital,717 Magnolia St.,,,Jacksboro,TX,76458,Jack,940-567-6633,Acute Care,Government - Hospital District or Authority,Yes,"717 MAGNOLIA ST
JACKSBORO, TX 76458
(33.22600854100045, -98.16922321399966)",450241,FAITH COMMUNITY HOSPITAL,717 MAGNOLIA ST,JACKSBORO,TX,76458,JACK,9405676633,Acute Care Hospitals,Government - Hospital District or Authority,true,"717 MAGNOLIA ST
JACKSBORO, TX 76458
(33.226023, -98.169179)"
450243,Hamlin Memorial Hospital,632 NW. Second St.,,,Hamlin,TX,79520,Jones,325-576-3646,Acute Care,Government - Hospital District or Authority,Yes,"632 N W SECOND STREET
HAMLIN, TX 79520
(32.885165876000485, -100.13474049499968)",450243,HAMLIN MEMORIAL HOSPITAL,632 N W SECOND STREET,HAMLIN,TX,79520,JONES,3255763646,Acute Care Hospitals,Government - Hospital District or Authority,true,"632 N W SECOND STREET
HAMLIN, TX 79520
(32.885162, -100.13466)"
450253,Bellville General Hospital,44 N. Cummings,,,Bellville,TX,77418,Austin,979-865-3141,Acute Care,Nonprofit - Church,Yes,"44 N CUMMINGS
BELLVILLE, TX 77418
(29.952073124000435, -96.26087018699968)",450253,BELLVILLE GENERAL HOSPITAL,44 N CUMMINGS,BELLVILLE,TX,77418,AUSTIN,9798653141,Acute Care Hospitals,Voluntary non-profit - Private,true,"44 N CUMMINGS
BELLVILLE, TX 77418
(29.952858, -96.260414)"
450271,Wise Regional Health System,609 Medical Center Drive,,,Decatur,TX,76234,Wise,940-627-5921,Acute Care,Government - Hospital District or Authority,Yes,"609 MEDICAL CENTER DRIVE
DECATUR, TX 76234
(33.21848912800044, -97.59545252599969)",450271,WISE REGIONAL HEALTH SYSTEM,609 MEDICAL CENTER DRIVE,DECATUR,TX,76234,WISE,9406275921,Acute Care Hospitals,Government - Hospital District or Authority,true,"609 MEDICAL CENTER DRIVE
DECATUR, TX 76234
(33.219793, -97.593883)"
450272,Central Texas Medical Center,1301 Wonder World Drive,,,San Marcos,TX,78666,Hays,512-753-3690,Acute Care,Nonprofit - Church,Yes,"1301 WONDER WORLD DRIVE
SAN MARCOS, TX 78666
(29.85183323600046, -97.94709174799965)",450272,CENTRAL TEXAS MEDICAL CENTER,1301 WONDER WORLD DRIVE,SAN MARCOS,TX,78666,HAYS,5127533690,Acute Care Hospitals,Voluntary non-profit - Private,true,"1301 WONDER WORLD DRIVE
SAN MARCOS, TX 78666
(29.85143, -97.94664)"
450280,Baylor Medical Center At Garland,2300 Marie Curie Drive,,,Garland,TX,75042,Dallas,972-487-5000,Acute Care,Government - Federal,Yes,"2300 MARIE CURIE DRIVE
GARLAND, TX 75042
(32.91860832900045, -96.66228097399966)",450280,BAYLOR SCOTT & WHITE MEDICAL CENTER GARLAND,2300 MARIE CURIE DRIVE,GARLAND,TX,75042,DALLAS,9724875000,Acute Care Hospitals,Government - Federal,true,"2300 MARIE CURIE DRIVE
GARLAND, TX 75042
(32.918601, -96.661092)"
450289,Harris Health System,2525 Holly Hall,,,Houston,TX,77054,Harris,713-566-6417,Acute Care,Government - Local,Yes,"2525 HOLLY HALL
HOUSTON, TX 77054
(29.685401131000447, -95.39061342799965)",450289,HARRIS HEALTH SYSTEM,2525 HOLLY HALL,HOUSTON,TX,77054,HARRIS,7135666417,Acute Care Hospitals,Government - Local,true,"2525 HOLLY HALL
HOUSTON, TX 77054
(29.685371, -95.390939)"
450292,Texas Health Presbyterian Hospital Kaufman,850 Ed Hall,,,Kaufman,TX,75142,Kaufman,972-932-7200,Acute Care,Nonprofit - Church,Yes,"850 ED HALL
KAUFMAN, TX 75142
(32.58450347000047, -96.27498631899965)",450292,TEXAS HEALTH PRESBYTERIAN HOSPITAL KAUFMAN,850 ED HALL,KAUFMAN,TX,75142,KAUFMAN,9729327200,Acute Care Hospitals,Voluntary non-profit - Private,true,"850 ED HALL
KAUFMAN, TX 75142
(32.591119, -96.315984)"
450293,Frio Regional Hospital,200 S. Interstate 35,,,Pearsall,TX,78061,Frio,830-334-3617,Acute Care,Nonprofit - Church,Yes,"200 S IH 35
PEARSALL, TX 78061
(28.89570242600047, -99.09937893399967)",450293,FRIO REGIONAL HOSPITAL,200 S IH 35,PEARSALL,TX,78061,FRIO,8303343617,Acute Care Hospitals,Government - Hospital District or Authority,true,"200 S IH 35
PEARSALL, TX 78061
(28.896252, -99.116212)"
450296,Cleveland Regional Medical Ctr,300 E. Crockett,,,Cleveland,TX,77327,Liberty,281-593-1811,Acute Care,Proprietary,Yes,"300 E CROCKETT
CLEVELAND, TX 77327
(30.342388995000476, -95.08540823899966)",,,,,,,,,,,,
450299,College Station Medical Center,1604 Rock Prairie Road,,,College Station,TX,77842,Brazos,979-764-5151,Acute Care,Proprietary,Yes,"1604 ROCK PRAIRIE ROAD
COLLEGE STATION, TX 77842
(30.582581340000445, -96.29126007199966)",450299,COLLEGE STATION MEDICAL CENTER,1604 ROCK PRAIRIE ROAD,COLLEGE STATION,TX,77842,BRAZOS,9797645151,Acute Care Hospitals,Proprietary,true,"1604 ROCK PRAIRIE ROAD
COLLEGE STATION, TX 77842
(30.582626, -96.291014)"
450306,Stamford Memorial Hospital,1601 Columbia St.,,,Stamford,TX,79553,Jones,325-773-2725,Acute Care,Government - Hospital District or Authority,Yes,"1601 COLUMBIA STREET
STAMFORD, TX 79553
(32.92832399000048, -99.78509949999966)",450306,STAMFORD MEMORIAL HOSPITAL,1601 COLUMBIA STREET,STAMFORD,TX,79553,JONES,3257732725,Acute Care Hospitals,Government - Hospital District or Authority,true,"1601 COLUMBIA STREET
STAMFORD, TX 79553
(32.92799, -99.78501)"
450324,Texoma Medical Center,5016 S U.S. Highway 75,,,Denison,TX,75020,Grayson,903-416-4000,Acute Care,Proprietary,Yes,"5016 S US HIGHWAY 75
DENISON, TX 75020
(33.749752802000444, -96.5861682369997)",450324,TEXOMA MEDICAL CENTER,5016 S US HIGHWAY 75,DENISON,TX,75020,GRAYSON,9034164000,Acute Care Hospitals,Proprietary,true,"5016 S US HIGHWAY 75
DENISON, TX 75020
(33.568811, -96.603059)"
450330,Oakbend Medical Center,1705 Jackson St.,,,Richmond,TX,77469,Fort Bend,281-341-3000,Acute Care,Government - Hospital District or Authority,Yes,"1705 JACKSON ST
RICHMOND, TX 77469
(29.577450550000435, -95.77147825299966)",450330,OAKBEND MEDICAL CENTER,1705 JACKSON ST,RICHMOND,TX,77469,FORT BEND,2813413000,Acute Care Hospitals,Government - Hospital District or Authority,true,"1705 JACKSON ST
RICHMOND, TX 77469
(29.5778, -95.771213)"
450340,San Angelo Community Medical Center,3501 Knickerbocker Road,,,San Angelo,TX,76904,Tom Green,325-949-9511,Acute Care,Proprietary,Yes,"3501 KNICKERBOCKER ROAD
SAN ANGELO, TX 76904
(31.419648015000462, -100.4706634529997)",450340,SAN ANGELO COMMUNITY MEDICAL CENTER,3501 KNICKERBOCKER ROAD,SAN ANGELO,TX,76904,TOM GREEN,3259499511,Acute Care Hospitals,Proprietary,true,"3501 KNICKERBOCKER ROAD
SAN ANGELO, TX 76904
(31.422315, -100.467158)"
450346,Memorial Hermann Baptist Beaumont Hospital,3080 College St.,,,Beaumont,TX,77701,Jefferson,409-212-5012,Acute Care,Nonprofit - Church,Yes,"3080 COLLEGE STREET
BEAUMONT, TX 77701
(30.068498462000434, -94.1197409509997)",450346,BAPTIST BEAUMONT HOSPITAL,3080 COLLEGE STREET,BEAUMONT,TX,77701,JEFFERSON,4092125012,Acute Care Hospitals,Voluntary non-profit - Private,true,"3080 COLLEGE STREET
BEAUMONT, TX 77701
(30.068484, -94.119621)"
450347,Huntsville Memorial Hospital,110 Memorial Hospital Drive,,,Huntsville,TX,77340,Walker,936-291-3411,Acute Care,Government - Hospital District or Authority,Yes,"110 MEMORIAL HOSPITAL DRIVE
HUNTSVILLE, TX 77340
(30.699033104000478, -95.55842429299969)",450347,HUNTSVILLE MEMORIAL HOSPITAL,110 MEMORIAL HOSPITAL DRIVE,HUNTSVILLE,TX,77340,WALKER,9362913411,Acute Care Hospitals,Voluntary non-profit - Private,true,"110 MEMORIAL HOSPITAL DRIVE
HUNTSVILLE, TX 77340
(30.69849, -95.55799)"
450348,Falls Community Hospital And Clinic,322 Coleman St.,,,Marlin,TX,76661,Falls,254-803-3561,Acute Care,Nonprofit - Church,Yes,"322 COLEMAN STREET
MARLIN, TX 76661
(31.307455156000458, -96.89600923499967)",450348,FALLS COMMUNITY HOSPITAL AND CLINIC,322 COLEMAN STREET,MARLIN,TX,76661,FALLS,2548033561,Acute Care Hospitals,Voluntary non-profit - Private,true,"322 COLEMAN STREET
MARLIN, TX 76661
(31.307469, -96.894747)"
450351,Texas Health Harris Methodist Hospital Stephenvill,411 N. Belknap St.,,,Stephenville,TX,76401,Erath,254-965-1500,Acute Care,Nonprofit - Church,Yes,"411 N BELKNAP ST
STEPHENVILLE, TX 76401
(32.222817457000474, -98.20456580499967)",450351,TEXAS HEALTH HARRIS METHODIST HOSPITAL STEPHENVILL,411 N BELKNAP ST,STEPHENVILLE,TX,76401,ERATH,2549651500,Acute Care Hospitals,Voluntary non-profit - Private,true,"411 N BELKNAP ST
STEPHENVILLE, TX 76401
(32.222235, -98.204224)"
450352,Hunt Regional Medical Center,4215 Joe Ramsey Blvd. ,,,Greenville,TX,75401,Hunt,903-408-5000,Acute Care,Government - Hospital District or Authority,Yes,"4215 JOE RAMSEY BLVD
GREENVILLE, TX 75401
(33.12343419600046, -96.12338054599968)",450352,HUNT REGIONAL MEDICAL CENTER,4215 JOE RAMSEY BLVD,GREENVILLE,TX,75401,HUNT,9034085000,Acute Care Hospitals,Government - Hospital District or Authority,true,"4215 JOE RAMSEY BLVD
GREENVILLE, TX 75401
(33.123657, -96.123204)"
450358,"Methodist Hospital,The",6565 Fannin,,,Houston,TX,77030,Harris,713-790-2221,Acute Care,Nonprofit - Church,Yes,"6565 FANNIN
HOUSTON, TX 77030
(29.71029073100044, -95.4002913439997)",450358,"METHODIST HOSPITAL,THE",6565 FANNIN,HOUSTON,TX,77030,HARRIS,7137902221,Acute Care Hospitals,Voluntary non-profit - Private,true,"6565 FANNIN
HOUSTON, TX 77030
(29.710842, -95.399887)"
450369,Childress Regional Medical Center,901 U.S. Highway 83 North,,,Childress,TX,79201,Childress,940-937-6371,Acute Care,Government - Hospital District or Authority,Yes,"HWY 83 NORTH
CHILDRESS, TX 79201
(34.22713244300047, -100.30250568299965)",450369,CHILDRESS REGIONAL MEDICAL CENTER,HWY 83 NORTH,CHILDRESS,TX,79201,CHILDRESS,9409376371,Acute Care Hospitals,Government - Hospital District or Authority,true,"HWY 83 NORTH
CHILDRESS, TX 79201
"
450370,Columbus Community Hospital,110 Shult Drive,,,Columbus,TX,78934,Colorado,979-732-2371,Acute Care,Nonprofit - Church,Yes,"110 SHULT DR
COLUMBUS, TX 78934
(29.694326900000476, -96.54255730299968)",450370,COLUMBUS COMMUNITY HOSPITAL,110 SHULT DR,COLUMBUS,TX,78934,COLORADO,9797322371,Acute Care Hospitals,Voluntary non-profit - Private,true,"110 SHULT DR
COLUMBUS, TX 78934
(29.694203, -96.54294)"
450372,Baylor Medical Center At Waxahachie,1405 W. Jefferson St.,,,Waxahachie,TX,75165,Ellis,972-923-7000,Acute Care,Nonprofit - Other,Yes,"1405 W JEFFERSON ST
WAXAHACHIE, TX 75165
(32.39664614200046, -96.86474631299967)",450372,BAYLOR SCOTT & WHITE MEDICAL CENTER- WAXAHACHIE,2400 N INTERSTATE HIGHWAY 35E,WAXAHACHIE,TX,75165,ELLIS,9729237000,Acute Care Hospitals,Voluntary non-profit - Private,true,"2400 N INTERSTATE HIGHWAY 35E
WAXAHACHIE, TX 75165
"
450373,East Texas Medical Center Mount Vernon,500 S. State Highway 37,,,Mount Vernon,TX,75457,Franklin,903-537-4552,Acute Care,Nonprofit - Other,Yes,"500 S STATE HWY 37
MOUNT VERNON, TX 75457
(33.17657384000046, -95.2334694919997)",,,,,,,,,,,,
450379,Dallas Medical Center,7 Medical Parkway,,,Dallas,TX,75234,Dallas,972-247-1000,Acute Care,Proprietary,Yes,"7 MEDICAL PARKWAY
DALLAS, TX 75234
(32.915007724000475, -96.8701365609997)",450379,DALLAS MEDICAL CENTER,7 MEDICAL PARKWAY,DALLAS,TX,75234,DALLAS,9722471000,Acute Care Hospitals,Proprietary,true,"7 MEDICAL PARKWAY
DALLAS, TX 75234
(32.915645, -96.871433)"
450388,Methodist Hospital,7700 Floyd Curl Drive,,,San Antonio,TX,78229,Bexar,210-575-4000,Acute Care,Proprietary,Yes,"7700 FLOYD CURL DR
SAN ANTONIO, TX 78229
(29.508905215000482, -98.57381969799968)",450388,METHODIST HOSPITAL,7700 FLOYD CURL DR,SAN ANTONIO,TX,78229,BEXAR,2105754000,Acute Care Hospitals,Proprietary,true,"7700 FLOYD CURL DR
SAN ANTONIO, TX 78229
(29.507399, -98.573474)"
450389,East Texas Medical Center Athens,2000 S. Palestine,,,Athens,TX,75751,Henderson,903-676-1000,Acute Care,Nonprofit - Church,Yes,"2000 SOUTH PALESTINE
ATHENS, TX 75751
(32.170739383000466, -95.84364004699967)",450389,EAST TEXAS MEDICAL CENTER ATHENS,2000 SOUTH PALESTINE,ATHENS,TX,75751,HENDERSON,9036761000,Acute Care Hospitals,Voluntary non-profit - Private,true,"2000 SOUTH PALESTINE
ATHENS, TX 75751
(32.167003, -95.841391)"
450395,Memorial Medical Center Livingston,1717 Highway 59 Bypass,,,Livingston,TX,77351,Polk,936-327-4381,Acute Care,Nonprofit - Church,Yes,"1717 HWY 59 BYPASS
LIVINGSTON, TX 77351
(30.730405473000474, -94.9377741079997)",450395,MEMORIAL MEDICAL CENTER LIVINGSTON,1717 HWY 59 BYPASS,LIVINGSTON,TX,77351,POLK,9363274381,Acute Care Hospitals,Voluntary non-profit - Private,true,"1717 HWY 59 BYPASS
LIVINGSTON, TX 77351
"
450399,Brownfield Regional Medical Center,705 E. Felt St.,,,Brownfield,TX,79316,Terry,806-637-3551,Acute Care,Government - Hospital District or Authority,Yes,"705 EAST FELT STREET
BROWNFIELD, TX 79316
(33.18710909200047, -102.26764383899967)",450399,BROWNFIELD REGIONAL MEDICAL CENTER,705 EAST FELT STREET,BROWNFIELD,TX,79316,TERRY,8066373551,Acute Care Hospitals,Government - Hospital District or Authority,true,"705 EAST FELT STREET
BROWNFIELD, TX 79316
(33.187101, -102.267668)"
450400,Parkview Regional Hospital,600 S. Bonham St.,,,Mexia,TX,76667,Limestone,254-562-5332,Acute Care,Proprietary,Yes,"600 SOUTH BONHAM STREET
MEXIA, TX 76667
(31.675868382000488, -96.48009801599966)",450400,PARKVIEW REGIONAL HOSPITAL,600 SOUTH BONHAM STREET,MEXIA,TX,76667,LIMESTONE,2545625332,Acute Care Hospitals,Proprietary,true,"600 SOUTH BONHAM STREET
MEXIA, TX 76667
(31.675937, -96.4801)"
450403,Medical Center Of Mckinney,4500 Medical Center Drive,,,Mckinney,TX,75069,Collin,972-547-8000,Acute Care,Proprietary,Yes,"4500 MEDICAL CENTER DRIVE
MCKINNEY, TX 75069
(33.16164324900046, -96.6355275309997)",450403,MEDICAL CENTER OF MCKINNEY,4500 MEDICAL CENTER DRIVE,MCKINNEY,TX,75069,COLLIN,9725478000,Acute Care Hospitals,Proprietary,true,"4500 MEDICAL CENTER DRIVE
MCKINNEY, TX 75069
(33.159033, -96.635558)"
450411,Eastland Memorial Hospital,304 S. Daugherty,,,Eastland,TX,76448,Eastland,254-629-2601,Acute Care,Government - Hospital District or Authority,Yes,"304 S DAUGHERTY
EASTLAND, TX 76448
(32.40017699600048, -98.82156238499965)",450411,EASTLAND MEMORIAL HOSPITAL,304 S DAUGHERTY,EASTLAND,TX,76448,EASTLAND,2546292601,Acute Care Hospitals,Government - Hospital District or Authority,true,"304 S DAUGHERTY
EASTLAND, TX 76448
(32.399631, -98.821638)"
450419,Texas Health Harris Methodist Hospital Azle,108 Denver Trail,,,Azle,TX,76020,Tarrant,817-444-8700,Acute Care,Nonprofit - Church,Yes,"108 DENVER TRAIL
AZLE, TX 76020
(32.88116677400046, -97.53374465599967)",450419,TEXAS HEALTH HARRIS METHODIST HOSPITAL AZLE,108 DENVER TRAIL,AZLE,TX,76020,TARRANT,8174448700,Acute Care Hospitals,Voluntary non-profit - Church,true,"108 DENVER TRAIL
AZLE, TX 76020
(32.88129, -97.533632)"
450422,Baylor Medical Center At Uptown,2727 E. Lemmon Ave. Building I,,,Dallas,TX,75204,Dallas,214-443-3000,Acute Care,Nonprofit - Church,Yes,"2727 EAST LEMMON AVENUE BUILDING I
DALLAS, TX 75204
(32.80375231500045, -96.79415059699966)",450422,BAYLOR MEDICAL CENTER AT UPTOWN,2727 EAST LEMMON AVENUE BUILDING I,DALLAS,TX,75204,DALLAS,2144433000,Acute Care Hospitals,Voluntary non-profit - Private,true,"2727 EAST LEMMON AVENUE BUILDING I
DALLAS, TX 75204
(32.80429, -96.79453)"
450424,San Jacinto Methodist Hospital,4401 Garth Road,,,Baytown,TX,77521,Harris,281-420-8600,Acute Care,Nonprofit - Church,Yes,"4401 GARTH ROAD
BAYTOWN, TX 77521
(29.76918987500045, -94.97760168799965)",450424,HOUSTON METHODIST SAN JACINTO HOSPITAL,4401 GARTH ROAD,BAYTOWN,TX,77521,HARRIS,2814208600,Acute Care Hospitals,Voluntary non-profit - Private,false,"4401 GARTH ROAD
BAYTOWN, TX 77521
(29.768499, -94.977543)"
450431,St David's Medical Center,919 E. 32nd St.,,,Austin,TX,78705,Travis,512-476-7111,Acute Care,Nonprofit - Church,Yes,"919 E 32ND ST
AUSTIN, TX 78705
(30.290795555000443, -97.72667312899966)",450431,ST DAVID'S MEDICAL CENTER,919 E 32ND ST,AUSTIN,TX,78705,TRAVIS,5124767111,Acute Care Hospitals,Voluntary non-profit - Private,true,"919 E 32ND ST
AUSTIN, TX 78705
(30.290095, -97.725128)"
450447,Navarro Regional Hospital,3201 W. Highway 22,,,Corsicana,TX,75110,Navarro,903-654-6800,Acute Care,Proprietary,Yes,"3201 WEST HIGHWAY 22
CORSICANA, TX 75110
(32.08492169900046, -96.50253531399966)",450447,NAVARRO REGIONAL HOSPITAL,3201 WEST HIGHWAY 22,CORSICANA,TX,75110,NAVARRO,9036546800,Acute Care Hospitals,Voluntary non-profit - Private,true,"3201 WEST HIGHWAY 22
CORSICANA, TX 75110
"
450451,Glen Rose Medical Center,1021 Holden St.,,,Glen Rose,TX,76043,Somervell,254-897-2215,Acute Care,Government - Hospital District or Authority,Yes,"1021 HOLDEN STREET
GLEN ROSE, TX 76043
(32.241272730000446, -97.74732198399965)",450451,GLEN ROSE MEDICAL CENTER,1021 HOLDEN STREET,GLEN ROSE,TX,76043,SOMERVELL,2548972215,Acute Care Hospitals,Government - Hospital District or Authority,true,"1021 HOLDEN STREET
GLEN ROSE, TX 76043
(32.241375, -97.747029)"
450460,Tyler County Hospital,1100 W. Bluff,,,Woodville,TX,75979,Tyler,409-283-8141,Acute Care,Government - Hospital District or Authority,Yes,"1100 WEST BLUFF
WOODVILLE, TX 75979
(30.77530155800048, -94.4278455759997)",450460,TYLER COUNTY HOSPITAL,1100 WEST BLUFF,WOODVILLE,TX,75979,TYLER,4092838141,Acute Care Hospitals,Government - Hospital District or Authority,false,"1100 WEST BLUFF
WOODVILLE, TX 75979
"
450462,Texas Health Presbyterian Hospital  Dallas,8200 Walnut Hill Lane,,,Dallas,TX,75231,Dallas,214-345-6789,Acute Care,Nonprofit - Church,Yes,"8200 WALNUT HILL LANE
DALLAS, TX 75231
(32.88317316400048, -96.76334545699967)",450462,TEXAS HEALTH PRESBYTERIAN HOSPITAL  DALLAS,8200 WALNUT HILL LANE,DALLAS,TX,75231,DALLAS,2143456789,Acute Care Hospitals,Voluntary non-profit - Private,true,"8200 WALNUT HILL LANE
DALLAS, TX 75231
(32.883056, -96.763901)"
450465,Matagorda Regional Medical Center,104 7th St.,,,Bay City,TX,77414,Matagorda,979-245-6383,Acute Care,Government - Hospital District or Authority,Yes,"104 7TH STREET
BAY CITY, TX 77414
(28.982807127000456, -95.99135590199967)",450465,MATAGORDA REGIONAL MEDICAL CENTER,104 7TH STREET,BAY CITY,TX,77414,MATAGORDA,9792456383,Acute Care Hospitals,Government - Hospital District or Authority,true,"104 7TH STREET
BAY CITY, TX 77414
(28.982805, -95.99129)"
450469,Texas Health Presbyterian Hospital-WNJ,500 N. Highland Ave.,,,Sherman,TX,75091,Grayson,903-870-4611,Acute Care,Nonprofit - Other,Yes,"500 N HIGHLAND AVENUE
SHERMAN, TX 75091
(33.63807317900046, -96.62358275999969)",450469,WILSON N JONES REGIONAL MEDICAL CENTER,500 N HIGHLAND AVENUE,SHERMAN,TX,75091,GRAYSON,9038704611,Acute Care Hospitals,Voluntary non-profit - Other,true,"500 N HIGHLAND AVENUE
SHERMAN, TX 75091
(33.635677, -96.622864)"
450475,Etmc Henderson,300 Wilson St.,,,Henderson,TX,75652,Rusk,903-657-7541,Acute Care,Nonprofit - Church,Yes,"300 WILSON STREET
HENDERSON, TX 75652
(32.16161490200045, -94.7963275249997)",450475,ETMC HENDERSON,300 WILSON STREET,HENDERSON,TX,75652,RUSK,9036577541,Acute Care Hospitals,Voluntary non-profit - Private,true,"300 WILSON STREET
HENDERSON, TX 75652
(32.161647, -94.796035)"
450484,Woodland Heights Medical Center,505 S. John Redditt Drive,,,Lufkin,TX,75904,Angelina,936-634-8311,Acute Care,Proprietary,Yes,"505 SOUTH JOHN REDDITT DRIVE
LUFKIN, TX 75904
(31.327920699000458, -94.75614351799965)",450484,WOODLAND HEIGHTS MEDICAL CENTER,505 SOUTH JOHN REDDITT DRIVE,LUFKIN,TX,75904,ANGELINA,9366348311,Acute Care Hospitals,Proprietary,true,"505 SOUTH JOHN REDDITT DRIVE
LUFKIN, TX 75904
(31.327115, -94.75602)"
450488,Allegiance Specialty Hospital Of Kilgore,1612 S. Henderson Blvd.,,,Kilgore,TX,75662,Gregg,903-984-3505,Acute Care,Proprietary,No,"1612 SOUTH HENDERSON BLVD
KILGORE, TX 75662
(32.37452966300049, -94.86916780799964)",450488,ALLEGIANCE SPECIALTY HOSPITAL OF KILGORE,1612 SOUTH HENDERSON BLVD,KILGORE,TX,75662,GREGG,9039843505,Acute Care Hospitals,Proprietary,true,"1612 SOUTH HENDERSON BLVD
KILGORE, TX 75662
(32.37387, -94.869194)"
450489,Medical Arts Hospital,2200 N. Bryan Ave.,,,Lamesa,TX,79331,Dawson,806-872-2183,Acute Care,Government - Hospital District or Authority,Yes,"2200 N BRYAN AVE
LAMESA, TX 79331
(32.73021189400049, -101.96040809699969)",450489,MEDICAL ARTS HOSPITAL,2200 N BRYAN AVE,LAMESA,TX,79331,DAWSON,8068722183,Acute Care Hospitals,Government - Hospital District or Authority,true,"2200 N BRYAN AVE
LAMESA, TX 79331
(32.750279, -101.966471)"
450497,Bowie Memorial Hospital,705 East Greenwood Ave.,,,Bowie,TX,76230,Montague,940-872-1126,Acute Care,Government - Hospital District or Authority,Yes,"705 EAST GREENWOOD AV
BOWIE, TX 76230
(33.56184312500045, -97.83515076799966)",450497,BOWIE MEMORIAL HOSPITAL,705 EAST GREENWOOD AV,BOWIE,TX,76230,MONTAGUE,9408721126,Acute Care Hospitals,Government - Hospital District or Authority,true,"705 EAST GREENWOOD AV
BOWIE, TX 76230
(33.560845, -97.834045)"
450498,Stephens Memorial Hospital,200 S. Geneva,,,Breckenridge,TX,76424,Stephens,254-559-2241,Acute Care,Government - Local,Yes,"200 SOUTH GENEVA
BRECKENRIDGE, TX 76424
(32.75459321800048, -98.8876965229997)",450498,STEPHENS MEMORIAL HOSPITAL,200 SOUTH GENEVA STREET,BRECKENRIDGE,TX,76424,STEPHENS,2545592241,Acute Care Hospitals,Government - Local,true,"200 SOUTH GENEVA STREET
BRECKENRIDGE, TX 76424
(32.754329, -98.887722)"
450508,Memorial Hospital,1204 Mound St.,,,Nacogdoches,TX,75961,Nacogdoches,936-564-4611,Acute Care,Government - Hospital District or Authority,Yes,"1204 MOUND ST
NACOGDOCHES, TX 75961
(31.613900249000437, -94.6494220409997)",450508,MEMORIAL HOSPITAL,1204 MOUND ST,NACOGDOCHES,TX,75961,NACOGDOCHES,9365644611,Acute Care Hospitals,Government - Hospital District or Authority,true,"1204 MOUND ST
NACOGDOCHES, TX 75961
(31.613771, -94.649451)"
450518,The Medical Center Of Southeast Texas,2555 Jimmy Johnson Blvd.,,,Port Arthur,TX,77640,Jefferson,409-853-5900,Acute Care,Proprietary,Yes,"2555 JIMMY JOHNSON BLVD
PORT ARTHUR, TX 77640
(29.93363685200046, -93.98927823799966)",450518,THE MEDICAL CENTER OF SOUTHEAST TEXAS,2555 JIMMY JOHNSON BLVD,PORT ARTHUR,TX,77640,JEFFERSON,4098535900,Acute Care Hospitals,Proprietary,true,"2555 JIMMY JOHNSON BLVD
PORT ARTHUR, TX 77640
(29.934985, -93.984938)"
450537,Methodist Richardson Medical Center,401 W. Campbell Road,,,Richardson,TX,75080,Dallas,972-498-4000,Acute Care,Government - Hospital District or Authority,Yes,"401 W CAMPBELL RD
RICHARDSON, TX 75080
(32.975322597000456, -96.72739033699969)",450537,METHODIST RICHARDSON MEDICAL CENTER,2831 E PRESIDENT GEORGE BUSH HIGHWAY,RICHARDSON,TX,75082,DALLAS,4692041000,Acute Care Hospitals,Government - Hospital District or Authority,true,"2831 E PRESIDENT GEORGE BUSH HIGHWAY
RICHARDSON, TX 75082
(32.995987, -96.669064)"
450539,Covenant Hospital Plainview,2601 Dimmit Road,,,Plainview,TX,79072,Hale,806-296-5531,Acute Care,Nonprofit - Church,Yes,"2601 DIMMITT RD
PLAINVIEW, TX 79072
(34.20771732500049, -101.73222900499968)",450539,COVENANT HOSPITAL PLAINVIEW,2601 DIMMITT RD,PLAINVIEW,TX,79072,HALE,8062965531,Acute Care Hospitals,Voluntary non-profit - Private,true,"2601 DIMMITT RD
PLAINVIEW, TX 79072
(34.207225, -101.731639)"
450558,Abilene Regional Medical Center,6250 Highway 83/84,,,Abilene,TX,79606,Taylor,325-428-1000,Acute Care,Proprietary,Yes,"6250 HWY 83/84
ABILENE, TX 79606
(32.39045117900048, -99.78593759799969)",450558,ABILENE REGIONAL MEDICAL CENTER,6250 HWY 83/84,ABILENE,TX,79606,TAYLOR,3254281000,Acute Care Hospitals,Proprietary,true,"6250 HWY 83/84
ABILENE, TX 79606
"
450563,Baylor Regional Medical Center At Grapevine,1650 W. College St.,,,Grapevine,TX,76051,Tarrant,817-481-1588,Acute Care,Nonprofit - Church,Yes,"1650 W COLLEGE ST
GRAPEVINE, TX 76051
(32.935572627000454, -97.09306020599968)",450563,BAYLOR SCOTT & WHITE MEDICAL CENTER  GRAPEVINE,1650 W COLLEGE ST,GRAPEVINE,TX,76051,TARRANT,8174811588,Acute Care Hospitals,Voluntary non-profit - Private,true,"1650 W COLLEGE ST
GRAPEVINE, TX 76051
(32.935596, -97.093949)"
450565,Palo Pinto General Hospital,400 SW. 25th Ave.,,,Mineral Wells,TX,76067,Palo Pinto,940-325-7891,Acute Care,Government - Hospital District or Authority,Yes,"400 SOUTHWEST 25 AVE
MINERAL WELLS, TX 76067
(32.79953394500046, -98.14558180799969)",450565,PALO PINTO GENERAL HOSPITAL,400 SOUTHWEST 25 AVE,MINERAL WELLS,TX,76067,PALO PINTO,9403257891,Acute Care Hospitals,Government - Hospital District or Authority,true,"400 SOUTHWEST 25 AVE
MINERAL WELLS, TX 76067
(32.799561, -98.145343)"
450571,Shannon Medical Center,120 E. Harris Ave.,,,San Angelo,TX,76903,Tom Green,325-653-6741,Acute Care,Nonprofit - Church,Yes,"120 EAST HARRIS AVENUE
SAN ANGELO, TX 76903
(31.464676898000448, -100.43456857099966)",450571,SHANNON MEDICAL CENTER,120 EAST HARRIS AVENUE,SAN ANGELO,TX,76903,TOM GREEN,3256536741,Acute Care Hospitals,Voluntary non-profit - Private,true,"120 EAST HARRIS AVENUE
SAN ANGELO, TX 76903
(31.46447, -100.435144)"
450573,Christus Jasper Memorial Hospital,1275 Marvin Hancock Drive,,,Jasper,TX,75951,Jasper,409-384-5461,Acute Care,Government - Hospital District or Authority,Yes,"1275 MARVIN HANCOCK DRIVE
JASPER, TX 75951
(30.908100824000485, -94.00847214299966)",450573,CHRISTUS JASPER MEMORIAL HOSPITAL,1275 MARVIN HANCOCK DRIVE,JASPER,TX,75951,JASPER,4093845461,Acute Care Hospitals,Government - Local,true,"1275 MARVIN HANCOCK DRIVE
JASPER, TX 75951
(30.907296, -94.008503)"
450578,Hemphill County Hospital,1020 S. 4th St.,,,Canadian,TX,79014,Hemphill,806-323-6622,Acute Care,Government - Hospital District or Authority,Yes,"1020 S 4TH ST
CANADIAN, TX 79014
(35.905193006000445, -100.38741821999969)",450578,HEMPHILL COUNTY HOSPITAL,1020 S 4TH ST,CANADIAN,TX,79014,HEMPHILL,8063236622,Acute Care Hospitals,Government - Hospital District or Authority,true,"1020 S 4TH ST
CANADIAN, TX 79014
(35.902889, -100.387404)"
450580,East Texas Medical Center Crockett,1100 Loop 304 East,,,Crockett,TX,75835,Houston,936-546-3862,Acute Care,Nonprofit - Church,Yes,"1100 LOOP 304 EAST
CROCKETT, TX 75835
(31.312390140000446, -95.4732285239997)",450580,EAST TEXAS MEDICAL CENTER CROCKETT,1100 LOOP 304 EAST,CROCKETT,TX,75835,HOUSTON,9365463862,Acute Care Hospitals,Voluntary non-profit - Private,true,"1100 LOOP 304 EAST
CROCKETT, TX 75835
(31.317869, -95.436691)"
450584,Wilbarger General Hospital,920 Hillcrest Drive,,,Vernon,TX,76384,Wilbarger,940-552-9351,Acute Care,Government - Hospital District or Authority,Yes,"920 HILLCREST DR
VERNON, TX 76384
(34.16101687900044, -99.31391189899966)",450584,WILBARGER GENERAL HOSPITAL,920 HILLCREST DR,VERNON,TX,76384,WILBARGER,9405529351,Acute Care Hospitals,Government - Hospital District or Authority,true,"920 HILLCREST DR
VERNON, TX 76384
(34.158467, -99.312936)"
450586,Seymour Hospital,200 Stadium Drive,,,Seymour,TX,76380,Baylor,940-889-5572,Acute Care,Government - Hospital District or Authority,Yes,"200 STADIUM DRIVE
SEYMOUR, TX 76380
(33.58938580200049, -99.24752348999965)",450586,SEYMOUR HOSPITAL,200 STADIUM DRIVE,SEYMOUR,TX,76380,BAYLOR,9408895572,Acute Care Hospitals,Government - Hospital District or Authority,true,"200 STADIUM DRIVE
SEYMOUR, TX 76380
(33.589277, -99.247505)"
450587,Brownwood Regional Medical Center,1501 Burnet Drive,,,Brownwood,TX,76801,Brown,325-646-8541,Acute Care,Proprietary,Yes,"1501 BURNET DR
BROWNWOOD, TX 76801
(31.677058114000488, -98.9923817459997)",450587,BROWNWOOD REGIONAL MEDICAL CENTER,1501 BURNET DR,BROWNWOOD,TX,76801,BROWN,3256468541,Acute Care Hospitals,Proprietary,true,"1501 BURNET DR
BROWNWOOD, TX 76801
(31.677419, -98.992315)"
450591,Angleton-Danbury Medical Center,132 Hospital Drive,,,Angleton,TX,77515,Brazoria,979-849-7721,Acute Care,Government - Hospital District or Authority,Yes,"132 HOSPITAL DR
ANGLETON, TX 77515
(29.185163443000476, -95.40372026899968)",,,,,,,,,,,,
450596,Lake Granbury Medical Center,1310 Paluxy Road,,,Granbury,TX,76048,Hood,817-573-2683,Acute Care,Proprietary,Yes,"1310 PALUXY RD
GRANBURY, TX 76048
(32.431553060000454, -97.80308886499967)",450596,LAKE GRANBURY MEDICAL CENTER,1310 PALUXY RD,GRANBURY,TX,76048,HOOD,8175732683,Acute Care Hospitals,Proprietary,true,"1310 PALUXY RD
GRANBURY, TX 76048
(32.431753, -97.802844)"
450597,Cuero Community Hospital,2550 N. Esplanade,,,Cuero,TX,77954,De Witt,361-275-6191,Acute Care,Government - Hospital District or Authority,Yes,"2550 N ESPLANADE
CUERO, TX 77954
(29.113191286000472, -97.28150941999968)",450597,CUERO COMMUNITY HOSPITAL,2550 N ESPLANADE,CUERO,TX,77954,DE WITT,3612756191,Acute Care Hospitals,Government - Hospital District or Authority,true,"2550 N ESPLANADE
CUERO, TX 77954
(29.116589, -97.280492)"
450604,Hill Country Memorial Hospital Inc,1020 S. State Highway 16,,,Fredericksburg,TX,78624,Gillespie,830-997-4353,Acute Care,Nonprofit - Church,Yes,"1020 SOUTH STATE HIGHWAY 16
FREDERICKSBURG, TX 78624
(30.26237446300047, -98.88031646699966)",450604,HILL COUNTRY MEMORIAL HOSPITAL INC,1020 SOUTH STATE HIGHWAY 16,FREDERICKSBURG,TX,78624,GILLESPIE,8309974353,Acute Care Hospitals,Voluntary non-profit - Private,true,"1020 SOUTH STATE HIGHWAY 16
FREDERICKSBURG, TX 78624
(30.26328, -98.87925)"
450605,Care Regional Medical Center,1711 W. Wheeler Ave.,,,Aransas Pass,TX,78336,San Patricio,361-758-8585,Acute Care,Proprietary,Yes,"1711 W WHEELER AVENUE
ARANSAS PASS, TX 78336
(27.91595230000047, -97.16199247699967)",450605,CARE REGIONAL MEDICAL CENTER,1711 W WHEELER AVENUE,ARANSAS PASS,TX,78336,SAN PATRICIO,3617588585,Acute Care Hospitals,Proprietary,true,"1711 W WHEELER AVENUE
ARANSAS PASS, TX 78336
(27.916082, -97.162123)"
45060F,Va Amarillo Healthcare System,6010 Amarillo Blvd. West,,,Amarillo,TX,79106,Potter,806-355-9703,Acute Care - Veterans Administration,Government Federal,No,"6010 AMARILLO BLVD. WEST
AMARILLO, TX 79106
(35.20360463500049, -101.9047359269997)",45060F,VA AMARILLO HEALTHCARE SYSTEM,6010 AMARILLO BLVD. WEST,AMARILLO,TX,79106,POTTER,8063559703,ACUTE CARE - VETERANS ADMINISTRATION,Government Federal,false,"6010 AMARILLO BLVD. WEST
AMARILLO, TX 79106
(35.202024, -101.90651)"
450610,Memorial Hermann Memorial City Medical Center,921 Gessner,,,Houston,TX,77024,Harris,713-242-3000,Acute Care,Nonprofit - Church,Yes,"921 GESSNER
HOUSTON, TX 77024
(29.780033701000434, -95.54460080099966)",450610,MEMORIAL HERMANN MEMORIAL CITY MEDICAL CENTER,921 GESSNER,HOUSTON,TX,77024,HARRIS,7132423000,Acute Care Hospitals,Voluntary non-profit - Private,true,"921 GESSNER
HOUSTON, TX 77024
(29.781416, -95.544324)"
450617,Clear Lake Regional Medical Center,500 Medical Center Blvd.,,,Webster,TX,77598,Harris,281-332-2511,Acute Care,Proprietary,Yes,"500 MEDICAL CENTER BLVD
WEBSTER, TX 77598
(29.54037260800044, -95.12728855299969)",450617,CLEAR LAKE REGIONAL MEDICAL CENTER,500 MEDICAL CENTER BLVD,WEBSTER,TX,77598,HARRIS,2813322511,Acute Care Hospitals,Proprietary,true,"500 MEDICAL CENTER BLVD
WEBSTER, TX 77598
(29.540283, -95.127349)"
450620,Dimmit Regional Hospital,704 Hospital Drive,,,Carrizo Springs,TX,78834,Dimmit,830-876-2424,Acute Care,Government - Hospital District or Authority,Yes,"704 HOSPITAL DRIVE
CARRIZO SPRINGS, TX 78834
(28.519649485000457, -99.86260120299966)",450620,DIMMIT REGIONAL HOSPITAL,704 HOSPITAL DRIVE,CARRIZO SPRINGS,TX,78834,DIMMIT,8308762424,Acute Care Hospitals,Voluntary non-profit - Private,true,"704 HOSPITAL DRIVE
CARRIZO SPRINGS, TX 78834
(28.519914, -99.86209)"
450634,Denton Regional Medical Center,3535 S. Interstate 35 East,,,Denton,TX,76210,Denton,940-384-3535,Acute Care,Proprietary,Yes,"3535 SOUTH I35 EAST
DENTON, TX 76210
(33.15170048800047, -97.0955362629997)",450634,DENTON REGIONAL MEDICAL CENTER,3535 SOUTH I35 EAST,DENTON,TX,76210,DENTON,9403843535,Acute Care Hospitals,Proprietary,true,"3535 SOUTH I35 EAST
DENTON, TX 76210
(33.176196, -97.093133)"
450638,Houston Northwest Medical Center,710 FM 1960 West,,,Houston,TX,77090,Harris,281-440-1000,Acute Care,Proprietary,Yes,"710 FM 1960 WEST
HOUSTON, TX 77090
(30.018112533000476, -95.43963368899966)",450638,HOUSTON NORTHWEST MEDICAL CENTER,710 CYPRESS CREEK PARKWAY,HOUSTON,TX,77090,HARRIS,2814401000,Acute Care Hospitals,Proprietary,true,"710 CYPRESS CREEK PARKWAY
HOUSTON, TX 77090
(30.018099, -95.439796)"
450639,Texas Health Harris Methodist Hurst-Euless-Bedford,1600 Hospital Parkway,,,Bedford,TX,76022,Tarrant,817-848-4000,Acute Care,Nonprofit - Church,Yes,"1600 HOSPITAL PARKWAY
BEDFORD, TX 76022
(32.83286399500048, -97.12518524299969)",450639,TEXAS HEALTH HARRIS METHODIST HURST-EULESS-BEDFORD,1600 HOSPITAL PARKWAY,BEDFORD,TX,76022,TARRANT,8178484000,Acute Care Hospitals,Voluntary non-profit - Private,true,"1600 HOSPITAL PARKWAY
BEDFORD, TX 76022
(32.835348, -97.125242)"
45063F,Va West Texas Healthcare System,300 Veterans Blvd.,,,Big Spring,TX,79720,Howard,432-263-7361,Acute Care - Veterans Administration,Government Federal,No,"300 VETERANS BLVD.
BIG SPRING, TX 79720
(32.23184502400045, -101.47114698999968)",45063F,VA WEST TEXAS HEALTHCARE SYSTEM,300 VETERANS BLVD.,BIG SPRING,TX,79720,HOWARD,4322637361,ACUTE CARE - VETERANS ADMINISTRATION,Government Federal,false,"300 VETERANS BLVD.
BIG SPRING, TX 79720
(32.231824, -101.471074)"
450641,Nocona General Hospital,100 Park Road,,,Nocona,TX,76255,Montague,940-825-3235,Acute Care,Government - Hospital District or Authority,Yes,"100 PARK ROAD
NOCONA, TX 76255
(33.77666907900044, -97.73160329699965)",450641,NOCONA GENERAL HOSPITAL,100 PARK ROAD,NOCONA,TX,76255,MONTAGUE,9408253235,Acute Care Hospitals,Government - Hospital District or Authority,true,"100 PARK ROAD
NOCONA, TX 76255
(33.777813, -97.731568)"
450643,Doctors Hospital Of Laredo,10700 McPherson Road,,,Laredo,TX,78041,Webb,956-523-2000,Acute Care,Proprietary,Yes,"10700 MCPHERSON ROAD
LAREDO, TX 78041
(27.608707212000468, -99.47676853899969)",450643,DOCTORS HOSPITAL OF LAREDO,10700 MCPHERSON ROAD,LAREDO,TX,78041,WEBB,9565232000,Acute Care Hospitals,Proprietary,true,"10700 MCPHERSON ROAD
LAREDO, TX 78041
(27.604217, -99.477038)"
450644,West Houston Medical Center,12141 Richmond Ave.,,,Houston,TX,77082,Harris,281-588-8080,Acute Care,Proprietary,Yes,"12141 RICHMOND AVE
HOUSTON, TX 77082
(29.73056272600047, -95.5932092169997)",450644,WEST HOUSTON MEDICAL CENTER,12141 RICHMOND AVE,HOUSTON,TX,77082,HARRIS,2815888080,Acute Care Hospitals,Proprietary,true,"12141 RICHMOND AVE
HOUSTON, TX 77082
(29.730278, -95.59486)"
450647,Medical City Dallas Hospital,7777 Forest Lane,,,Dallas,TX,75230,Dallas,972-566-6222,Acute Care,Proprietary,Yes,"7777 FOREST LANE
DALLAS, TX 75230
(32.90947736500044, -96.77213011799967)",450647,MEDICAL CITY DALLAS HOSPITAL,7777 FOREST LANE,DALLAS,TX,75230,DALLAS,9725666222,Acute Care Hospitals,Proprietary,true,"7777 FOREST LANE
DALLAS, TX 75230
(32.909447, -96.772089)"
450651,Medical Center Of Plano,3901 W. 15th St.,,,Plano,TX,75075,Collin,972-596-6800,Acute Care,Proprietary,Yes,"3901 W 15TH ST
PLANO, TX 75075
(33.019377894000456, -96.7657237519997)",450651,MEDICAL CENTER OF PLANO,3901 W 15TH ST,PLANO,TX,75075,COLLIN,9725966800,Acute Care Hospitals,Proprietary,true,"3901 W 15TH ST
PLANO, TX 75075
(33.019359, -96.765907)"
450653,Scenic Mountain Medical Center,1601 W. 11th Place,,,Big Spring,TX,79720,Howard,432-263-1211,Acute Care,Proprietary,Yes,"1601 W 11TH PLACE
BIG SPRING, TX 79720
(32.23982321000045, -101.49303512499966)",450653,SCENIC MOUNTAIN MEDICAL CENTER,1601 W 11TH PLACE,BIG SPRING,TX,79720,HOWARD,4322631211,Acute Care Hospitals,Proprietary,true,"1601 W 11TH PLACE
BIG SPRING, TX 79720
(32.239603, -101.494337)"
450654,Starr County Memorial Hospital,128  N. FM 3167,,,Rio Grande City,TX,78582,Starr,956-487-5561,Acute Care,Government - Hospital District or Authority,Yes,"128 N FM RD 3167
RIO GRANDE CITY, TX 78582
(26.376012012000444, -98.79654943099968)",450654,STARR COUNTY MEMORIAL HOSPITAL,128  N FM RD 3167,RIO GRANDE CITY,TX,78582,STARR,9564875561,Acute Care Hospitals,Government - Hospital District or Authority,true,"128 N FM RD 3167
RIO GRANDE CITY, TX 78582
"
450656,Nacogdoches Medical Center,4920 N.E. Stallings Drive,,,Nacogdoches,TX,75961,Nacogdoches,936-569-9481,Acute Care,Nonprofit - Other,Yes,"4920 NE STALLINGS DRIVE
NACOGDOCHES, TX 75961
(31.583861306000472, -94.62222909499968)",450656,NACOGDOCHES MEDICAL CENTER,4920 NE STALLINGS DRIVE,NACOGDOCHES,TX,75961,NACOGDOCHES,9365699481,Acute Care Hospitals,Voluntary non-profit - Other,true,"4920 NE STALLINGS DRIVE
NACOGDOCHES, TX 75961
(31.652058, -94.654265)"
450658,East Texas Medical Center - Fairfield,125 Newman St.,,,Fairfield,TX,75840,Freestone,903-389-1612,Acute Care,Nonprofit - Church,Yes,"125 NEWMAN ST
FAIRFIELD, TX 75840
(31.725601140000435, -96.1696530589997)",450658,EAST TEXAS MEDICAL CENTER - FAIRFIELD,125 NEWMAN ST,FAIRFIELD,TX,75840,FREESTONE,9033891612,Acute Care Hospitals,Voluntary non-profit - Private,true,"125 NEWMAN ST
FAIRFIELD, TX 75840
(31.725902, -96.169619)"
450659,Park Plaza Hospital,1313 Hermann Drive,,,Houston,TX,77004,Harris,713-527-5019,Acute Care,Proprietary,Yes,"1313 HERMANN DR
HOUSTON, TX 77004
(29.72244478300047, -95.38809553799967)",450659,PARK PLAZA HOSPITAL,1313 HERMANN DR,HOUSTON,TX,77004,HARRIS,7135275019,Acute Care Hospitals,Proprietary,true,"1313 HERMANN DR
HOUSTON, TX 77004
(29.722334, -95.387978)"
450661,Odessa Regional Hospital,520 E. 6th St.,,,Odessa,TX,79761,Ector,432-582-8340,Acute Care,Proprietary,Yes,"520 E 6TH STREET
ODESSA, TX 79761
(31.85123502200048, -102.36636533099966)",450661,ODESSA REGIONAL HOSPITAL,520 E 6TH STREET,ODESSA,TX,79761,ECTOR,4325828340,Acute Care Hospitals,Proprietary,true,"520 E 6TH STREET
ODESSA, TX 79761
(31.851458, -102.366027)"
450662,Valley Regional Medical Center,100 E. Alton Gloor Blvd.,,,Brownsville,TX,78526,Cameron,956-350-7000,Acute Care,Proprietary,Yes,"100 A ALTON GLOOR
BROWNSVILLE, TX 78526
(25.969992973000444, -97.47837904299968)",450662,VALLEY REGIONAL MEDICAL CENTER,100 A ALTON GLOOR,BROWNSVILLE,TX,78526,CAMERON,9563507000,Acute Care Hospitals,Proprietary,true,"100 A ALTON GLOOR
BROWNSVILLE, TX 78526
(25.979108, -97.516076)"
450668,Sierra Medical Center,1625 Medical Center Drive,,,El Paso,TX,79902,El Paso,915-747-4000,Acute Care,Proprietary,Yes,"1625 MEDICAL CENTER DR
EL PASO, TX 79902
(31.778121413000463, -106.47969310699966)",450668,SIERRA MEDICAL CENTER,1625 MEDICAL CENTER DR,EL PASO,TX,79902,EL PASO,9157474000,Acute Care Hospitals,Proprietary,true,"1625 MEDICAL CENTER DR
EL PASO, TX 79902
(31.77867, -106.47965)"
450669,Medical Center Of Lewisville,500 W. Main St.,,,Lewisville,TX,75057,Denton,972-420-1000,Acute Care,Nonprofit - Church,Yes,"500 WEST MAIN STREET
LEWISVILLE, TX 75057
(33.04625333100046, -97.00475062899966)",450669,MEDICAL CENTER OF LEWISVILLE,500 WEST MAIN STREET,LEWISVILLE,TX,75057,DENTON,9724201000,Acute Care Hospitals,Voluntary non-profit - Private,true,"500 WEST MAIN STREET
LEWISVILLE, TX 75057
(33.046306, -97.004207)"
45066F,Dallas Va Medical Center - Va North Texas,4500 S. Lancaster Road,,,Dallas,TX,75216,Dallas,214-742-8387,Acute Care - Veterans Administration,Government Federal,No,"4500 S. LANCASTER ROAD
DALLAS, TX 75216
(32.69410704800049, -96.79289965699968)",45066F,DALLAS VA MEDICAL CENTER - VA NORTH TEXAS,4500 S. LANCASTER ROAD,DALLAS,TX,75216,DALLAS,2147428387,ACUTE CARE - VETERANS ADMINISTRATION,Government Federal,false,"4500 S. LANCASTER ROAD
DALLAS, TX 75216
(32.693825, -96.79282)"
450670,Tomball Regional Medical Center,605 Holderrieth,,,Tomball,TX,77375,Harris,281-351-1623,Acute Care,Government - Hospital District or Authority,Yes,"605 HOLDERRIETH
TOMBALL, TX 77375
(30.089252889000477, -95.62389203199967)",450670,TOMBALL REGIONAL MEDICAL CENTER,605 HOLDERRIETH,TOMBALL,TX,77375,HARRIS,2813511623,Acute Care Hospitals,Government - Hospital District or Authority,true,"605 HOLDERRIETH
TOMBALL, TX 77375
(30.088849, -95.623972)"
450672,Plaza Medical Center Of Fort Worth,900 Eighth Ave.,,,Fort Worth,TX,76104,Tarrant,817-336-2100,Acute Care,Proprietary,Yes,"900 EIGHTH AVENUE
FORT WORTH, TX 76104
(32.734543422000456, -97.34374819899966)",450672,PLAZA MEDICAL CENTER OF FORT WORTH,900 EIGHTH AVENUE,FORT WORTH,TX,76104,TARRANT,8173362100,Acute Care Hospitals,Proprietary,true,"900 EIGHTH AVENUE
FORT WORTH, TX 76104
(32.734721, -97.343709)"
450674,"Womans Hospital Of Texas,The",7600 Fannin,,,Houston,TX,77054,Harris,713-790-1234,Acute Care,Proprietary,Yes,"7600 FANNIN
HOUSTON, TX 77054
(29.692731500000434, -95.40136210899965)",450674,"WOMANS HOSPITAL OF TEXAS,THE",7600 FANNIN,HOUSTON,TX,77054,HARRIS,7137901234,Acute Care Hospitals,Proprietary,true,"7600 FANNIN
HOUSTON, TX 77054
(29.692926, -95.401122)"
450675,Medical Center Of Arlington,3301 Matlock Road,,,Arlington,TX,76015,Tarrant,817-465-3241,Acute Care,Proprietary,Yes,"3301 MATLOCK ROAD
ARLINGTON, TX 76015
(32.69195030800046, -97.11475069399967)",450675,MEDICAL CENTER OF ARLINGTON,3301 MATLOCK ROAD,ARLINGTON,TX,76015,TARRANT,8174653241,Acute Care Hospitals,Proprietary,true,"3301 MATLOCK ROAD
ARLINGTON, TX 76015
(32.691845, -97.114799)"
450677,Huguley Memorial Medical Center,11801 South Freeway,,,Burleson,TX,76028,Johnson,817-293-9110,Acute Care,Nonprofit - Church,Yes,"11801 SOUTH FREEWAY
BURLESON, TX 76028
(32.55265003000045, -97.31902708199965)",450677,HUGULEY MEMORIAL MEDICAL CENTER,11801 SOUTH FREEWAY,BURLESON,TX,76028,JOHNSON,8175685317,Acute Care Hospitals,Voluntary non-profit - Church,true,"11801 SOUTH FREEWAY
BURLESON, TX 76028
(32.586544, -97.319104)"
450678,Doctors Hospital,9440 Poppy Drive,,,Dallas,TX,75218,Dallas,214-324-6100,Acute Care,Proprietary,Yes,"9440 POPPY DR
DALLAS, TX 75218
(32.835283932000436, -96.70554271799966)",450678,DOCTORS HOSPITAL,9440 POPPY DR,DALLAS,TX,75218,DALLAS,2143246100,Acute Care Hospitals,Proprietary,true,"9440 POPPY DR
DALLAS, TX 75218
(32.835231, -96.705836)"
450684,Memorial Hermann Northeast,18951 Memorial North,,,Humble,TX,77338,Harris,281-540-7700,Acute Care,Government - Hospital District or Authority,Yes,"18951 MEMORIAL NORTH
HUMBLE, TX 77338
(29.995915451000485, -95.27491099799965)",450684,MEMORIAL HERMANN NORTHEAST,18951 MEMORIAL NORTH,HUMBLE,TX,77338,HARRIS,2815407700,Acute Care Hospitals,Government - Hospital District or Authority,true,"18951 MEMORIAL NORTH
HUMBLE, TX 77338
(29.994517, -95.275353)"
450686,University Medical Center,602 Indiana Ave.,,,Lubbock,TX,79415,Lubbock,806-775-8200,Acute Care,Government - Hospital District or Authority,Yes,"602 INDIANA AVENUE
LUBBOCK, TX 79415
(33.60700019400048, -101.88780712299967)",450686,UNIVERSITY MEDICAL CENTER,602 INDIANA AVENUE,LUBBOCK,TX,79415,LUBBOCK,8067758200,Acute Care Hospitals,Government - Hospital District or Authority,true,"602 INDIANA AVENUE
LUBBOCK, TX 79415
(33.589429, -101.887977)"
450688,Dallas Regional Medical Center,1011 N. Galloway Ave.,,,Mesquite,TX,75149,Dallas,214-320-7000,Acute Care,Proprietary,Yes,"1011 NORTH GALLOWAY AVENUE
MESQUITE, TX 75149
(32.778641914000445, -96.60007104699969)",450688,DALLAS REGIONAL MEDICAL CENTER,1011 NORTH GALLOWAY AVENUE,MESQUITE,TX,75149,DALLAS,2143207000,Acute Care Hospitals,Proprietary,true,"1011 NORTH GALLOWAY AVENUE
MESQUITE, TX 75149
(32.777322, -96.599646)"
450690,University Of Texas Health Science Center At Tyler,11937 U.S. Highway 271,,,Tyler,TX,75708,Smith,903-877-7777,Acute Care,Government - State,Yes,"11937 US HIGHWAY 271
TYLER, TX 75708
(32.424286708000466, -95.20790183699967)",450690,UNIVERSITY OF TEXAS HEALTH SCIENCE CENTER AT TYLER,11937 US HIGHWAY 271,TYLER,TX,75708,SMITH,9038777777,Acute Care Hospitals,Government - State,true,"11937 US HIGHWAY 271
TYLER, TX 75708
(32.419948, -95.218309)"
450694,El Campo Memorial Hospital,303 Sandy Corner Road,,,El Campo,TX,77437,Wharton,979-578-5251,Acute Care,Nonprofit - Other,Yes,"303 SANDY CORNER RD
EL CAMPO, TX 77437
(29.219498442000486, -96.28969005299967)",450694,EL CAMPO MEMORIAL HOSPITAL,303 SANDY CORNER RD,EL CAMPO,TX,77437,WHARTON,9795785251,Acute Care Hospitals,Voluntary non-profit - Other,true,"303 SANDY CORNER RD
EL CAMPO, TX 77437
(29.219127, -96.289577)"
450697,Southwest General Hospital,7400 Barlite Blvd.,,,San Antonio,TX,78224,Bexar,210-921-2000,Acute Care,Nonprofit - Church,Yes,"7400 BARLITE BLVD
SAN ANTONIO, TX 78224
(29.35410762300046, -98.54647878799966)",450697,SOUTHWEST GENERAL HOSPITAL,7400 BARLITE BLVD,SAN ANTONIO,TX,78224,BEXAR,2109212000,Acute Care Hospitals,Proprietary,true,"7400 BARLITE BLVD
SAN ANTONIO, TX 78224
(29.354092, -98.54654)"
450698,Lamb Healthcare Center,1500 S. Sunset,,,Littlefield,TX,79339,Lamb,806-385-6411,Acute Care,Government - Local,Yes,"1500 S SUNSET
LITTLEFIELD, TX 79339
(33.91241132200048, -102.3454165069997)",450698,LAMB HEALTHCARE CENTER,1500 S SUNSET,LITTLEFIELD,TX,79339,LAMB,8063856411,Acute Care Hospitals,Government - Local,true,"1500 S SUNSET
LITTLEFIELD, TX 79339
(33.91091, -102.345445)"
450702,Longview Regional Medical Center,2901 N. Fourth St.,,,Longview,TX,75605,Gregg,903-758-1818,Acute Care,Proprietary,Yes,"2901 N FOURTH ST
LONGVIEW, TX 75605
(32.53252516000049, -94.72880224799968)",450702,LONGVIEW REGIONAL MEDICAL CENTER,2901 N FOURTH ST,LONGVIEW,TX,75605,GREGG,9037581818,Acute Care Hospitals,Proprietary,true,"2901 N FOURTH ST
LONGVIEW, TX 75605
(32.532039, -94.728825)"
450709,Christus St John Hospital,18300 St. John Drive,,,Nassau Bay,TX,77058,Harris,281-333-5503,Acute Care,Nonprofit - Church,Yes,"18300 ST JOHN DRIVE
NASSAU BAY, TX 77058
(29.54885890300045, -95.0848286539997)",450709,HOUSTON METHODIST ST JOHN HOSPITAL,18300 ST JOHN DRIVE,NASSAU BAY,TX,77058,HARRIS,2813335503,Acute Care Hospitals,Voluntary non-profit - Private,true,"18300 ST JOHN DRIVE
NASSAU BAY, TX 77058
(29.549553, -95.085116)"
450711,Rio Grande Regional Hospital,101 E. Ridge Road,,,Mcallen,TX,78503,Hidalgo,956-632-6000,Acute Care,Proprietary,Yes,"101 E RIDGE RD
MCALLEN, TX 78503
(26.18562728100045, -98.22161656499969)",450711,RIO GRANDE REGIONAL HOSPITAL,101 E RIDGE RD,MCALLEN,TX,78503,HIDALGO,9566326000,Acute Care Hospitals,Proprietary,true,"101 E RIDGE RD
MCALLEN, TX 78503
(26.185574, -98.221226)"
450713,St David's South Austin Medical Center,901 W. Ben White Blvd.,,,Austin,TX,78704,Travis,512-448-7107,Acute Care,Proprietary,Yes,"901 WEST BEN WHITE BLVD
AUSTIN, TX 78704
(30.22727330100048, -97.77426033599966)",450713,ST DAVID'S SOUTH AUSTIN MEDICAL CENTER,901 WEST BEN WHITE BLVD,AUSTIN,TX,78704,TRAVIS,5124487107,Acute Care Hospitals,Proprietary,true,"901 WEST BEN WHITE BLVD
AUSTIN, TX 78704
(30.227315, -97.773392)"
450716,Cypress Fairbanks Medical Center,10655 Steepletop Drive,,,Houston,TX,77065,Harris,281-897-3100,Acute Care,Proprietary,Yes,"10655 STEEPLETOP DRIVE
HOUSTON, TX 77065
(29.926338520000456, -95.58865042499968)",450716,CYPRESS FAIRBANKS MEDICAL CENTER,10655 STEEPLETOP DRIVE,HOUSTON,TX,77065,HARRIS,2818973100,Acute Care Hospitals,Proprietary,true,"10655 STEEPLETOP DRIVE
HOUSTON, TX 77065
(29.927725, -95.588584)"
450718,Round Rock Medical Center,2400 Round Rock Ave.,,,Round Rock,TX,78681,Williamson,512-341-1000,Acute Care,Nonprofit - Other,Yes,"2400 ROUND ROCK AVE
ROUND ROCK, TX 78681
(30.50899577500047, -97.71340181999966)",450718,ROUND ROCK MEDICAL CENTER,2400 ROUND ROCK AVE,ROUND ROCK,TX,78681,WILLIAMSON,5123411000,Acute Care Hospitals,Voluntary non-profit - Other,true,"2400 ROUND ROCK AVE
ROUND ROCK, TX 78681
(30.509439, -97.712073)"
450723,Methodist Charlton Medical Center,3500 W. Wheatland Road,,,Dallas,TX,75237,Dallas,214-947-7777,Acute Care,Nonprofit - Church,Yes,"3500 W WHEATLAND ROAD
DALLAS, TX 75237
(32.647453157000484, -96.87646012399966)",450723,METHODIST CHARLTON MEDICAL CENTER,3500 W WHEATLAND ROAD,DALLAS,TX,75237,DALLAS,2149477777,Acute Care Hospitals,Voluntary non-profit - Private,true,"3500 W WHEATLAND ROAD
DALLAS, TX 75237
(32.647444, -96.876265)"
450730,Baylor Medical Center At Carrollton,4343 N. Josey Lane,,,Carrollton,TX,75010,Denton,972-492-1010,Acute Care,Proprietary,Yes,"4343 NORTH JOSEY LANE
CARROLLTON, TX 75010
(33.028234909000446, -96.88446791599966)",450730,BAYLOR MEDICAL CENTER AT CARROLLTON,4343 NORTH JOSEY LANE,CARROLLTON,TX,75010,DENTON,9724921010,Acute Care Hospitals,Proprietary,true,"4343 NORTH JOSEY LANE
CARROLLTON, TX 75010
(33.027442, -96.884763)"
450742,Lake Pointe Medical Center,6800 Scenic Drive,,,Rowlett,TX,75088,Dallas,972-412-2273,Acute Care,Proprietary,Yes,"6800 SCENIC DR
ROWLETT, TX 75088
(32.918890218000456, -96.50943765799968)",450742,LAKE POINTE MEDICAL CENTER,6800 SCENIC DR,ROWLETT,TX,75088,DALLAS,9724122273,Acute Care Hospitals,Proprietary,true,"6800 SCENIC DR
ROWLETT, TX 75088
(32.921991, -96.509495)"
450743,Texas Health Presbyterian Hospital Denton,3000 N. Interstate 35,,,Denton,TX,76201,Denton,940-898-7000,Acute Care,Nonprofit - Church,Yes,"3000 N I-35
DENTON, TX 76201
(33.217893227000445, -97.16948186399969)",450743,TEXAS HEALTH PRESBYTERIAN HOSPITAL DENTON,3000 N I-35,DENTON,TX,76201,DENTON,9408987000,Acute Care Hospitals,Voluntary non-profit - Private,true,"3000 N I-35
DENTON, TX 76201
(33.212735, -97.165874)"
450746,Knox County Hospital,701 S.E. 5th St.,,,Knox City,TX,79529,Knox,940-657-3535,Acute Care,Government - Hospital District or Authority,Yes,"701 SE 5TH STREET
KNOX CITY, TX 79529
(33.41407539700049, -99.81160927499968)",450746,KNOX COUNTY HOSPITAL,701 SE 5TH STREET,KNOX CITY,TX,79529,KNOX,9406573535,Acute Care Hospitals,Government - Hospital District or Authority,true,"701 SE 5TH STREET
KNOX CITY, TX 79529
(33.414084, -99.809607)"
450747,Palestine Regional Medical Center,2900 S. Loop 256,,,Palestine,TX,75801,Anderson,903-731-1000,Acute Care,Proprietary,Yes,"2900 S LOOP 256
PALESTINE, TX 75801
(31.73398439100049, -95.62748129199969)",450747,PALESTINE REGIONAL MEDICAL CENTER,2900 S LOOP 256,PALESTINE,TX,75801,ANDERSON,9037311000,Acute Care Hospitals,Proprietary,true,"2900 S LOOP 256
PALESTINE, TX 75801
(31.734082, -95.627602)"
450749,East Texas Medical Center Trinity,317 Prospect Drive/P.O. Box 3169,,,Trinity,TX,75862,Trinity,936-594-3541,Acute Care,Nonprofit - Church,Yes,"317 PROSPECT DR/PO BOX 3169
TRINITY, TX 75862
(30.95178067800049, -95.37623144299965)",450749,EAST TEXAS MEDICAL CENTER TRINITY,317 PROSPECT DR/PO BOX 3169,TRINITY,TX,75862,TRINITY,9365943541,Acute Care Hospitals,Voluntary non-profit - Private,true,"317 PROSPECT DR/PO BOX 3169
TRINITY, TX 75862
"
45074F,Houston Va Medical Center,2002 Holcombe Blvd.,,,Houston,TX,77030,Harris,713-794-7100,Acute Care - Veterans Administration,Government Federal,No,"2002 HOLCOMBE BLVD.
HOUSTON, TX 77030
(29.706022489000475, -95.38992508699965)",45074F,HOUSTON VA MEDICAL CENTER,2002 HOLCOMBE BLVD.,HOUSTON,TX,77030,HARRIS,7137947100,ACUTE CARE - VETERANS ADMINISTRATION,Government Federal,false,"2002 HOLCOMBE BLVD.
HOUSTON, TX 77030
(29.706509, -95.388768)"
450754,Hamilton General Hospital,400 N. Brown,,,Hamilton,TX,76531,Hamilton,254-386-3151,Acute Care,Government - Hospital District or Authority,Yes,"400 N BROWN
HAMILTON, TX 76531
(31.703941124000437, -98.11337378999968)",450754,HAMILTON GENERAL HOSPITAL,400 N BROWN,HAMILTON,TX,76531,HAMILTON,2543863151,Acute Care Hospitals,Government - Hospital District or Authority,true,"400 N BROWN
HAMILTON, TX 76531
(31.703852, -98.113462)"
450755,Covenant Hospital Levelland,1900 College Ave.,,,Levelland,TX,79336,Hockley,806-894-4963,Acute Care,Nonprofit - Church,Yes,"1900 COLLEGE AVE
LEVELLAND, TX 79336
(33.572750622000456, -102.36779383399966)",450755,COVENANT HOSPITAL LEVELLAND,1900 COLLEGE AVE,LEVELLAND,TX,79336,HOCKLEY,8068944963,Acute Care Hospitals,Voluntary non-profit - Church,true,"1900 COLLEGE AVE
LEVELLAND, TX 79336
(33.574063, -102.367746)"
450766,UT Southwestern University Hospital-Zale Lipshy,5151 Harry Hines Blvd.,,,Dallas,TX,75390,Dallas,214-879-3758,Acute Care,Government - State,No,"5151 HARRY HINES BLVD
DALLAS, TX 75390
(32.81095249100048, -96.83628504399968)",450766,UT SOUTHWESTERN UNIVERSITY HOSPITAL-ZALE LIPSHY,5151 HARRY HINES BLVD,DALLAS,TX,75390,DALLAS,2148793758,Acute Care Hospitals,Government - State,false,"5151 HARRY HINES BLVD
DALLAS, TX 75390
"
450771,Texas Health Presbyterian Hospital Plano,6200 W. Parker Road,,,Plano,TX,75093,Collin,972-981-8000,Acute Care,Nonprofit - Church,No,"6200 W PARKER RD
PLANO, TX 75093
(33.04512340500048, -96.83633943499967)",450771,TEXAS HEALTH PRESBYTERIAN HOSPITAL PLANO,6200 W PARKER RD,PLANO,TX,75093,COLLIN,9729818000,Acute Care Hospitals,Voluntary non-profit - Private,false,"6200 W PARKER RD
PLANO, TX 75093
(33.045127, -96.838515)"
450774,Tops Surgical Specialty Hospital,17080 Red Oak Drive,,,Houston,TX,77090,Harris,281-539-2900,Acute Care,Physician,Yes,"17080 RED OAK DRIVE
HOUSTON, TX 77090
(30.018312139000443, -95.44462547999967)",450774,TOPS SURGICAL SPECIALTY HOSPITAL,17080 RED OAK DRIVE,HOUSTON,TX,77090,HARRIS,2815392900,Acute Care Hospitals,Physician,true,"17080 RED OAK DRIVE
HOUSTON, TX 77090
(30.018255, -95.444605)"
450775,Kingwood Medical Center,22999 U.S. Highway 59,,,Kingwood,TX,77325,Harris,281-359-7500,Acute Care,Proprietary,Yes,"22999 US HWY 59
KINGWOOD, TX 77325
(30.055671165000433, -95.18761827699967)",450775,KINGWOOD MEDICAL CENTER,22999 US HWY 59,KINGWOOD,TX,77325,HARRIS,2813597500,Acute Care Hospitals,Proprietary,true,"22999 US HWY 59
KINGWOOD, TX 77325
(30.04797, -95.253468)"
450779,Texas Health Harris Methodist Hospital Southwest F,6100 Harris Parkway,,,Fort Worth,TX,76132,Tarrant,817-433-5000,Acute Care,Nonprofit - Church,Yes,"6100 HARRIS PKWY
FORT WORTH, TX 76132
(32.65890521300048, -97.41982814399967)",450779,TEXAS HEALTH HARRIS METHODIST HOSPITAL SOUTHWEST F,6100 HARRIS PKWY,FORT WORTH,TX,76132,TARRANT,8174335000,Acute Care Hospitals,Voluntary non-profit - Private,true,"6100 HARRIS PKWY
FORT WORTH, TX 76132
(32.658155, -97.41944)"
450780,Methodist Ambulatory Surgery Hospital Nw,"9150 Huebner Road, Suite 100",,,San Antonio,TX,78240,Bexar,210-575-5000,Acute Care,Proprietary,Yes,"9150 HUEBNER RD SUITE 100
SAN ANTONIO, TX 78240
(29.52768995000048, -98.59586985099969)",450780,METHODIST AMBULATORY SURGERY HOSPITAL NW,9150 HUEBNER RD SUITE 100,SAN ANTONIO,TX,78240,BEXAR,2105755000,Acute Care Hospitals,Proprietary,true,"9150 HUEBNER RD SUITE 100
SAN ANTONIO, TX 78240
(29.52773, -98.595871)"
450788,"Corpus Christi Medical Center,The",7101 S. Padre Island Drive,,,Corpus Christi,TX,78412,Nueces,361-761-1501,Acute Care,Proprietary,Yes,"7101 S PADRE ISLAND DR
CORPUS CHRISTI, TX 78412
(27.694355421000466, -97.3441526639997)",450788,"CORPUS CHRISTI MEDICAL CENTER,THE",7101 S PADRE ISLAND DR,CORPUS CHRISTI,TX,78412,NUECES,3617611501,Acute Care Hospitals,Proprietary,true,"7101 S PADRE ISLAND DR
CORPUS CHRISTI, TX 78412
(27.694289, -97.343992)"
450795,St Anthony's Hospital,2807 Little York Road,,,Houston,TX,77093,Harris,713-697-2961,Acute Care,Proprietary,Yes,"2807 LITTLE YORK RD
HOUSTON, TX 77093
(29.87107752300045, -95.34254077699967)",,,,,,,,,,,,
450796,Northwest Texas Surgery Center,"3501 Soncy Road, Suite 118",,,Amarillo,TX,79109,Randall,806-359-7999,Acute Care,Proprietary,Yes,"3501 SONCY RD SUITE 118
AMARILLO, TX 79109
(35.17352940000046, -101.93812557999968)",450796,NORTHWEST TEXAS SURGERY CENTER,3501 SONCY RD SUITE 118,AMARILLO,TX,79109,RANDALL,8063597999,Acute Care Hospitals,Proprietary,true,"3501 SONCY RD SUITE 118
AMARILLO, TX 79109
(35.175394, -101.938155)"
450797,Houston Hospital For Specialized Surgery,5445 La Branch St.,,,Houston,TX,77004,Harris,713-528-6800,Acute Care,Proprietary,No,"5445 LABRANCH STREET
HOUSTON, TX 77004
(29.72438247700046, -95.3843575409997)",450797,HOUSTON HOSPITAL FOR SPECIALIZED SURGERY,5445 LABRANCH STREET,HOUSTON,TX,77004,HARRIS,7135286800,Acute Care Hospitals,Proprietary,false,"5445 LABRANCH STREET
HOUSTON, TX 77004
(29.724393, -95.384401)"
450801,Christus St Michael Health System,2600 St. Michael Drive,,,Texarkana,TX,75504,Bowie,903-614-1000,Acute Care,Nonprofit - Church,Yes,"2600 ST MICHAEL DR
TEXARKANA, TX 75504
(33.46222460900049, -94.07552250399965)",450801,CHRISTUS ST MICHAEL HEALTH SYSTEM,2600 ST MICHAEL DR,TEXARKANA,TX,75504,BOWIE,9036141000,Acute Care Hospitals,Voluntary non-profit - Church,true,"2600 ST MICHAEL DR
TEXARKANA, TX 75504
(33.464034, -94.070669)"
450803,Doctors Hospital Tidwell,510 W. Tidwell,,,Houston,TX,77091,Harris,713-691-1111,Acute Care,Physician,Yes,"510 W TIDWELL
HOUSTON, TX 77091
(29.847248387000434, -95.40785030499967)",450803,DOCTORS HOSPITAL TIDWELL,510 W TIDWELL,HOUSTON,TX,77091,HARRIS,7136911111,Acute Care Hospitals,Physician,true,"510 W TIDWELL
HOUSTON, TX 77091
(29.847222, -95.407991)"
450804,Texas Orthopedic Hospital,7401 S. Main St.,,,Houston,TX,77030,Harris,713-799-8600,Acute Care,Nonprofit - Other,Yes,"7401 SOUTH MAIN STREET
HOUSTON, TX 77030
(29.700561632000472, -95.4095072939997)",450804,TEXAS ORTHOPEDIC HOSPITAL,7401 SOUTH MAIN STREET,HOUSTON,TX,77030,HARRIS,7137998600,Acute Care Hospitals,Voluntary non-profit - Other,true,"7401 SOUTH MAIN STREET
HOUSTON, TX 77030
(29.700371, -95.409631)"
450808,Northwest Hills Surgical Hospital,"6818 Austin Center Blvd., Suite 100",,,Austin,TX,78731,Travis,512-346-1994,Acute Care,Proprietary,Yes,"6818 AUSTIN CTR BLVD SUITE 100
AUSTIN, TX 78731
(30.350770501000454, -97.75121054199968)",450808,NORTHWEST HILLS SURGICAL HOSPITAL,6818 AUSTIN CTR BLVD SUITE 100,AUSTIN,TX,78731,TRAVIS,5123461994,Acute Care Hospitals,Physician,true,"6818 AUSTIN CTR BLVD SUITE 100
AUSTIN, TX 78731
(30.350571, -97.751109)"
450809,North Austin Medical Center,12221 Mopac Expressway North,,,Austin,TX,78758,Travis,512-901-1000,Acute Care,Nonprofit - Other,Yes,"12221 MOPAC EXPRESSWAY NORTH
AUSTIN, TX 78758
(30.383593075000476, -97.70797782299968)",450809,NORTH AUSTIN MEDICAL CENTER,12221 MOPAC EXPRESSWAY NORTH,AUSTIN,TX,78758,TRAVIS,5129011000,Acute Care Hospitals,Voluntary non-profit - Other,true,"12221 MOPAC EXPRESSWAY NORTH
AUSTIN, TX 78758
(30.411705, -97.708547)"
450820,Methodist Sugar Land Hospital,16655 Southwest Freeway,,,Sugar Land,TX,77479,Fort Bend,281-274-8000,Acute Care,Nonprofit - Church,Yes,"16655 SOUTHWEST FREEWAY
SUGAR LAND, TX 77479
(29.59109397700047, -95.63091458599968)",450820,METHODIST SUGAR LAND HOSPITAL,16655 SOUTHWEST FREEWAY,SUGAR LAND,TX,77479,FORT BEND,2812748000,Acute Care Hospitals,Voluntary non-profit - Church,true,"16655 SOUTHWEST FREEWAY
SUGAR LAND, TX 77479
(29.590986, -95.631198)"
450822,Las Colinas Medical Center,6800 N. MacArthur Blvd.,,,Irving,TX,75039,Dallas,972-969-2000,Acute Care,Nonprofit - Church,Yes,"6800 N MACARTHUR BLVD
IRVING, TX 75039
(32.90203014800045, -96.95863801199965)",450822,LAS COLINAS MEDICAL CENTER,6800 N MACARTHUR BLVD,IRVING,TX,75039,DALLAS,9729692000,Acute Care Hospitals,Voluntary non-profit - Private,true,"6800 N MACARTHUR BLVD
IRVING, TX 75039
(32.902165, -96.958677)"
450825,Cornerstone Regional Hospital,2302 Cornerstone Blvd.,,,Edinburg,TX,78539,Hidalgo,956-618-4444,Acute Care,Proprietary,Yes,"2302 CORNERSTONE BOULEVARD
EDINBURG, TX 78539
(26.263135043000432, -98.19896117799965)",450825,CORNERSTONE REGIONAL HOSPITAL,2302 CORNERSTONE BOULEVARD,EDINBURG,TX,78539,HIDALGO,9566184444,Acute Care Hospitals,Proprietary,true,"2302 CORNERSTONE BOULEVARD
EDINBURG, TX 78539
(26.262919, -98.201101)"
450827,Kell West Regional Hospital,5402 Kell West Blvd.,,,Wichita Falls,TX,76310,Wichita,940-692-5888,Acute Care,Proprietary,Yes,"5402 KELL WEST BOULEVARD
WICHITA FALLS, TX 76310
(33.88428429200047, -98.5336093899997)",450827,KELL WEST REGIONAL HOSPITAL,5402 KELL WEST BOULEVARD,WICHITA FALLS,TX,76310,WICHITA,9406925888,Acute Care Hospitals,Proprietary,true,"5402 KELL WEST BOULEVARD
WICHITA FALLS, TX 76310
"
450828,Christus Spohn Hospital Alice,2500 E. Main St.,,,Alice,TX,78332,Jim Wells,361-661-8016,Acute Care,Nonprofit - Church,Yes,"2500 E MAIN STREET
ALICE, TX 78332
(27.764705795000452, -98.04479606099966)",450828,CHRISTUS SPOHN HOSPITAL ALICE,2500 E MAIN STREET,ALICE,TX,78332,JIM WELLS,3616618016,Acute Care Hospitals,Voluntary non-profit - Private,true,"2500 E MAIN STREET
ALICE, TX 78332
(27.764603, -98.044991)"
450831,Surgery Specialty Hospitals Of America Se Houston,4301 Vista Road,,,Pasadena,TX,77504,Harris,713-378-3000,Acute Care,Proprietary,Yes,"4301 B VISTA
PASADENA, TX 77504
(29.651420542000437, -95.18996892499968)",450831,SURGERY SPECIALTY HOSPITALS OF AMERICA SE HOUSTON,4301 B VISTA,PASADENA,TX,77504,HARRIS,7133783000,Acute Care Hospitals,Proprietary,true,"4301 B VISTA
PASADENA, TX 77504
"
450832,Christus St Catherine Hospital,701 S. Fry Road,,,Katy,TX,77450,Harris,281-599-5700,Acute Care,Nonprofit - Church,Yes,"701 SOUTH FRY ROAD
KATY, TX 77450
(29.777793056000462, -95.71884382999968)",,,,,,,,,,,,
450833,Ennis Regional Medical Center,2201 W. Lampasas St.,,,Ennis,TX,75119,Ellis,972-875-0900,Acute Care,Proprietary,Yes,"2201 WEST LAMPASAS STREET
ENNIS, TX 75119
(32.31334626500046, -96.63954909799969)",450833,ENNIS REGIONAL MEDICAL CENTER,2201 WEST LAMPASAS STREET,ENNIS,TX,75119,ELLIS,9728750900,Acute Care Hospitals,Proprietary,true,"2201 WEST LAMPASAS STREET
ENNIS, TX 75119
(32.30843, -96.64225)"
450834,"Physicians Centre,The",3131 University Drive East,,,Bryan,TX,77802,Brazos,979-731-3100,Acute Care,Proprietary,Yes,"3131 UNIVERSITY DRIVE EAST
BRYAN, TX 77802
(30.649492806000467, -96.29656846599966)",450834,"PHYSICIANS CENTRE,THE",3131 UNIVERSITY DRIVE EAST,BRYAN,TX,77802,BRAZOS,9797313100,Acute Care Hospitals,Proprietary,true,"3131 UNIVERSITY DRIVE EAST
BRYAN, TX 77802
(30.649512, -96.296433)"
450840,Texas Health Presbyterian Hospital Allen,1105 Central Expressway North,,,Allen,TX,75013,Collin,972-747-6197,Acute Care,Government - Federal,Yes,"1105 CENTRAL EXPRESSWAY NORTH
ALLEN, TX 75013
(33.11581725900044, -96.6713061749997)",450840,TEXAS HEALTH PRESBYTERIAN HOSPITAL ALLEN,1105 CENTRAL EXPRESSWAY NORTH,ALLEN,TX,75013,COLLIN,9727476197,Acute Care Hospitals,Government - Federal,true,"1105 CENTRAL EXPRESSWAY NORTH
ALLEN, TX 75013
(33.115782, -96.671289)"
450844,Methodist Willowbrook Hospital,18220 Tomball Parkway,,,Houston,TX,77070,Harris,281-477-1000,Acute Care,Nonprofit - Church,Yes,"18220 TOMBALL PARKWAY
HOUSTON, TX 77070
(29.963626775000478, -95.55016402199965)",450844,METHODIST WILLOWBROOK HOSPITAL,18220 TOMBALL PARKWAY,HOUSTON,TX,77070,HARRIS,2814771000,Acute Care Hospitals,Voluntary non-profit - Church,true,"18220 TOMBALL PARKWAY
HOUSTON, TX 77070
(29.964059, -95.550789)"
450845,El Paso Specialty Hospital,"1755 Curie, Suite A",,,El Paso,TX,79902,El Paso,915-544-3636,Acute Care,Proprietary,Yes,"1755 CURIE SUITE A
EL PASO, TX 79902
(31.779586528000436, -106.4770518739997)",450845,EL PASO SPECIALTY HOSPITAL,1755 CURIE SUITE A,EL PASO,TX,79902,EL PASO,9155443636,Acute Care Hospitals,Proprietary,true,"1755 CURIE SUITE A
EL PASO, TX 79902
"
450847,Memorial Hermann Katy Hospital,23900 Katy Freeway,,,Katy,TX,77494,Harris,281-392-1111,Acute Care,Nonprofit - Church,Yes,"23900 KATY FREEWAY
KATY, TX 77494
(29.785938752000447, -95.78579960799965)",450847,MEMORIAL HERMANN KATY HOSPITAL,23900 KATY FREEWAY,KATY,TX,77494,HARRIS,2813921111,Acute Care Hospitals,Voluntary non-profit - Private,true,"23900 KATY FREEWAY
KATY, TX 77494
(29.785918, -95.785657)"
450848,Memorial Hermann Sugar Land Hospital,17500 W. Grand Parkway South,,,Sugar Land,TX,77479,Fort Bend,281-499-4800,Acute Care,Nonprofit - Church,Yes,"17500 W GRAND PARKWAY SOUTH
SUGAR LAND, TX 77479
(29.56364695600047, -95.68809768599965)",450848,MEMORIAL HERMANN SUGAR LAND HOSPITAL,17500 W GRAND PARKWAY SOUTH,SUGAR LAND,TX,77479,FORT BEND,2814994800,Acute Care Hospitals,Voluntary non-profit - Private,true,"17500 W GRAND PARKWAY SOUTH
SUGAR LAND, TX 77479
(29.56408, -95.68791)"
450851,Baylor Heart And Vascular Hospital,621 N. Hall St.,,,Dallas,TX,75226,Dallas,214-820-0670,Acute Care,Proprietary,No,"621 NORTH HALL STREET
DALLAS, TX 75226
(32.787893846000486, -96.78025528599966)",450851,BAYLOR HEART AND VASCULAR HOSPITAL,621 NORTH HALL STREET,DALLAS,TX,75226,DALLAS,2148200670,Acute Care Hospitals,Proprietary,true,"621 NORTH HALL STREET
DALLAS, TX 75226
(32.788418, -96.780808)"
450853,Baylor Medical Center At Frisco,5601 Warren Parkway,,,Frisco,TX,75034,Collin,214-618-2000,Acute Care,Proprietary,Yes,"5601 WARREN PARKWAY
FRISCO, TX 75034
(33.10668309200048, -96.83757121999969)",450853,BAYLOR MEDICAL CENTER AT FRISCO,5601 WARREN PARKWAY,FRISCO,TX,75034,COLLIN,2146182000,Acute Care Hospitals,Proprietary,true,"5601 WARREN PARKWAY
FRISCO, TX 75034
(33.106709, -96.838022)"
450855,Harlingen Medical Center,5501 S. Expressway 77,,,Harlingen,TX,78550,Cameron,956-365-1000,Acute Care,Proprietary,Yes,"5501 SOUTH EXPRESSWAY 77
HARLINGEN, TX 78550
(26.156573715000434, -97.67591407299966)",450855,HARLINGEN MEDICAL CENTER,5501 SOUTH EXPRESSWAY 77,HARLINGEN,TX,78550,CAMERON,9563651000,Acute Care Hospitals,Proprietary,true,"5501 SOUTH EXPRESSWAY 77
HARLINGEN, TX 78550
"
450856,South Texas Spine And Surgical Hospital,18600 N. Hardy Oak Blvd.,,,San Antonio,TX,78258,Bexar,210-404-0800,Acute Care,Proprietary,Yes,"18600 NORTH HARDY OAK BLVD
SAN ANTONIO, TX 78258
(29.613162866000437, -98.47844867199967)",450856,SOUTH TEXAS SPINE AND SURGICAL HOSPITAL,18600 NORTH HARDY OAK BLVD,SAN ANTONIO,TX,78258,BEXAR,2104040800,Acute Care Hospitals,Proprietary,true,"18600 NORTH HARDY OAK BLVD
SAN ANTONIO, TX 78258
(29.613952, -98.478446)"
450860,Sugar Land Surgical Hospital Llp,"1211 Highway 6, Suite 70",,,Sugar Land,TX,77478,Fort Bend,281-243-1000,Acute Care,Proprietary,No,"1211 HIGHWAY 6, SUITE 70
SUGAR LAND, TX 77478
(29.604797481000446, -95.63669044999966)",450860,SUGAR LAND SURGICAL HOSPITAL LLP,16906 SOUTHWEST FREEWAY,SUGAR LAND,TX,77479,FORT BEND,2812431000,Acute Care Hospitals,Proprietary,true,"16906 SOUTHWEST FREEWAY
SUGAR LAND, TX 77479
(29.589961, -95.636835)"
450862,St Luke's The Woodlands Hospital,17200 St. Luke's Way,,,The Woodlands,TX,77384,Montgomery,936-266-4050,Acute Care,Nonprofit - Church,Yes,"17200 ST LUKE'S WAY
THE WOODLANDS, TX 77384
(30.20540459600045, -95.46067405199966)",450862,ST LUKE'S THE WOODLANDS HOSPITAL,17200 ST LUKE'S WAY,THE WOODLANDS,TX,77384,MONTGOMERY,9362664050,Acute Care Hospitals,Voluntary non-profit - Church,true,"17200 ST LUKE'S WAY
THE WOODLANDS, TX 77384
(30.20499, -95.459467)"
450864,Texas Spine And Joint Hospital,1814 Roseland Blvd.,,,Tyler,TX,75701,Smith,903-525-3300,Acute Care,Proprietary,Yes,"1814 ROSELAND BOULEVARD
TYLER, TX 75701
(32.329361020000476, -95.29942826999968)",450864,TEXAS SPINE AND JOINT HOSPITAL,1814 ROSELAND BOULEVARD,TYLER,TX,75701,SMITH,9035253300,Acute Care Hospitals,Physician,true,"1814 ROSELAND BOULEVARD
TYLER, TX 75701
(32.328962, -95.299465)"
450865,Seton Southwest Hospital,7900 FM 1826,,,Austin,TX,78737,Travis,512-324-9000,Acute Care,Nonprofit - Church,Yes,"7900 FM 1826
AUSTIN, TX 78737
(30.226756898000474, -97.88967630999969)",450865,SETON SOUTHWEST HOSPITAL,7900 FM 1826,AUSTIN,TX,78737,TRAVIS,5123249000,Acute Care Hospitals,Voluntary non-profit - Private,false,"7900 FM 1826
AUSTIN, TX 78737
(30.22696, -97.88951)"
450867,Seton  Northwest Hospital,11113 Research Blvd.,,,Austin,TX,78759,Travis,512-324-6000,Acute Care,Nonprofit - Church,Yes,"11113 RESEARCH BOULEVARD
AUSTIN, TX 78759
(30.406256536000456, -97.74484907799967)",450867,SETON NORTHWEST HOSPITAL,11113 RESEARCH BOULEVARD,AUSTIN,TX,78759,TRAVIS,5123246000,Acute Care Hospitals,Voluntary non-profit - Private,true,"11113 RESEARCH BOULEVARD
AUSTIN, TX 78759
(30.404743, -97.745018)"
450869,Doctors Hospital At Renaissance,5501 S. McColl,,,Edinburg,TX,78539,Hidalgo,956-362-8677,Acute Care,Proprietary,Yes,"5501 SOUTH MCCOLL
EDINBURG, TX 78539
(26.253825290000464, -98.2038909259997)",450869,DOCTORS HOSPITAL AT RENAISSANCE,5501 SOUTH MCCOLL,EDINBURG,TX,78539,HIDALGO,9563628677,Acute Care Hospitals,Proprietary,true,"5501 SOUTH MCCOLL
EDINBURG, TX 78539
(26.252807, -98.204032)"
45086F,Temple Va Medical Center - Va Central Texas,1901 Veterans Memorial Drive,,,Temple,TX,76504,Bell,254-778-4811,Acute Care - Veterans Adminstration,Government Federal,No,"1901 VETERANS MEMORIAL DRIVE
TEMPLE, TX 76504
(31.07791054200044, -97.34924809999967)",45086F,TEMPLE VA MEDICAL CENTER - VA CENTRAL TEXAS,1901 VETERANS MEMORIAL DRIVE,TEMPLE,TX,76504,BELL,2547784811,ACUTE CARE - VETERANS ADMINISTRATION,Government Federal,false,"1901 VETERANS MEMORIAL DRIVE
TEMPLE, TX 76504
(31.077028, -97.349604)"
450871,Arise Austin Medical Center,3003 Bee Caves Road,,,Austin,TX,78746,Travis,512-347-9888,Acute Care,Physician,Yes,"3003 BEE CAVES ROAD
AUSTIN, TX 78746
(30.271592722000435, -97.79583790899966)",450871,ARISE AUSTIN MEDICAL CENTER,3003 BEE CAVES ROAD,AUSTIN,TX,78746,TRAVIS,5123479888,Acute Care Hospitals,Physician,true,"3003 BEE CAVES ROAD
AUSTIN, TX 78746
(30.271664, -97.795469)"
450872,Usmd Hospital At Arlington L P,801 W. Interstate 20,,,Arlington,TX,76017,Tarrant,817-472-3400,Acute Care,Physician,Yes,"801 W INTERSTATE 20
ARLINGTON, TX 76017
(32.67904779000048, -97.11681723199968)",450872,USMD HOSPITAL AT ARLINGTON L P,801 W INTERSTATE 20,ARLINGTON,TX,76017,TARRANT,8174723400,Acute Care Hospitals,Physician,true,"801 W INTERSTATE 20
ARLINGTON, TX 76017
(32.678855, -97.117732)"
450874,Baylor Surgical Hospital At Las Colinas,"400 W. Interstate 635, Suite 101",,,Irving,TX,75063,Dallas,972-868-4000,Acute Care,Proprietary,Yes,"400 WEST INTERSTATE 635 SUITE 101
IRVING, TX 75063
(32.91219331800045, -96.94562727399966)",450874,BAYLOR SURGICAL HOSPITAL AT LAS COLINAS,400 WEST INTERSTATE 635 SUITE 101,IRVING,TX,75063,DALLAS,9728684000,Acute Care Hospitals,Proprietary,true,"400 WEST INTERSTATE 635 SUITE 101
IRVING, TX 75063
(32.676648, -97.01673)"
450875,Quail Creek Surgical Hospital,6819 Plum Creek,,,Amarillo,TX,79124,Potter,806-354-6100,Acute Care,Proprietary,Yes,"6819 PLUM CREEK
AMARILLO, TX 79124
(35.20998838300045, -101.91313453699968)",450875,QUAIL CREEK SURGICAL HOSPITAL,6819 PLUM CREEK,AMARILLO,TX,79124,POTTER,8063546100,Acute Care Hospitals,Proprietary,true,"6819 PLUM CREEK
AMARILLO, TX 79124
"
450876,Lubbock Heart Hospital Lp,4810 N. Loop 289,,,Lubbock,TX,79416,Lubbock,806-687-7777,Acute Care,Government - Local,Yes,"4810 NORTH LOOP 289
LUBBOCK, TX 79416
(33.60307460400048, -101.91345596499968)",450876,LUBBOCK HEART HOSPITAL LP,4810 NORTH LOOP 289,LUBBOCK,TX,79416,LUBBOCK,8066877777,Acute Care Hospitals,Government - Local,true,"4810 NORTH LOOP 289
LUBBOCK, TX 79416
(33.602124, -101.914918)"
450877,Foundation Surgical Hospital Of El Paso,1416 George Dieter,,,El Paso,TX,79936,El Paso,915-598-4240,Acute Care,Physician,Yes,"1416 GEORGE DIETER
EL PASO, TX 79936
(31.73446052300045, -106.30155790899971)",450877,FOUNDATION SURGICAL HOSPITAL OF EL PASO,1416 GEORGE DIETER,EL PASO,TX,79936,EL PASO,9155984240,Acute Care Hospitals,Physician,true,"1416 GEORGE DIETER
EL PASO, TX 79936
(31.734985, -106.301578)"
450880,Baylor Surgical Hospital At Fort Worth,750 12th Ave.,,,Fort Worth,TX,76104,Tarrant,817-334-5050,Acute Care,Nonprofit - Church,Yes,"750 12TH AVENUE
FORT WORTH, TX 76104
(32.73681623000044, -97.34741874699967)",450880,BAYLOR SURGICAL HOSPITAL AT FORT WORTH,1800 PARK PLACE AVENUE,FORT WORTH,TX,76110,TARRANT,6827035600,Acute Care Hospitals,Voluntary non-profit - Private,true,"1800 PARK PLACE AVENUE
FORT WORTH, TX 76110
(32.725778, -97.346185)"
450883,Baylor Medical Center At Trophy Club,2850 E. State Highway 114,,,Trophy Club,TX,76262,Denton,817-837-4600,Acute Care,Proprietary,Yes,"2850 E STATE HIGHWAY 114
TROPHY CLUB, TX 76262
(32.987939182000446, -97.17480994399966)",450883,BAYLOR MEDICAL CENTER AT TROPHY CLUB,2850  E STATE HIGHWAY 114,TROPHY CLUB,TX,76262,DENTON,8178374600,Acute Care Hospitals,Proprietary,true,"2850 E STATE HIGHWAY 114
TROPHY CLUB, TX 76262
"
450884,East Texas Medical Center - Gilmer,712 N. Wood,,,Gilmer,TX,75644,Upshur,903-841-7100,Acute Care,Nonprofit - Church,Yes,"712 NORTH WOOD
GILMER, TX 75644
(32.735286070000484, -94.9425944949997)",,,,,,,,,,,,
450885,Centennial Medical Center,12505 Lebanon Road,,,Frisco,TX,75035,Collin,972-963-3333,Acute Care,Proprietary,Yes,"12505 LEBANON ROAD
FRISCO, TX 75035
(33.115852791000464, -96.77095055099966)",450885,CENTENNIAL MEDICAL CENTER,12505 LEBANON ROAD,FRISCO,TX,75035,COLLIN,9729633333,Acute Care Hospitals,Voluntary non-profit - Other,true,"12505 LEBANON ROAD
FRISCO, TX 75035
(33.115882, -96.771793)"
450888,Texas Health Harris Methodist Hospital Southlake,1545 E. Southlake Blvd.,,,Southlake,TX,76092,Tarrant,817-748-8700,Acute Care,Government - State,Yes,"1545 E SOUTHLAKE BLVD
SOUTHLAKE, TX 76092
(32.94094274000048, -97.12898097899966)",450888,TEXAS HEALTH HARRIS METHODIST HOSPITAL SOUTHLAKE,1545 E SOUTHLAKE BLVD,SOUTHLAKE,TX,76092,TARRANT,8177488700,Acute Care Hospitals,Government - State,true,"1545 E SOUTHLAKE BLVD
SOUTHLAKE, TX 76092
(32.94097, -97.127539)"
450889,Texas Institute For Surgery At Presbyterian Hospit,"7115 Greenville Ave., Suite 100",,,Dallas,TX,75231,Dallas,214-647-5300,Acute Care,Proprietary,Yes,"7115 GREENVILLE AVENUE SUITE 100
DALLAS, TX 75231
(32.877354160000436, -96.76128932299969)",450889,TEXAS INSTITUTE FOR SURGERY AT PRESBYTERIAN HOSPIT,7115 GREENVILLE AVENUE SUITE 100,DALLAS,TX,75231,DALLAS,2146475300,Acute Care Hospitals,Proprietary,true,"7115 GREENVILLE AVENUE SUITE 100
DALLAS, TX 75231
(32.876714, -96.761567)"
450890,Baylor Regional Medical Center At Plano,4700 Alliance Blvd.,,,Plano,TX,75093,Collin,469-814-2000,Acute Care,Nonprofit - Other,Yes,"4700 ALLIANCE BOULEVARD
PLANO, TX 75093
(33.01433349300049, -96.7909611499997)",450890,BAYLOR REGIONAL MEDICAL CENTER AT PLANO,4700 ALLIANCE BOULEVARD,PLANO,TX,75093,COLLIN,4698142000,Acute Care Hospitals,Voluntary non-profit - Other,true,"4700 ALLIANCE BOULEVARD
PLANO, TX 75093
(33.014377, -96.791437)"
450891,Texas Health Center For Diagnostics & Surgery Plan,6020 W. Parker Road,,,Plano,TX,75093,Collin,972-403-2700,Acute Care,Proprietary,Yes,"6020 W PARKER ROAD
PLANO, TX 75093
(33.04508313400049, -96.8316112709997)",450891,TEXAS HEALTH CENTER FOR DIAGNOSTICS & SURGERY PLAN,6020 W PARKER ROAD,PLANO,TX,75093,COLLIN,9724032700,Acute Care Hospitals,Proprietary,true,"6020 W PARKER ROAD
PLANO, TX 75093
(33.045097, -96.831869)"
450893,The Heart Hospital Baylor Denton,2801 S. Mayhill Road,,,Denton,TX,76208,Denton,940-220-0600,Acute Care,Nonprofit - Other,Yes,"2801 SOUTH MAYHILL ROAD
DENTON, TX 76208
(33.17643770900048, -97.0881875449997)",450893,THE HEART HOSPITAL BAYLOR DENTON,2801 SOUTH MAYHILL ROAD,DENTON,TX,76208,DENTON,9402200600,Acute Care Hospitals,Physician,true,"2801 SOUTH MAYHILL ROAD
DENTON, TX 76208
(33.177536, -97.087444)"
450894,Pine Creek Medical Center Llp,9032 Harry Hines Blvd.,,,Dallas,TX,75235,Dallas,214-231-2273,Acute Care,Physician,Yes,"9032 HARRY HINES BLVD
DALLAS, TX 75235
(32.84036268000045, -96.86900071199966)",450894,PINE CREEK MEDICAL CENTER LLP,9032 HARRY HINES BLVD,DALLAS,TX,75235,DALLAS,2142312273,Acute Care Hospitals,Physician,true,"9032 HARRY HINES BLVD
DALLAS, TX 75235
(32.84026, -96.868953)"
45090F,San Antonio Va Medical Center - Va South Texas,7400 Merton Minter Blvd.,,,San Antonio,TX,78229,Bexar,210-617-5300,Acute Care - Veterans Administration,Government Federal,No,"7400 MERTON MINTER BLVD.
SAN ANTONIO, TX 78229
(29.508417301000463, -98.5808280979997)",45090F,SAN ANTONIO VA MEDICAL CENTER - VA SOUTH TEXAS,7400 MERTON MINTER BLVD.,SAN ANTONIO,TX,78229,BEXAR,2106175300,ACUTE CARE - VETERANS ADMINISTRATION,Government Federal,false,"7400 MERTON MINTER BLVD.
SAN ANTONIO, TX 78229
(29.508413, -98.580931)"
451301,Reagan Memorial Hospital,805 N. Main,,,Big Lake,TX,76932,Reagan,325-844-2561,Critical Access,Government - Hospital District or Authority,Yes,"805 NORTH MAIN
BIG LAKE, TX 76932
(31.197585137000488, -101.46171618399967)",451301,REAGAN MEMORIAL HOSPITAL,805 NORTH MAIN,BIG LAKE,TX,76932,REAGAN,3258442561,Critical Access Hospitals,Government - Hospital District or Authority,true,"805 NORTH MAIN
BIG LAKE, TX 76932
(31.197961, -101.461701)"
451303,Limestone Medical Center,701 McClintic Drive,,,Groesbeck,TX,76642,Limestone,254-729-3281,Critical Access,Government - Hospital District or Authority,Yes,"701 MCCLINTIC DRIVE
GROESBECK, TX 76642
(31.53165894300048, -96.52981087999967)",451303,LIMESTONE MEDICAL CENTER,701 MCCLINTIC DRIVE,GROESBECK,TX,76642,LIMESTONE,2547293281,Critical Access Hospitals,Government - Hospital District or Authority,true,"701 MCCLINTIC DRIVE
GROESBECK, TX 76642
(31.531876, -96.529658)"
451305,Burleson St Joseph Health Center,1101 Woodson Drive,,,Caldwell,TX,77836,Burleson,979-567-3245,Critical Access,Nonprofit - Church,Yes,"1101 WOODSON DRIVE
CALDWELL, TX 77836
(30.521254807000446, -96.71628700799965)",451305,BURLESON ST JOSEPH HEALTH CENTER,1101 WOODSON DRIVE,CALDWELL,TX,77836,BURLESON,9795673245,Critical Access Hospitals,Voluntary non-profit - Church,true,"1101 WOODSON DRIVE
CALDWELL, TX 77836
(30.520951, -96.71596)"
451309,Mccamey Hospital,2500 Highway 305 South,,,Mccamey,TX,79752,Upton,432-652-8626,Critical Access,Government - Hospital District or Authority,Yes,"2500 HWY 305 SOUTH
MCCAMEY, TX 79752
(31.084903901000473, -102.19083641899971)",451309,MCCAMEY HOSPITAL,2500 HWY 305 SOUTH,MCCAMEY,TX,79752,UPTON,4326528626,Critical Access Hospitals,Government - Hospital District or Authority,true,"2500 HWY 305 SOUTH
MCCAMEY, TX 79752
"
451310,Ballinger Memorial Hospital,608 AVE. B,,,Ballinger,TX,76821,Runnels,325-365-2531,Critical Access,Government - Hospital District or Authority,Yes,"608 AVENUE B
BALLINGER, TX 76821
(31.74964799200046, -99.96244035099966)",451310,BALLINGER MEMORIAL HOSPITAL,608 AVENUE B,BALLINGER,TX,76821,RUNNELS,3253652531,Critical Access Hospitals,Government - Hospital District or Authority,true,"608 AVENUE B
BALLINGER, TX 76821
(31.750195, -99.962044)"
451311,Sweeny Community Hospital,305 N. McKinney,,,Sweeny,TX,77480,Brazoria,979-548-3311,Critical Access,Government - Hospital District or Authority,Yes,"305 NORTH MCKINNEY
SWEENY, TX 77480
(29.04788919100048, -95.6907394219997)",451311,SWEENY COMMUNITY HOSPITAL,305 NORTH MCKINNEY,SWEENY,TX,77480,BRAZORIA,9795483311,Critical Access Hospitals,Government - Hospital District or Authority,true,"305 NORTH MCKINNEY
SWEENY, TX 77480
(29.048509, -95.691386)"
451313,Fisher County Hospital District,774 State Highway 70 North,,,Rotan,TX,79546,Fisher,325-735-2256,Critical Access,Government - Hospital District or Authority,Yes,"774 STATE HIGHWAY 70 N
ROTAN, TX 79546
(32.83423622100048, -100.43528829699966)",451313,FISHER COUNTY HOSPITAL DISTRICT,774 STATE HIGHWAY 70 N,ROTAN,TX,79546,FISHER,3257352256,Critical Access Hospitals,Government - Hospital District or Authority,true,"774 STATE HIGHWAY 70 N
ROTAN, TX 79546
(32.858917, -100.467992)"
451316,Madison St Joseph Health Center,100 W. Cross St.,,,Madisonville,TX,77864,Madison,936-348-2631,Critical Access,Nonprofit - Church,Yes,"100 WEST CROSS STREET
MADISONVILLE, TX 77864
(30.941998407000483, -95.91001707999965)",451316,MADISON ST JOSEPH HEALTH CENTER,100 WEST CROSS STREET,MADISONVILLE,TX,77864,MADISON,9363482631,Critical Access Hospitals,Voluntary non-profit - Church,true,"100 WEST CROSS STREET
MADISONVILLE, TX 77864
(30.942053, -95.909929)"
451319,Mother Frances Hospital Jacksonville,2026 S. Jackson St.,,,Jacksonville,TX,75766,Cherokee,903-541-4500,Critical Access,Nonprofit - Church,Yes,"2026 S JACKSON STREET
JACKSONVILLE, TX 75766
(31.939444942000478, -95.2510389149997)",451319,MOTHER FRANCES HOSPITAL JACKSONVILLE,2026 S JACKSON STREET,JACKSONVILLE,TX,75766,CHEROKEE,9035414500,Critical Access Hospitals,Voluntary non-profit - Private,true,"2026 S JACKSON STREET
JACKSONVILLE, TX 75766
(31.93937, -95.25095)"
451320,Bayside Community Hospital,200 Hospital Drive,,,Anahuac,TX,77514,Chambers,409-267-3143,Critical Access,Government - Local,Yes,"200 HOSPITAL DRIVE
ANAHUAC, TX 77514
(29.752112800000475, -94.68514263399965)",451320,BAYSIDE COMMUNITY HOSPITAL,200 HOSPITAL DRIVE,ANAHUAC,TX,77514,CHAMBERS,4092673143,Critical Access Hospitals,Government - Local,true,"200 HOSPITAL DRIVE
ANAHUAC, TX 77514
(29.753054, -94.686651)"
451321,Hunt Regional Community Hospital,2900 Sterling Hart Drive,,,Commerce,TX,75428,Hunt,903-408-1881,Critical Access,Government - Hospital District or Authority,Yes,"2900 STERLING HART DRIVE
COMMERCE, TX 75428
(33.23096437200047, -95.89574650399965)",451321,HUNT REGIONAL COMMUNITY HOSPITAL,2900 STERLING HART DRIVE,COMMERCE,TX,75428,HUNT,9034081881,Critical Access Hospitals,Government - Hospital District or Authority,true,"2900 STERLING HART DRIVE
COMMERCE, TX 75428
(33.230507, -95.895565)"
451322,Grimes St Joseph Health Center,210 Judson St.,,,Navasota,TX,77868,Grimes,936-825-6585,Critical Access,Nonprofit - Church,Yes,"210 JUDSON ST
NAVASOTA, TX 77868
(30.395151846000488, -96.07908853199967)",451322,GRIMES ST JOSEPH HEALTH CENTER,210 JUDSON ST,NAVASOTA,TX,77868,GRIMES,9368256585,Critical Access Hospitals,Voluntary non-profit - Church,true,"210 JUDSON ST
NAVASOTA, TX 77868
(30.392233, -96.07669)"
451323,Rollins Brook Community Hospital,608 N. Key Ave.,,,Lampasas,TX,76550,Lampasas,512-556-3682,Critical Access,Nonprofit - Church,Yes,"608 NORTH KEY AVENUE
LAMPASAS, TX 76550
(31.072403706000443, -98.1856444019997)",451323,ROLLINS BROOK COMMUNITY HOSPITAL,608 NORTH KEY AVENUE,LAMPASAS,TX,76550,LAMPASAS,5125563682,Critical Access Hospitals,Voluntary non-profit - Church,true,"608 NORTH KEY AVENUE
LAMPASAS, TX 76550
(31.072512, -98.185632)"
451326,Chillicothe Hospital District,303 Ave. I,,,Chillicothe,TX,79225,Hardeman,940-852-5131,Critical Access,Government - Hospital District or Authority,Yes,"303 AVENUE I
CHILLICOTHE, TX 79225
(34.25539024300048, -99.51584552699967)",451326,CHILLICOTHE HOSPITAL DISTRICT,303 AVENUE I,CHILLICOTHE,TX,79225,HARDEMAN,9408525131,Critical Access Hospitals,Government - Hospital District or Authority,true,"303 AVENUE I
CHILLICOTHE, TX 79225
(34.255494, -99.51593)"
451330,Medina Regional Hospital,3100 Ave. E,,,Hondo,TX,78861,Medina,830-426-7700,Critical Access,Nonprofit - Other,Yes,"3100 AVENUE E
HONDO, TX 78861
(29.33557236100046, -99.1334607499997)",451330,MEDINA REGIONAL HOSPITAL,3100 AVENUE E,HONDO,TX,78861,MEDINA,8304267700,Critical Access Hospitals,Government - Hospital District or Authority,true,"3100 AVENUE E
HONDO, TX 78861
"
451331,Coon Memorial Hospital,1411 Denver Ave.,,,Dalhart,TX,79022,Dallam,806-244-4571,Critical Access,Government - Hospital District or Authority,Yes,"1411 DENVER AVENUE
DALHART, TX 79022
(36.05210894400045, -102.5218438069997)",451331,COON MEMORIAL HOSPITAL,1411 DENVER AVENUE,DALHART,TX,79022,DALLAM,8062444571,Critical Access Hospitals,Government - Hospital District or Authority,true,"1411 DENVER AVENUE
DALHART, TX 79022
(36.0522, -102.521896)"
451337,W J Mangold Memorial Hospital,320 N. Main,,,Lockney,TX,79241,Floyd,806-652-3373,Critical Access,Government - Hospital District or Authority,Yes,"320 NORTH MAIN
LOCKNEY, TX 79241
(34.126857552000445, -101.44163500499968)",451337,W J MANGOLD MEMORIAL HOSPITAL,320 NORTH MAIN,LOCKNEY,TX,79241,FLOYD,8066523373,Critical Access Hospitals,Government - Hospital District or Authority,true,"320 NORTH MAIN
LOCKNEY, TX 79241
(34.126632, -101.44179)"
451341,Haskell Memorial Hospital,1 N. Ave. North/P.O. Box 1117,,,Haskell,TX,79521,Haskell,940-864-2621,Critical Access,Government - Hospital District or Authority,Yes,"1 NORTH AVENUE N PO BOX 1117
HASKELL, TX 79521
(33.15685985800047, -99.74416060299967)",451341,HASKELL MEMORIAL HOSPITAL,1 NORTH AVENUE N  PO BOX 1117,HASKELL,TX,79521,HASKELL,9408642621,Critical Access Hospitals,Government - Hospital District or Authority,true,"1 NORTH AVENUE N PO BOX 1117
HASKELL, TX 79521
"
451342,Mitchell County Hospital District,997 W. Interstate 20,,,Colorado City,TX,79512,Mitchell,325-728-3431,Critical Access,Government - Hospital District or Authority,Yes,"997 WEST I-20
COLORADO CITY, TX 79512
(32.392156688000455, -100.92845625999968)",451342,MITCHELL COUNTY HOSPITAL DISTRICT,997 WEST I-20,COLORADO CITY,TX,79512,MITCHELL,3257283431,Critical Access Hospitals,Government - Hospital District or Authority,true,"997 WEST I-20
COLORADO CITY, TX 79512
"
451343,Electra Memorial Hospital,1207 S. Bailey St.,,,Electra,TX,76360,Wichita,940-495-3981,Critical Access,Government - Hospital District or Authority,Yes,"1207 S BAILEY STREET
ELECTRA, TX 76360
(34.01910602500044, -98.92399275299965)",451343,ELECTRA MEMORIAL HOSPITAL,1207 S BAILEY STREET,ELECTRA,TX,76360,WICHITA,9404953981,Critical Access Hospitals,Government - Hospital District or Authority,true,"1207 S BAILEY STREET
ELECTRA, TX 76360
(34.019123, -98.923957)"
451344,Hansford County Hospital,707 Roland St.,,,Spearman,TX,79081,Hansford,806-659-2535,Critical Access,Government - Hospital District or Authority,Yes,"707 ROLAND ST
SPEARMAN, TX 79081
(36.19071202900045, -101.2001025669997)",451344,HANSFORD COUNTY HOSPITAL,707 ROLAND ST,SPEARMAN,TX,79081,HANSFORD,8066592535,Critical Access Hospitals,Government - Hospital District or Authority,true,"707 ROLAND ST
SPEARMAN, TX 79081
(36.190785, -101.200129)"
451346,Yoakum Community Hospital,1200 Carl Ramert Drive,,,Yoakum,TX,77995,De Witt,361-293-2321,Critical Access,Government - Hospital District or Authority,Yes,"1200 CARL RAMERT DRIVE
YOAKUM, TX 77995
(29.30713157100047, -97.13082036699967)",451346,YOAKUM COMMUNITY HOSPITAL,1200 CARL RAMERT DRIVE,YOAKUM,TX,77995,DE WITT,3612932321,Critical Access Hospitals,Voluntary non-profit - Private,true,"1200 CARL RAMERT DRIVE
YOAKUM, TX 77995
(29.306658, -97.130284)"
451347,Coleman County Medical Center Company,310 S. Pecos St.,,,Coleman,TX,76834,Coleman,325-625-2135,Critical Access,Government - Hospital District or Authority,Yes,"310 SOUTH PECOS STREET
COLEMAN, TX 76834
(31.828863727000453, -99.42525004399965)",451347,COLEMAN COUNTY MEDICAL CENTER COMPANY,310 SOUTH PECOS STREET,COLEMAN,TX,76834,COLEMAN,3256252135,Critical Access Hospitals,Government - Hospital District or Authority,true,"310 SOUTH PECOS STREET
COLEMAN, TX 76834
(31.828919, -99.425237)"
451349,Swisher Memorial Hospital,539 S.E. 2nd St.,,,Tulia,TX,79088,Swisher,806-995-3581,Critical Access,Government - Hospital District or Authority,Yes,"539 SOUTHEAST 2ND
TULIA, TX 79088
(34.535628218000454, -101.75584968399966)",451349,SWISHER MEMORIAL HOSPITAL,539 SOUTHEAST 2ND,TULIA,TX,79088,SWISHER,8069953581,Critical Access Hospitals,Voluntary non-profit - Private,true,"539 SOUTHEAST 2ND
TULIA, TX 79088
(34.53557, -101.756231)"
451350,Plains Memorial Hospital,310 W. Halsell St.,,,Dimmitt,TX,79027,Castro,806-647-2191,Critical Access,Government - Hospital District or Authority,Yes,"310 WEST HALSELL STREET
DIMMITT, TX 79027
(34.55559098000049, -102.31519259099969)",451350,PLAINS MEMORIAL HOSPITAL,310 WEST HALSELL STREET,DIMMITT,TX,79027,CASTRO,8066472191,Critical Access Hospitals,Government - Hospital District or Authority,false,"310 WEST HALSELL STREET
DIMMITT, TX 79027
(34.55558, -102.315112)"
451351,Lynn County Hospital District,2600 Lockwood St.,,,Tahoka,TX,79373,Lynn,806-998-4533,Critical Access,Government - Hospital District or Authority,Yes,"2600 LOCKWOOD STREET
TAHOKA, TX 79373
(33.16631367800045, -101.77503893199969)",451351,LYNN COUNTY HOSPITAL DISTRICT,2600 LOCKWOOD STREET,TAHOKA,TX,79373,LYNN,8069984533,Critical Access Hospitals,Government - Hospital District or Authority,true,"2600 LOCKWOOD STREET
TAHOKA, TX 79373
(33.166538, -101.815141)"
451354,Hamilton Hospital,901 W. Hamilton,,,Olney,TX,76374,Young,940-564-5521,Critical Access,Government - Hospital District or Authority,Yes,"901 WEST HAMILTON
OLNEY, TX 76374
(33.36961188500044, -98.76381281899967)",451354,HAMILTON HOSPITAL,901 WEST HAMILTON,OLNEY,TX,76374,YOUNG,9405645521,Critical Access Hospitals,Government - Hospital District or Authority,true,"901 WEST HAMILTON
OLNEY, TX 76374
(33.369214, -98.764985)"
451355,Collingsworth General Hospital,1013 15th St.,,,Wellington,TX,79095,Collingsworth,806-447-2521,Critical Access,Proprietary,Yes,"1013 15TH ST
WELLINGTON, TX 79095
(34.84917949600049, -100.21241949299969)",451355,COLLINGSWORTH GENERAL HOSPITAL,1013 15TH ST,WELLINGTON,TX,79095,COLLINGSWORTH,8064472521,Critical Access Hospitals,Proprietary,true,"1013 15TH ST
WELLINGTON, TX 79095
(34.849109, -100.212939)"
451356,Memorial Medical Center,815 N. Virginia St.,,,Port Lavaca,TX,77979,Calhoun,361-552-6713,Critical Access,Government - Local,Yes,"815 N VIRGINIA STREET
PORT LAVACA, TX 77979
(28.620971134000456, -96.63158226199965)",451356,MEMORIAL MEDICAL CENTER,815 N VIRGINIA STREET,PORT LAVACA,TX,77979,CALHOUN,3615526713,Critical Access Hospitals,Government - Local,true,"815 N VIRGINIA STREET
PORT LAVACA, TX 77979
(28.62087, -96.6315)"
451357,Little River Healthcare,1700 Brazos,,,Rockdale,TX,76567,Milam,512-446-4500,Critical Access,Proprietary,Yes,"1700 BRAZOS
ROCKDALE, TX 76567
(30.650107321000462, -97.02206497199967)",451357,LITTLE RIVER HEALTHCARE,1700 BRAZOS,ROCKDALE,TX,76567,MILAM,5124464500,Critical Access Hospitals,Proprietary,true,"1700 BRAZOS
ROCKDALE, TX 76567
(30.650156, -97.020575)"
451361,Sabine County Hospital,2301 U.S. Highway 83 West/P.O. Box 750 ,,,Hemphill,TX,75948,Sabine,409-787-3300,Critical Access,Government - Hospital District or Authority,Yes,"PO BOX 750, 2301 HWY 83 W
HEMPHILL, TX 75948
(31.310200258000464, -93.77394901299965)",451361,SABINE COUNTY HOSPITAL,"PO BOX 750, 2301 HWY 83 W",HEMPHILL,TX,75948,SABINE,4097873300,Critical Access Hospitals,Proprietary,true,"PO BOX 750, 2301 HWY 83 W
HEMPHILL, TX 75948
"
451363,Jackson Healthcare Center,1013 S. Wells,,,Edna,TX,77957,Jackson,361-782-7800,Critical Access,Government - Hospital District or Authority,Yes,"1013 S WELLS
EDNA, TX 77957
(28.970852005000438, -96.6373718379997)",451363,JACKSON HEALTHCARE CENTER,1013 S WELLS,EDNA,TX,77957,JACKSON,3617827800,Critical Access Hospitals,Government - Hospital District or Authority,true,"1013 S WELLS
EDNA, TX 77957
"
451364,Otto Kaiser Memorial Hospital,3349 S. Highway 181,,,Kenedy,TX,78119,Karnes,830-583-3401,Critical Access,Government - Hospital District or Authority,Yes,"3349 S HIGHWAY 181
KENEDY, TX 78119
(28.848629634000474, -97.87837105599965)",451364,OTTO KAISER MEMORIAL HOSPITAL,3349 S HIGHWAY 181,KENEDY,TX,78119,KARNES,8305833401,Critical Access Hospitals,Government - Hospital District or Authority,true,"3349 S HIGHWAY 181
KENEDY, TX 78119
(28.804213, -97.85663)"
451365,Seton Highland Lakes,3201 S. Water St.,,,Burnet,TX,78611,Burnet,512-715-3000,Critical Access,Nonprofit - Church,Yes,"HIGHWAY 281 SOUTH
BURNET, TX 78611
(30.80165340500048, -98.3842388379997)",451365,SETON HIGHLAND LAKES,HIGHWAY 281 SOUTH,BURNET,TX,78611,BURNET,5127153000,Critical Access Hospitals,Voluntary non-profit - Private,true,"HIGHWAY 281 SOUTH
BURNET, TX 78611
"
451367,East Texas Medical Center Pittsburg,2701 U.S. Highway 271 North,,,Pittsburg,TX,75686,Camp,903-856-4520,Critical Access,Nonprofit - Church,Yes,"2701 US HWY 271 N
PITTSBURG, TX 75686
(33.03100783800045, -94.96206392999966)",451367,EAST TEXAS MEDICAL CENTER PITTSBURG,2701 US HWY 271 N,PITTSBURG,TX,75686,CAMP,9038564520,Critical Access Hospitals,Voluntary non-profit - Private,true,"2701 US HWY 271 N
PITTSBURG, TX 75686
(33.033685, -94.961069)"
451369,Golden Plains Community Hospital,100 Medical Drive,,,Borger,TX,79007,Hutchinson,806-273-1100,Critical Access,Government - Federal,Yes,"100 MEDICAL DRIVE
BORGER, TX 79007
(35.65602056500046, -101.40796953899968)",451369,GOLDEN PLAINS COMMUNITY HOSPITAL,100 MEDICAL DRIVE,BORGER,TX,79007,HUTCHINSON,8062731100,Critical Access Hospitals,Proprietary,true,"100 MEDICAL DRIVE
BORGER, TX 79007
"
451370,Red River Regional Hospital,504 Lipscomb St.,,,Bonham,TX,75418,Fannin,903-640-7311,Critical Access,Proprietary,Yes,"504 LIPSCOMB STREET
BONHAM, TX 75418
(33.578319716000465, -96.16741807799968)",451370,RED RIVER REGIONAL HOSPITAL,504 LIPSCOMB STREET,BONHAM,TX,75418,FANNIN,9036407311,Critical Access Hospitals,Government - Hospital District or Authority,true,"504 LIPSCOMB STREET
BONHAM, TX 75418
(33.578064, -96.167538)"
451371,Seton Edgar B Davis Hospital,130 Hays St.,,,Luling,TX,78648,Caldwell,830-875-7000,Critical Access,Nonprofit - Church,Yes,"130 HAYS STREET
LULING, TX 78648
(29.672628517000476, -97.65348253999969)",451371,SETON EDGAR B DAVIS HOSPITAL,130 HAYS STREET,LULING,TX,78648,CALDWELL,8308757000,Critical Access Hospitals,Voluntary non-profit - Private,true,"130 HAYS STREET
LULING, TX 78648
(29.672522, -97.654654)"
451376,Lavaca Medical Center,1400 N. Texana St.,,,Hallettsville,TX,77964,Lavaca,361-798-3671,Critical Access,Government - Hospital District or Authority,Yes,"1400 NORTH TEXANA STREET
HALLETTSVILLE, TX 77964
(29.457930596000438, -96.93980945299967)",451376,LAVACA MEDICAL CENTER,1400 NORTH TEXANA STREET,HALLETTSVILLE,TX,77964,LAVACA,3617983671,Critical Access Hospitals,Government - Hospital District or Authority,true,"1400 NORTH TEXANA STREET
HALLETTSVILLE, TX 77964
(29.457419, -96.939814)"
451377,Reeves County Hospital District,2323 Texas St.,,,Pecos,TX,79772,Reeves,432-447-3551,Critical Access,Government - Hospital District or Authority,Yes,"2323 TEXAS STREET
PECOS, TX 79772
(31.401773196000477, -103.51282219499967)",451377,REEVES COUNTY HOSPITAL DISTRICT,2323 TEXAS STREET,PECOS,TX,79772,REEVES,4324473551,Critical Access Hospitals,Government - Hospital District or Authority,true,"2323 TEXAS STREET
PECOS, TX 79772
(31.402329, -103.512645)"
451378,Big Bend Regional Medical Center,2600 Highway 118 North,,,Alpine,TX,79830,Brewster,432-837-3447,Critical Access,Proprietary,Yes,"2600 HIGHWAY 118 NORTH
ALPINE, TX 79830
(30.35429035800047, -103.6599662269997)",451378,BIG BEND REGIONAL MEDICAL CENTER,2600 HIGHWAY 118 NORTH,ALPINE,TX,79830,BREWSTER,4328373447,Critical Access Hospitals,Proprietary,true,"2600 HIGHWAY 118 NORTH
ALPINE, TX 79830
(30.383807, -103.672137)"
451379,Coryell Memorial Healthcare System,1507 W. Main St.,,,Gatesville,TX,76528,Coryell,254-865-8251,Critical Access,Government - Hospital District or Authority,Yes,"1507 W MAIN STREET
GATESVILLE, TX 76528
(31.433610711000483, -97.7761219199997)",451379,CORYELL MEMORIAL HEALTHCARE SYSTEM,1507 W MAIN STREET,GATESVILLE,TX,76528,CORYELL,2548658251,Critical Access Hospitals,Government - Hospital District or Authority,true,"1507 W MAIN STREET
GATESVILLE, TX 76528
(31.433152, -97.778822)"
451380,East Texas Medical Center Quitman,117 Winnsboro St.,,,Quitman,TX,75783,Wood,903-763-4500,Critical Access,Nonprofit - Church,Yes,"117 WINNSBORO STREET
QUITMAN, TX 75783
(32.796375054000464, -95.44505377599967)",451380,EAST TEXAS MEDICAL CENTER QUITMAN,117 WINNSBORO STREET,QUITMAN,TX,75783,WOOD,9037634500,Critical Access Hospitals,Voluntary non-profit - Private,true,"117 WINNSBORO STREET
QUITMAN, TX 75783
(32.795804, -95.445402)"
453300,Cook Childrens Medical Center,801 Seventh Ave.,,,Fort Worth,TX,76104,Tarrant,682-885-4000,Childrens,Nonprofit - Church,Yes,"801 SEVENTH AVENUE
FORT WORTH, TX 76104
(32.73648996200046, -97.34195795299968)",453300,COOK CHILDRENS MEDICAL CENTER,801 SEVENTH AVENUE,FORT WORTH,TX,76104,TARRANT,6828854000,Childrens,Voluntary non-profit - Private,true,"801 SEVENTH AVENUE
FORT WORTH, TX 76104
(32.736561, -97.341976)"
453301,Driscoll Childrens Hospital,3533 S. Alameda/P.O. Box 6530,,,Corpus Christi,TX,78411,Nueces,512-850-5000,Childrens,Nonprofit - Other,Yes,"3533 S ALAMEDA BOX 6530
CORPUS CHRISTI, TX 78411
(27.74926046200045, -97.38499668099968)",453301,DRISCOLL CHILDRENS HOSPITAL,3533 S ALAMEDA BOX 6530,CORPUS CHRISTI,TX,78411,NUECES,3617394846,Childrens,Voluntary non-profit - Other,true,"3533 S ALAMEDA BOX 6530
CORPUS CHRISTI, TX 78411
(27.749573, -97.385163)"
453310,Dell Children's Medical Center Of Central Texas,4900 Mueller Blvd.,,,Austin,TX,78723,Travis,512-324-0000,Childrens,Nonprofit - Church,Yes,"4900 MUELLER BLVD
AUSTIN, TX 78723
(30.302557926000475, -97.70494631999969)",453310,DELL CHILDREN'S MEDICAL CENTER OF CENTRAL TEXAS,4900 MUELLER BLVD,AUSTIN,TX,78723,TRAVIS,5123240000,Childrens,Voluntary non-profit - Private,true,"4900 MUELLER BLVD
AUSTIN, TX 78723
(30.302549, -97.704957)"
670002,South Hampton Community Hospital,2929  S. Hampton Road,,,Dallas,TX,75224,Dallas,214-623-4400,Acute Care,Proprietary,Yes,"2929 SOUTH HAMPTON ROAD
DALLAS, TX 75224
(32.71524077400045, -96.85716182699969)",,,,,,,,,,,,
670004,St Marks Medical Center,1 St. Mark's Place,,,La Grange,TX,78945,Fayette,979-242-2200,Acute Care,Nonprofit - Church,Yes,"ONE ST MARK'S PLACE
LA GRANGE, TX 78945
(29.91365031400045, -96.87637852999967)",670004,ST MARKS MEDICAL CENTER,ONE ST MARK'S PLACE,LA GRANGE,TX,78945,FAYETTE,9792422200,Acute Care Hospitals,Voluntary non-profit - Private,true,"ONE ST MARK'S PLACE
LA GRANGE, TX 78945
"
670005,Memorial Hermann Surgical Hospital Kingwood,300 Kingwood Medical Drive,,,Kingwood,TX,77339,Harris,281-312-4000,Acute Care,Proprietary,No,"300 KINGWOOD MEDICAL DRIVE
KINGWOOD, TX 77339
(30.047258445000466, -95.25805092199965)",670005,MEMORIAL HERMANN SURGICAL HOSPITAL KINGWOOD,300 KINGWOOD MEDICAL DRIVE,KINGWOOD,TX,77339,HARRIS,2813124000,Acute Care Hospitals,Proprietary,false,"300 KINGWOOD MEDICAL DRIVE
KINGWOOD, TX 77339
(30.047162, -95.258247)"
670006,The Hospital At Westlake Medical Center,"5656 Bee Caves Road, Suite M-302",,,Austin,TX,78746,Travis,512-327-0000,Acute Care,Proprietary,Yes,"5656 BEE CAVES ROAD, SUITE M-302
AUSTIN, TX 78746
(30.294565531000444, -97.82458826699968)",670006,THE HOSPITAL AT WESTLAKE MEDICAL CENTER,"5656 BEE CAVES ROAD, SUITE M-302",AUSTIN,TX,78746,TRAVIS,5123270000,Acute Care Hospitals,Proprietary,true,"5656 BEE CAVES ROAD, SUITE M-302
AUSTIN, TX 78746
(30.294611, -97.82469)"
670008,Houston Physicians' Hospital,333 N. Texas Ave.,,,Webster,TX,77598,Harris,281-335-1700,Acute Care,Physician,Yes,"333 N TEXAS AVENUE
WEBSTER, TX 77598
(29.534700470000473, -95.12562208799966)",670008,HOUSTON PHYSICIANS' HOSPITAL,333 N TEXAS AVENUE,WEBSTER,TX,77598,HARRIS,2813351700,Acute Care Hospitals,Physician,true,"333 N TEXAS AVENUE
WEBSTER, TX 77598
(29.53456, -95.12547)"
670010,Mayhill Hospital,2809 S. Mayhill Road,,,Denton,TX,76208,Denton,940-239-3000,Acute Care,Proprietary,No,"2809 SOUTH MAYHILL ROAD
DENTON, TX 76208
(33.176011109000456, -97.08822676499966)",670010,MAYHILL HOSPITAL,2809 SOUTH MAYHILL ROAD,DENTON,TX,76208,DENTON,9402393000,Acute Care Hospitals,Proprietary,false,"2809 SOUTH MAYHILL ROAD
DENTON, TX 76208
(33.17775, -97.087108)"
670012,Houston Orthopedic And Spine Hospital,5410 West Loop South,,,Bellaire,TX,77401,Harris,713-622-2262,Acute Care,Proprietary,Yes,"5410 WEST LOOP SOUTH
BELLAIRE, TX 77401
(29.72394069200044, -95.46077209299966)",670012,HOUSTON ORTHOPEDIC AND SPINE HOSPITAL,5410 WEST LOOP SOUTH,BELLAIRE,TX,77401,HARRIS,7136222262,Acute Care Hospitals,Proprietary,true,"5410 WEST LOOP SOUTH
BELLAIRE, TX 77401
(29.72338, -95.460729)"
670018,Doctors Diagnostic Hospital,1017 S. Travis,,,Cleveland,TX,77328,Liberty,281-622-2900,Acute Care,Physician,Yes,"1017 SOUTH TRAVIS
CLEVELAND, TX 77328
(30.36388412900044, -95.1861192509997)",,,,,,,,,,,,
670019,University General Hospital,7501 Fannin,,,Houston,TX,77054,Harris,713-652-3800,Acute Care,Proprietary,Yes,"7501 FANNIN
HOUSTON, TX 77054
(29.693011021000473, -95.40077819599969)",670019,UNIVERSITY GENERAL HOSPITAL,7501 FANNIN,HOUSTON,TX,77054,HARRIS,7136523800,Acute Care Hospitals,Proprietary,true,"7501 FANNIN
HOUSTON, TX 77054
(29.692834, -95.400999)"
670023,Methodist Mansfield Medical Center,2700 E. Broad St.,,,Mansfield,TX,76063,Tarrant,682-622-2059,Acute Care,Nonprofit - Church,Yes,"2700 E BROAD STREET
MANSFIELD, TX 76063
(32.568492035000475, -97.09708970799966)",670023,METHODIST MANSFIELD MEDICAL CENTER,2700 E BROAD STREET,MANSFIELD,TX,76063,TARRANT,6826222059,Acute Care Hospitals,Voluntary non-profit - Private,true,"2700 E BROAD STREET
MANSFIELD, TX 76063
(32.568584, -97.096962)"
670024,North Cypress Medical Center,21214 Northwest Freeway,,,Cypress,TX,77429,Harris,281-890-0203,Acute Care,Physician,Yes,"21214 NORTHWEST FREEWAY
CYPRESS, TX 77429
(29.924885250000443, -95.63252806199966)",670024,NORTH CYPRESS MEDICAL CENTER,21214 NORTHWEST FREEWAY,CYPRESS,TX,77429,HARRIS,2818900203,Acute Care Hospitals,Physician,true,"21214 NORTHWEST FREEWAY
CYPRESS, TX 77429
(29.92482, -95.632487)"
670025,The Heart Hospital Baylor Plano,1100 Allied Drive,,,Plano,TX,75093,Collin,469-814-3278,Acute Care,Proprietary,Yes,"1100 ALLIED DRIVE
PLANO, TX 75093
(33.014446835000456, -96.79073860899967)",670025,THE HEART HOSPITAL BAYLOR PLANO,1100 ALLIED DRIVE,PLANO,TX,75093,COLLIN,4698143278,Acute Care Hospitals,Proprietary,true,"1100 ALLIED DRIVE
PLANO, TX 75093
(33.015635, -96.789918)"
670029,First Surgical Hospital,4801 Bissonet Blvd.,,,Bellaire,TX,77401,Harris,713-713-7133,Acute Care,Proprietary,Yes,"4801 BISSONNET BLVD
BELLAIRE, TX 77401
(29.71037564900047, -95.46249777799966)",,,,,,,,,,,,
670031,St Luke's Patients Medical Center,4600 E. Sam Houston Parkway South,,,Pasadena,TX,77505,Harris,281-487-0700,Acute Care,Physician,Yes,"4600 EAST SAM HOUSTON PARKWAY SOUTH
PASADENA, TX 77505
(29.641109010000434, -95.16000312999967)",670031,ST LUKE'S PATIENTS MEDICAL CENTER,4600 EAST SAM HOUSTON PARKWAY SOUTH,PASADENA,TX,77505,HARRIS,2814870700,Acute Care Hospitals,Physician,true,"4600 EAST SAM HOUSTON PARKWAY SOUTH
PASADENA, TX 77505
(29.640397, -95.160584)"
670034,Scott & White Hospital-Round Rock,300 University Blvd.,,,Round Rock,TX,78664,Williamson,512-509-0100,Acute Care,Nonprofit - Church,Yes,"300 UNIVERSITY BLVD
ROUND ROCK, TX 78664
(30.560317426000438, -97.6849191389997)",670034,SCOTT & WHITE HOSPITAL-ROUND ROCK,300 UNIVERSITY BLVD,ROUND ROCK,TX,78664,WILLIAMSON,5125090100,Acute Care Hospitals,Voluntary non-profit - Private,true,"300 UNIVERSITY BLVD
ROUND ROCK, TX 78664
(30.560291, -97.684909)"
670041,Seton Medical Center Williamson,201 Seton Parkway,,,Round Rock,TX,78664,Williamson,512-324-0000,Acute Care,Nonprofit - Church,Yes,"201 SETON PARKWAY
ROUND ROCK, TX 78664
(30.571051729000487, -97.65298034999967)",670041,SETON MEDICAL CENTER WILLIAMSON,201 SETON PARKWAY,ROUND ROCK,TX,78664,WILLIAMSON,5123240000,Acute Care Hospitals,Voluntary non-profit - Private,true,"201 SETON PARKWAY
ROUND ROCK, TX 78664
(30.567944, -97.652784)"
670043,Cedar Park Regional Medical Center,1401 Medical Parkway,,,Cedar Park,TX,78613,Williamson,512-528-7000,Acute Care,Proprietary,Yes,"1401 MEDICAL PARKWAY
CEDAR PARK, TX 78613
(30.530595852000488, -97.81187836799967)",670043,CEDAR PARK REGIONAL MEDICAL CENTER,1401 MEDICAL PARKWAY,CEDAR PARK,TX,78613,WILLIAMSON,5125287000,Acute Care Hospitals,Proprietary,true,"1401 MEDICAL PARKWAY
CEDAR PARK, TX 78613
(30.530162, -97.810854)"
670044,Texas Health Presbyterian Hospital Rockwall,3150 Horizon Road,,,Rockwall,TX,75032,Rockwall,469-698-1000,Acute Care,Physician,Yes,"3150 HORIZON ROAD
ROCKWALL, TX 75032
(32.886069045000454, -96.46477002099965)",670044,TEXAS HEALTH PRESBYTERIAN HOSPITAL ROCKWALL,3150 HORIZON ROAD,ROCKWALL,TX,75032,ROCKWALL,4696981000,Acute Care Hospitals,Physician,true,"3150 HORIZON ROAD
ROCKWALL, TX 75032
(32.885751, -96.464308)"
670045,"Cook Childrens Northeast Hospital, Llc",6316 Precinct Line Road,,,Hurst,TX,76054,Tarrant,817-605-2500,Acute Care,Nonprofit - Church,Yes,"6316 PRECINCT LINE RD
HURST, TX 76054
(32.86322060000049, -97.18608847099966)",670045,"COOK CHILDRENS NORTHEAST HOSPITAL, LLC",6316 PRECINCT LINE RD,HURST,TX,76054,TARRANT,8176052500,Acute Care Hospitals,Physician,true,"6316 PRECINCT LINE RD
HURST, TX 76054
(32.863272, -97.186133)"
670046,Usmd Hospital  At Fort Worth Lp,5900 Dirks Road,,,Fort Worth,TX,76132,Tarrant,817-433-9100,Acute Care,Proprietary,Yes,"5900 DIRKS ROAD
FORT WORTH, TX 76132
(32.64560779900046, -97.41748793299968)",670046,USMD HOSPITAL  AT FORT WORTH LP,5900 ALTAMESA BLVD,FORT WORTH,TX,76132,TARRANT,8174339100,Acute Care Hospitals,Proprietary,true,"5900 ALTAMESA BLVD
FORT WORTH, TX 76132
(32.645592, -97.41814)"
670047,Sierra Providence East Medical Center,3280 Joe Battle Blvd.,,,El Paso,TX,79938,El Paso,915-856-7349,Acute Care,Proprietary,Yes,"3280 JOE BATTLE BLVD
EL PASO, TX 79938
(31.790220156000487, -106.26762812799967)",670047,SIERRA PROVIDENCE EAST MEDICAL CENTER,3280 JOE BATTLE BLVD,EL PASO,TX,79938,EL PASO,9158567349,Acute Care Hospitals,Proprietary,true,"3280 JOE BATTLE BLVD
EL PASO, TX 79938
(31.790511, -106.267642)"
670049,North Central Surgical Center Llp,"9301 N. Central Expressway, Suite 100",,,Dallas,TX,75231,Dallas,214-265-2810,Acute Care,Nonprofit - Other,Yes,"9301 NORTH CENTRAL EXPRESSWAY SUITE 100
DALLAS, TX 75231
(32.87500902800048, -96.77064378899968)",670049,NORTH CENTRAL SURGICAL CENTER LLP,9301 NORTH CENTRAL EXPRESSWAY SUITE 100,DALLAS,TX,75231,DALLAS,2142652810,Acute Care Hospitals,Voluntary non-profit - Other,true,"9301 NORTH CENTRAL EXPRESSWAY SUITE 100
DALLAS, TX 75231
(32.874836, -96.770604)"
670050,Trustpoint Hospital,4302 Princeton,,,Lubbock,TX,79415,Lubbock,806-749-2222,Acute Care,Physician,Yes,"4302 PRINCETON
LUBBOCK, TX 79415
(33.616860450000445, -101.86834885199966)",670050,TRUSTPOINT HOSPITAL OF LUBBOCK,4302 PRINCETON,LUBBOCK,TX,79415,LUBBOCK,8067492222,Acute Care Hospitals,Physician,true,"4302 PRINCETON
LUBBOCK, TX 79415
(33.617021, -101.900489)"
670053,St Luke'S Sugar Land Hospital,1317 Lake Pointe Parkway,,,Sugar Land,TX,77478,Fort Bend,281-637-7000,Acute Care,Nonprofit - Other,Yes,"1317 LAKE POINTE PARKWAY
SUGAR LAND, TX 77478
(29.604892134000465, -95.62127853899966)",670053,ST LUKE'S SUGAR LAND HOSPITAL,1317 LAKE POINTE PARKWAY,SUGAR LAND,TX,77478,FORT BEND,2816377000,Acute Care Hospitals,Voluntary non-profit - Other,true,"1317 LAKE POINTE PARKWAY
SUGAR LAND, TX 77478
(29.604655, -95.621302)"
670054,Foundation Surgical Hospital Of San Antonio,9522 Huebner Road,,,San Antonio,TX,78240,Bexar,210-478-5400,Acute Care,Proprietary,Yes,"9522 HUEBNER ROAD
SAN ANTONIO, TX 78240
(29.531390046000467, -98.59216975599969)",670054,FOUNDATION SURGICAL HOSPITAL OF SAN ANTONIO,9522 HUEBNER ROAD,SAN ANTONIO,TX,78240,BEXAR,2104785400,Acute Care Hospitals,Proprietary,true,"9522 HUEBNER ROAD
SAN ANTONIO, TX 78240
(29.531035, -98.592554)"
670055,Methodist Stone Oak Hospital,1139 E. Sonterra Blvd.,,,San Antonio,TX,78258,Bexar,210-638-2100,Acute Care,Proprietary,Yes,"1139 E SONTERRA BLVD
SAN ANTONIO, TX 78258
(29.614517831000455, -98.47655835299969)",670055,METHODIST STONE OAK HOSPITAL,1139 E SONTERRA BLVD,SAN ANTONIO,TX,78258,BEXAR,2106382100,Acute Care Hospitals,Proprietary,true,"1139 E SONTERRA BLVD
SAN ANTONIO, TX 78258
(29.614811, -98.47406)"
670056,Seton Medical Center Hays,6001 Kyle Parkway,,,Kyle,TX,78640,Hays,512-324-5000,Acute Care,Nonprofit - Church,Yes,"6001 KYLE PKWY
KYLE, TX 78640
(30.007586133000473, -97.85517981299967)",670056,SETON MEDICAL CENTER HAYS,6001 KYLE PKWY,KYLE,TX,78640,HAYS,5123245000,Acute Care Hospitals,Voluntary non-profit - Private,true,"6001 KYLE PKWY
KYLE, TX 78640
(30.007734, -97.85528)"
670058,Emerus Hospital,16000 Southwest Freeway,,,Sugar Land,TX,77479,Fort Bend,281-516-0911,Acute Care,Physician,Yes,"16000 SOUTHWEST FREEWAY
SUGAR LAND, TX 77479
(29.597971629000483, -95.62367104599969)",670058,EMERUS HOSPITAL,16000 SOUTHWEST FREEWAY,SUGAR LAND,TX,77479,FORT BEND,2815160911,Acute Care Hospitals,Physician,true,"16000 SOUTHWEST FREEWAY
SUGAR LAND, TX 77479
(29.597792, -95.623799)"
670059,St Lukes Lakeside Hospital,17400 St. Luke's Way,,,The Woodlands,TX,77384,Montgomery,936-266-4055,Acute Care,Nonprofit - Other,Yes,"17400 ST LUKES WAY
THE WOODLANDS, TX 77384
(30.20184948600047, -95.45938184199969)",670059,ST LUKES LAKESIDE HOSPITAL,17400 ST LUKES WAY,THE WOODLANDS,TX,77384,MONTGOMERY,9362664055,Acute Care Hospitals,Voluntary non-profit - Other,true,"17400 ST LUKES WAY
THE WOODLANDS, TX 77384
(30.199789, -95.459386)"
670060,Texas Regional Medical Center At Sunnyvale,231 S. Collins Road,,,Sunnyvale,TX,75182,Dallas,972-892-3000,Acute Care,Proprietary,Yes,"231 SOUTH COLLINS ROAD
SUNNYVALE, TX 75182
(32.778419244000474, -96.56715393599967)",670060,TEXAS REGIONAL MEDICAL CENTER AT SUNNYVALE,231 SOUTH COLLINS ROAD,SUNNYVALE,TX,75182,DALLAS,9728923000,Acute Care Hospitals,Proprietary,true,"231 SOUTH COLLINS ROAD
SUNNYVALE, TX 75182
(32.780308, -96.565611)"
670061,South Texas Surgical Hospital,6130 Parkway Drive,,,Corpus Christi,TX,78414,Nueces,361-993-2000,Acute Care,Proprietary,Yes,"6130 PARKWAY DRIVE
CORPUS CHRISTI, TX 78414
(27.686783491000483, -97.3756034759997)",670061,SOUTH TEXAS SURGICAL HOSPITAL,6130 PARKWAY DRIVE,CORPUS CHRISTI,TX,78414,NUECES,3619932000,Acute Care Hospitals,Proprietary,true,"6130 PARKWAY DRIVE
CORPUS CHRISTI, TX 78414
(27.687208, -97.374867)"
670062,Baylor Emergency Medical Center,26791 U.S. Highway 380,,,Aubrey,TX,76227,Denton,972-347-2525,Acute Care,Proprietary,Yes,"26791 HIGHWAY 380
AUBREY, TX 76227
(33.22007846300045, -96.91343975899969)",670062,BAYLOR EMERGENCY MEDICAL CENTER,26791 HIGHWAY 380,AUBREY,TX,76227,DENTON,9723472525,Acute Care Hospitals,Proprietary,true,"26791 HIGHWAY 380
AUBREY, TX 76227
"
670066,"Basin Healthcare Center, Llc",900 E. 4th St.,,,Odessa,TX,79761,Ector,432-425-9510,Acute Care,Proprietary,Yes,"900 EAST 4TH STREET
ODESSA, TX 79761
(31.85188607800046, -102.36036024399971)",670066,"BASIN HEALTHCARE CENTER, LLC",900 EAST 4TH STREET,ODESSA,TX,79761,ECTOR,4324259510,Acute Care Hospitals,Proprietary,true,"900 EAST 4TH STREET
ODESSA, TX 79761
(31.852135, -102.359935)"
670067,Baylor Orthopedic And Spine Hospital At Arlington,707 Highlander Blvd.,,,Arlington,TX,76015,Tarrant,817-549-2364,Acute Care,Proprietary,Yes,"707 HIGHLANDER BLVD
ARLINGTON, TX 76015
(32.682620090000455, -97.11529834199968)",670067,BAYLOR ORTHOPEDIC AND SPINE HOSPITAL AT ARLINGTON,707 HIGHLANDER BLVD,ARLINGTON,TX,76015,TARRANT,8175492364,Acute Care Hospitals,Proprietary,true,"707 HIGHLANDER BLVD
ARLINGTON, TX 76015
(32.682606, -97.115508)"
670068,Texas Health Presbyterian Hospital Flower Mound,4400 Long Prairie Road,,,Flower Mound,TX,75028,Denton,972-419-1530,Acute Care,Proprietary,Yes,"4400 LONG PRAIRIE ROAD
FLOWER MOUND, TX 75028
(33.04542069100046, -97.06928792199966)",670068,TEXAS HEALTH PRESBYTERIAN HOSPITAL FLOWER MOUND,4400 LONG PRAIRIE ROAD,FLOWER MOUND,TX,75028,DENTON,9724191530,Acute Care Hospitals,Proprietary,true,"4400 LONG PRAIRIE ROAD
FLOWER MOUND, TX 75028
(33.045812, -97.069324)"
670069,Methodist Mckinney Hospital,8000 W. Eldorado Parkway,,,Mc Kinney,TX,75070,Collin,469-424-6400,Acute Care,Proprietary,Yes,"8000 W ELDORADO PKWY
MC KINNEY, TX 75070
(33.17556716800044, -96.72303052499967)",670069,METHODIST MCKINNEY HOSPITAL,8000 W ELDORADO PKWY,MC KINNEY,TX,75070,COLLIN,4694246400,Acute Care Hospitals,Proprietary,true,"8000 W ELDORADO PKWY
MC KINNEY, TX 75070
(33.175803, -96.72431)"
670071,Texas Health Heart & Vascular Hospital Arlington,811 Wright St.,,,Arlington,TX,76012,Tarrant,817-960-3500,Acute Care,Proprietary,No,"811 WRIGHT STREET
ARLINGTON, TX 76012
(32.748228827000446, -97.11580995499969)",670071,TEXAS HEALTH HEART & VASCULAR HOSPITAL ARLINGTON,811 WRIGHT STREET,ARLINGTON,TX,76012,TARRANT,8179603500,Acute Care Hospitals,Proprietary,false,"811 WRIGHT STREET
ARLINGTON, TX 76012
(32.748209, -97.115578)"
670073,Methodist Hospital For Surgery,17101 Dallas Parkway,,,Addison,TX,75001,Dallas,469-248-3900,Acute Care,Proprietary,Yes,"17101 DALLAS PARKWAY
ADDISON, TX 75001
(32.98389642400048, -96.82890313099966)",670073,METHODIST HOSPITAL FOR SURGERY,17101 DALLAS PARKWAY,ADDISON,TX,75001,DALLAS,4692483900,Acute Care Hospitals,Proprietary,true,"17101 DALLAS PARKWAY
ADDISON, TX 75001
(32.986214, -96.828773)"
670075,"St Luke's Hospital At The Vintage, Llc",20171 Chasewood Park Drive,,,Houston,TX,77070,Harris,832-534-5000,Acute Care,Proprietary,Yes,"20171 CHASEWOOD PARK DRIVE
HOUSTON, TX 77070
(29.989951515000485, -95.5701722989997)",670075,ST LUKE'S HOSPITAL AT THE VINTAGE,20171 CHASEWOOD PARK DRIVE,HOUSTON,TX,77070,HARRIS,8325345000,Acute Care Hospitals,Proprietary,true,"20171 CHASEWOOD PARK DRIVE
HOUSTON, TX 77070
(29.989489, -95.570248)"
670076,Heritage Park Surgical Hospital,3601 Calais Drive,,,Sherman,TX,75090,Grayson,903-813-3728,Acute Care,Proprietary,Yes,"3601 CALAIS DRIVE
SHERMAN, TX 75090
(33.63243189700046, -96.5833079089997)",670076,HERITAGE PARK SURGICAL HOSPITAL,3601 CALAIS DRIVE,SHERMAN,TX,75090,GRAYSON,9038133728,Acute Care Hospitals,Physician,true,"3601 CALAIS DRIVE
SHERMAN, TX 75090
"
670077,Methodist West Houston Hospital,18500 Katy Freeway,,,Houston,TX,77094,Harris,832-522-1000,Acute Care,Nonprofit - Church,Yes,"18500 KATY FREEWAY
HOUSTON, TX 77094
(29.78553828000048, -95.69489077799966)",670077,METHODIST WEST HOUSTON HOSPITAL,18500 KATY FREEWAY,HOUSTON,TX,77094,HARRIS,8325221000,Acute Care Hospitals,Voluntary non-profit - Private,true,"18500 KATY FREEWAY
HOUSTON, TX 77094
(29.785529, -95.697331)"
670078,Baptist Emergency Hospital,16088 San Pedro,,,San Antonio,TX,78232,Bexar,210-402-4092,Acute Care,Proprietary,No,"16088 SAN PEDRO
SAN ANTONIO, TX 78232
(29.587791629000435, -98.47422032899965)",670078,BAPTIST EMERGENCY HOSPITAL,16088 SAN PEDRO,SAN ANTONIO,TX,78232,BEXAR,2104024092,Acute Care Hospitals,Proprietary,true,"16088 SAN PEDRO
SAN ANTONIO, TX 78232
(29.588034, -98.474175)"
670079,"Lakeway Regional Medical Center, Llc",100 Medical Parkway,,,Lakeway,TX,78734,Travis,512-205-8102,Acute Care,Proprietary,Yes,"100 MEDICAL PARKWAY
LAKEWAY, TX 78734
(30.377384062000488, -97.95245824799969)",670079,"LAKEWAY REGIONAL MEDICAL CENTER, LLC",100  MEDICAL PARKWAY,LAKEWAY,TX,78734,TRAVIS,5122058102,Acute Care Hospitals,Proprietary,true,"100 MEDICAL PARKWAY
LAKEWAY, TX 78734
(30.334275, -97.970505)"
670080,Seton Medical Center Harker Heights,850 W. Central Texas Expressway,,,Harker Heights,TX,76548,Bell,254-953-8342,Acute Care,Proprietary,Yes,"850 W CENTRAL TEXAS EXPRESSWAY
HARKER HEIGHTS, TX 76548
(31.08180194300047, -97.6419398219997)",670080,SETON MEDICAL CENTER HARKER HEIGHTS,850 W CENTRAL TEXAS EXPRESSWAY,HARKER HEIGHTS,TX,76548,BELL,2549538342,Acute Care Hospitals,Proprietary,true,"850 W CENTRAL TEXAS EXPRESSWAY
HARKER HEIGHTS, TX 76548
(31.074298, -97.683725)"
670082,Baylor Medical Center At Mckinney,5252 W. University Drive,,,Mc Kinney,TX,75071,Collin,469-742-2200,Acute Care,Nonprofit - Church,Yes,"5252 WEST UNIVERSITY DRIVE
MC KINNEY, TX 75071
(33.21840844500048, -96.67983036999965)",670082,BAYLOR SCOTT AND WHITE  MEDICAL CENTER  MCKINNEY,5252 WEST UNIVERSITY DRIVE,MC KINNEY,TX,75071,COLLIN,4697422200,Acute Care Hospitals,Voluntary non-profit - Private,true,"5252 WEST UNIVERSITY DRIVE
MC KINNEY, TX 75071
(33.218404, -96.681052)"
670083,Texas General Hospital,2709 Hospital Blvd.,,,Grand Prairie,TX,75051,Dallas,469-635-2073,Acute Care,Proprietary,Yes,"2709 HOSPITAL BLVD
GRAND PRAIRIE, TX 75051
(32.73362369000046, -97.0479602589997)",670083,TEXAS GENERAL HOSPITAL,2709 HOSPITAL BLVD,GRAND PRAIRIE,TX,75051,DALLAS,4696352073,Acute Care Hospitals,Proprietary,true,"2709 HOSPITAL BLVD
GRAND PRAIRIE, TX 75051
(32.733743, -97.050999)"
670085,Texas Health Harris Methodist Hospital Alliance,10864 Texas Health Trail,,,Fort Worth,TX,76244,Tarrant,682-212-2004,Acute Care,Nonprofit - Church,Yes,"10864 TEXAS HEALTH TRAIL
FORT WORTH, TX 76244
(32.93238478900048, -97.30977613699969)",670085,TEXAS HEALTH HARRIS METHODIST HOSPITAL ALLIANCE,10864 TEXAS HEALTH TRAIL,FORT WORTH,TX,76244,TARRANT,6822122004,Acute Care Hospitals,Voluntary non-profit - Private,true,"10864 TEXAS HEALTH TRAIL
FORT WORTH, TX 76244
(32.930609, -97.311092)"
670087,BAYLOR SCOTT & WHITE EMERGENCY MEDICAL CENTER AT C,900 East Whitestone Blvd.,,,Cedar Par,TX,78613,WILLIAMSON,512-684-4911,Acute Care Hospitals,Proprietary,Yes,"(30.523350, -97.819611)",670087,BAYLOR SCOTT & WHITE EMERGENCY MEDICAL CENTER AT C,900 EAST WHITESTONE BLVD,CEDAR PARK,TX,78613,WILLIAMSON,5126844911,Acute Care Hospitals,Proprietary,true,"900 EAST WHITESTONE BLVD
CEDAR PARK, TX 78613
(30.52395, -97.82018)"
670088,SCOTT & WHITE HOSPITAL- COLLEGE STATION,700 Scott & White Drive,,,College Station,TX,77845,BRAZOS,979-691-3701,Acute Care Hospitals,Voluntary non-profit - Private,Yes,"(30.583035, -96.279422)",670088,SCOTT & WHITE HOSPITAL- COLLEGE STATION,700 SCOTT & WHITE DRIVE,COLLEGE STATION,TX,77845,BRAZOS,9796913701,Acute Care Hospitals,Voluntary non-profit - Private,true,"700 SCOTT &amp; WHITE DRIVE
COLLEGE STATION, TX 77845
"
670089,NIX COMMUNITY GENERAL HOSPITAL,230 West Miller Street,,,Dilley,TX,78017,FRIO,210-271-2190,Acute Care Hospitals,Voluntary non-profit - Private,Yes,"(28.671602, -99.175065)",670089,NIX COMMUNITY GENERAL HOSPITAL,230 WEST MILLER STREET,DILLEY,TX,78017,FRIO,2102712190,Acute Care Hospitals,Voluntary non-profit - Private,true,"230 WEST MILLER STREET
DILLEY, TX 78017
(28.669867, -99.172453)"
670090,CRESCENT MEDICAL CENTER LANCASTER,2600 West Pleasant Run Road,,,Lancaster,TX,75146,DALLAS,972-230-8888,Acute Care Hospitals,Proprietary,Yes,"(32.603031, -96.812489)",670090,CRESCENT MEDICAL CENTER LANCASTER,2600 WEST PLEASANT RUN ROAD,LANCASTER,TX,75146,DALLAS,9722308888,Acute Care Hospitals,Proprietary,true,"2600 WEST PLEASANT RUN ROAD
LANCASTER, TX 75146
(32.604128, -96.814483)"
,,,,,,,,,,,,,,451308,YOAKUM COUNTY HOSPITAL,412 MUSTANG AVENUE,DENVER CITY,TX,79323,YOAKUM,8065922121,Critical Access Hospitals,Government - Local,true,"412 MUSTANG AVENUE
DENVER CITY, TX 79323
(32.968561, -102.836388)"
,,,,,,,,,,,,,,451315,NORTH RUNNELS HOSPITAL,7821 EAST HIGHWAY 153,WINTERS,TX,79567,RUNNELS,3257544553,Critical Access Hospitals,Government - Hospital District or Authority,true,"7821 EAST HIGHWAY 153
WINTERS, TX 79567
"
,,,,,,,,,,,,,,451333,MARTIN COUNTY HOSPITAL DISTRICT,600 E INTERSTATE 20     PO BOX 640,STANTON,TX,79782,MARTIN,4327563345,Critical Access Hospitals,Government - Hospital District or Authority,true,"600 E INTERSTATE 20 PO BOX 640
STANTON, TX 79782
"
,,,,,,,,,,,,,,451334,PARKVIEW HOSPITAL,901 S. SWEETWATER,WHEELER,TX,79096,WHEELER,8068265581,Critical Access Hospitals,Government - Hospital District or Authority,true,"901 S. SWEETWATER
WHEELER, TX 79096
(35.439722, -100.270812)"
,,,,,,,,,,,,,,451353,CRANE COUNTY HOSPITAL DISTRICT,1310 S ALFORD ST,CRANE,TX,79731,CRANE,4325583555,Critical Access Hospitals,Government - Hospital District or Authority,true,"1310 S ALFORD ST
CRANE, TX 79731
(31.390567, -102.349373)"
,,,,,,,,,,,,,,451366,COCHRAN MEMORIAL HOSPITAL,205 E GRANT STREET,MORTON,TX,79346,COCHRAN,8062665565,Critical Access Hospitals,Government - Hospital District or Authority,true,"205 E GRANT STREET
MORTON, TX 79346
(33.719294, -102.758075)"
,,,,,,,,,,,,,,451372,MULESHOE AREA MEDICAL CENTER,708 S 1ST ST,MULESHOE,TX,79347,BAILEY,8062724524,Critical Access Hospitals,Government - Hospital District or Authority,true,"708 S 1ST ST
MULESHOE, TX 79347
(34.221162, -102.728344)"
,,,,,,,,,,,,,,451373,WARD MEMORIAL HOSPITAL,406 SOUTH GARY ST,MONAHANS,TX,79756,WARD,4329432511,Critical Access Hospitals,Government - Local,true,"406 SOUTH GARY ST
MONAHANS, TX 79756
(31.593969, -102.884585)"
,,,,,,,,,,,,,,451374,BAYLOR SCOTT & WHITE MEDICAL CENTER -TAYLOR,305 MALLARD,TAYLOR,TX,76574,WILLIAMSON,5123527611,Critical Access Hospitals,Voluntary non-profit - Private,true,"305 MALLARD
TAYLOR, TX 76574
(30.592025, -97.415012)"
,,,,,,,,,,,,,,670021,INNOVA HOSPITAL SAN ANTONIO,4243 SOUTHCROSS BLVD,SAN ANTONIO,TX,78222,BEXAR,2103687487,Acute Care Hospitals,Proprietary,true,"4243 SOUTHCROSS BLVD
SAN ANTONIO, TX 78222
(29.374943, -98.411352)"
,,,,,,,,,,,,,,670092,WALNUT HILL MEDICAL CENTER,7502 GREENVILLE AVENUE,DALLAS,TX,75231,DALLAS,9728636000,Acute Care Hospitals,Proprietary,true,"7502 GREENVILLE AVENUE
DALLAS, TX 75231
(32.883788, -96.758945)"
,,,,,,,,,,,,,,670093,"ASPIRE BEHAVIORAL HEALTH OF CONROE, LLC","2006 SOUTH LOOP 336 WEST, SUITE 500",CONROE,TX,77304,MONTGOMERY,9366473500,Acute Care Hospitals,Physician,false,"2006 SOUTH LOOP 336 WEST, SUITE 500
CONROE, TX 77304
"
,,,,,,,,,,,,,,670094,LITTLE RIVER HEALTHCARE CAMERON HOSPITAL,806 N CROCKETT AVE,CAMERON,TX,76520,MILAM,2546050025,Acute Care Hospitals,Proprietary,true,"806 N CROCKETT AVE
CAMERON, TX 76520
(30.856802, -96.976839)"
,,,,,,,,,,,,,,670095,EMERUS COMMUNITY HOSPITAL,"24429 TOMBALL PARKWAY, SUITE 100",TOMBALL,TX,77375,HARRIS,2815160911,Acute Care Hospitals,Proprietary,true,"24429 TOMBALL PARKWAY, SUITE 100
TOMBALL, TX 77375
(30.037379, -95.605451)"
,,,,,,,,,,,,,,670096,"BAY AREA REGIONAL MEDICAL CENTER, LLC",200 BLOSSOM STREET,WEBSTER,TX,77598,HARRIS,2815257000,Acute Care Hospitals,Proprietary,true,"200 BLOSSOM STREET
WEBSTER, TX 77598
(29.544291, -95.125078)"
,,,,,,,,,,,,,,670097,BAYLOR EMERGENCY MEDICAL CENTER,1975 ALPHA STE 100,ROCKWALL,TX,75087,ROCKWALL,2142946200,Acute Care Hospitals,Proprietary,true,"1975 ALPHA STE 100
ROCKWALL, TX 75087
(32.914368, -96.445142)"
,,,,,,,,,,,,,,670098,RESOLUTE HEALTH HOSPITAL,"555 CREEKSIDE XING,",NEW BRAUNFELS,TX,78130,COMAL,4698396778,Acute Care Hospitals,Proprietary,true,"555 CREEKSIDE XING,
NEW BRAUNFELS, TX 78130
(29.719394, -98.071408)"
