Provider ID,Hospital Name,Address,City,State,ZIP Code,County Name,Phone Number,Hospital Type,Hospital Ownership,Emergency Services,Location
450002,PROVIDENCE MEMORIAL HOSPITAL,2001 N OREGON ST,EL PASO,TX,79902,EL PASO,9155776011,Acute Care Hospitals,Proprietary,true,"2001 N OREGON ST
EL PASO, TX 79902
(31.771813, -106.499907)"
450005,MEMORIAL HERMANN BAPTIST ORANGE HOSPITAL,608 STRICKLAND DRIVE,ORANGE,TX,77630,ORANGE,4098839361,Acute Care Hospitals,Voluntary non-profit - Other,true,"608 STRICKLAND DRIVE
ORANGE, TX 77630
(30.100458, -93.768661)"
450007,PETERSON REGIONAL MEDICAL CENTER,551 HILL COUNTRY DRIVE,KERRVILLE,TX,78028,KERR,8308964200,Acute Care Hospitals,Voluntary non-profit - Private,true,"551 HILL COUNTRY DRIVE
KERRVILLE, TX 78028
(30.044733, -99.151596)"
450010,UNITED REGIONAL HEALTH CARE SYSTEM,1600 11TH STREET,WICHITA FALLS,TX,76301,WICHITA,9407643055,Acute Care Hospitals,Voluntary non-profit - Private,true,"1600 11TH STREET
WICHITA FALLS, TX 76301
(33.902109, -98.501852)"
450011,ST JOSEPH REGIONAL HEALTH CENTER,2801 FRANCISCAN DR,BRYAN,TX,77802,BRAZOS,9797763912,Acute Care Hospitals,Voluntary non-profit - Private,true,"2801 FRANCISCAN DR
BRYAN, TX 77802
(30.655598, -96.346767)"
450015,PARKLAND HEALTH AND HOSPITAL SYSTEM,5201 HARRY HINES BLVD,DALLAS,TX,75235,DALLAS,2145908000,Acute Care Hospitals,Government - Hospital District or Authority,true,"5201 HARRY HINES BLVD
DALLAS, TX 75235
(32.812034, -96.837709)"
450018,UNIVERSITY OF TEXAS MEDICAL BRANCH,301 UNIVERSITY BOULEVARD,GALVESTON,TX,77555,GALVESTON,4097721011,Acute Care Hospitals,Government - State,true,"301 UNIVERSITY BOULEVARD
GALVESTON, TX 77555
(29.31122, -94.774556)"
450021,BAYLOR UNIVERSITY MEDICAL CENTER,3500 GASTON AVE,DALLAS,TX,75246,DALLAS,2148200111,Acute Care Hospitals,Voluntary non-profit - Church,true,"3500 GASTON AVE
DALLAS, TX 75246
(32.790685, -96.780663)"
450023,CITIZENS MEDICAL CENTER,2701 HOSPITAL DRIVE,VICTORIA,TX,77901,VICTORIA,3615725113,Acute Care Hospitals,Voluntary non-profit - Other,true,"2701 HOSPITAL DRIVE
VICTORIA, TX 77901
(28.812866, -96.976723)"
450024,UNIVERSITY MEDICAL CENTER OF EL PASO,4815 ALAMEDA AVE,EL PASO,TX,79905,EL PASO,9155217602,Acute Care Hospitals,Government - Hospital District or Authority,true,"4815 ALAMEDA AVE
EL PASO, TX 79905
(31.770742, -106.434452)"
450028,"VHS BROWNSVILLE HOSPITAL COMPANY, LLC",1040 W JEFFERSON ST,BROWNSVILLE,TX,78520,CAMERON,9565441400,Acute Care Hospitals,Proprietary,true,"1040 W JEFFERSON ST
BROWNSVILLE, TX 78520
(25.916569, -97.510566)"
450029,LAREDO MEDICAL CENTER,1700 EAST SAUNDERS,LAREDO,TX,78044,WEBB,9567965000,Acute Care Hospitals,Voluntary non-profit - Church,true,"1700 EAST SAUNDERS
LAREDO, TX 78044
(27.530589, -99.479142)"
450032,GOOD SHEPHERD MEDICAL CENTER MARSHALL,811 S WASHINGTON,MARSHALL,TX,75670,HARRISON,9039276712,Acute Care Hospitals,Voluntary non-profit - Private,true,"811 S WASHINGTON
MARSHALL, TX 75670
(32.536651, -94.367868)"
450033,VHS HARLINGEN HOSPITAL COMPANY LLC,2101 PEASE ST,HARLINGEN,TX,78550,CAMERON,9563891100,Acute Care Hospitals,Proprietary,true,"2101 PEASE ST
HARLINGEN, TX 78550
(26.173893, -97.671081)"
450034,CHRISTUS HOSPITAL,2830 CALDER AVENUE,BEAUMONT,TX,77702,JEFFERSON,4098927171,Acute Care Hospitals,Voluntary non-profit - Church,true,"2830 CALDER AVENUE
BEAUMONT, TX 77702
(30.085592, -94.131263)"
450035,ST JOSEPH MEDICAL CENTER,1401 ST. JOSEPH PARKWAY,HOUSTON,TX,77002,HARRIS,7137571000,Acute Care Hospitals,Physician,true,"1401 ST. JOSEPH PARKWAY
HOUSTON, TX 77002
(29.747785, -95.366182)"
450037,GOOD SHEPHERD MEDICAL CENTER,700 EAST MARSHALL AVENUE,LONGVIEW,TX,75601,GREGG,9033152000,Acute Care Hospitals,Voluntary non-profit - Private,true,"700 EAST MARSHALL AVENUE
LONGVIEW, TX 75601
(32.501448, -94.731471)"
450039,JPS HEALTH NETWORK,1500 S MAIN ST,FORT WORTH,TX,76104,TARRANT,8179213431,Acute Care Hospitals,Government - Hospital District or Authority,true,"1500 S MAIN ST
FORT WORTH, TX 76104
(32.726764, -97.326407)"
450040,COVENANT MEDICAL CENTER,3615 19TH STREET,LUBBOCK,TX,79410,LUBBOCK,8067256000,Acute Care Hospitals,Voluntary non-profit - Church,true,"3615 19TH STREET
LUBBOCK, TX 79410
(33.577867, -101.892357)"
450042,PROVIDENCE HEALTH CENTER,6901 MEDICAL PARKWAY,WACO,TX,76712,MCLENNAN,2547514000,Acute Care Hospitals,Government - Hospital District or Authority,true,"6901 MEDICAL PARKWAY
WACO, TX 76712
(31.514649, -97.197926)"
450044,UT SOUTHWESTERN UNIVERSITY HOSPITAL ST PAUL,6201 HARRY HINES BLVD,DALLAS,TX,75390,DALLAS,2146335555,Acute Care Hospitals,Government - State,true,"6201 HARRY HINES BLVD
DALLAS, TX 75390
"
450046,CHRISTUS SPOHN HOSPITAL CORPUS CHRISTI,600 ELIZABETH STREET,CORPUS CHRISTI,TX,78404,NUECES,3619024103,Acute Care Hospitals,Voluntary non-profit - Private,true,"600 ELIZABETH STREET
CORPUS CHRISTI, TX 78404
(27.777489, -97.395121)"
450051,METHODIST DALLAS MEDICAL CENTER,1441 NORTH BECKLEY AVENUE,DALLAS,TX,75203,DALLAS,2149472879,Acute Care Hospitals,Voluntary non-profit - Other,true,"1441 NORTH BECKLEY AVENUE
DALLAS, TX 75203
(32.761639, -96.823006)"
450052,GOODALL WITCHER HOSPITAL,101 POSEY AVENUE,CLIFTON,TX,76634,BOSQUE,2546758322,Acute Care Hospitals,Government - Hospital District or Authority,true,"101 POSEY AVENUE
CLIFTON, TX 76634
"
450054,SCOTT & WHITE MEMORIAL HOSPITAL,2401 31ST ST,TEMPLE,TX,76508,BELL,2547242111,Acute Care Hospitals,Voluntary non-profit - Private,true,"2401 31ST ST
TEMPLE, TX 76508
(31.078693, -97.365938)"
450055,ROLLING PLAINS MEMORIAL HOSPITAL,200 E ARIZONA,SWEETWATER,TX,79556,NOLAN,3252351701,Acute Care Hospitals,Government - Hospital District or Authority,true,"200 E ARIZONA
SWEETWATER, TX 79556
(32.453882, -100.398314)"
450056,SETON MEDICAL CENTER AUSTIN,1201 W 38TH ST,AUSTIN,TX,78705,TRAVIS,5123241000,Acute Care Hospitals,Voluntary non-profit - Private,true,"1201 W 38TH ST
AUSTIN, TX 78705
(30.306075, -97.745038)"
450058,BAPTIST MEDICAL CENTER,111 DALLAS STREET,SAN ANTONIO,TX,78205,BEXAR,2102971020,Acute Care Hospitals,Proprietary,true,"111 DALLAS STREET
SAN ANTONIO, TX 78205
(29.433174, -98.492305)"
450064,TEXAS HEALTH ARLINGTON MEMORIAL HOSPITAL,800 W RANDOL MILL RD,ARLINGTON,TX,76012,TARRANT,8175486100,Acute Care Hospitals,Voluntary non-profit - Private,true,"800 W RANDOL MILL RD
ARLINGTON, TX 76012
(32.750113, -97.114916)"
450068,MEMORIAL HERMANN TEXAS MEDICAL CENTER,6411 FANNIN,HOUSTON,TX,77030,HARRIS,7137043700,Acute Care Hospitals,Voluntary non-profit - Private,true,"6411 FANNIN
HOUSTON, TX 77030
(29.713791, -95.397547)"
450072,BRAZOSPORT REGIONAL HEALTH SYSTEM,100 MEDICAL DRIVE,LAKE JACKSON,TX,77566,BRAZORIA,9792974411,Acute Care Hospitals,Voluntary non-profit - Private,true,"100 MEDICAL DRIVE
LAKE JACKSON, TX 77566
(29.031022, -95.451843)"
450073,COGDELL MEMORIAL HOSPITAL,1700 COGDELL BLVD,SNYDER,TX,79549,SCURRY,3255747437,Acute Care Hospitals,Government - Hospital District or Authority,true,"1700 COGDELL BLVD
SNYDER, TX 79549
(32.688484, -100.915039)"
450078,ANSON GENERAL HOSPITAL,101 AVENUE J,ANSON,TX,79501,JONES,3258233231,Acute Care Hospitals,Government - Local,true,"101 AVENUE J
ANSON, TX 79501
(32.767506, -99.895515)"
450079,BAYLOR MEDICAL CENTER AT IRVING,1901 N MACARTHUR BLVD,IRVING,TX,75061,DALLAS,9725798100,Acute Care Hospitals,Voluntary non-profit - Private,true,"1901 N MACARTHUR BLVD
IRVING, TX 75061
(32.834578, -96.959215)"
450080,TITUS REGIONAL MEDICAL CENTER,2001 N JEFFERSON,MOUNT PLEASANT,TX,75455,TITUS,9035776000,Acute Care Hospitals,Government - Hospital District or Authority,true,"2001 N JEFFERSON
MOUNT PLEASANT, TX 75455
(33.175273, -94.97043)"
450082,CHRISTUS SPOHN HOSPITAL BEEVILLE,1500 E HOUSTON HWY,BEEVILLE,TX,78102,BEE,3613542000,Acute Care Hospitals,Voluntary non-profit - Church,true,"1500 E HOUSTON HWY
BEEVILLE, TX 78102
(28.408247, -97.732159)"
450083,EAST TEXAS MEDICAL CENTER,1000 SOUTH BECKHAM STREET,TYLER,TX,75701,SMITH,9035970351,Acute Care Hospitals,Government - Local,true,"1000 SOUTH BECKHAM STREET
TYLER, TX 75701
(32.338102, -95.291862)"
450085,GRAHAM REGIONAL MEDICAL CENTER,1301 MONTGOMERY ROAD,GRAHAM,TX,76450,YOUNG,9405493400,Acute Care Hospitals,Government - Local,true,"1301 MONTGOMERY ROAD
GRAHAM, TX 76450
(33.089869, -98.584909)"
450087,NORTH HILLS HOSPITAL,4401 BOOTH CALLOWAY ROAD,NORTH RICHLAND HILLS,TX,76180,TARRANT,8172551000,Acute Care Hospitals,Proprietary,true,"4401 BOOTH CALLOWAY ROAD
NORTH RICHLAND HILLS, TX 76180
(32.829303, -97.212235)"
450090,NORTH TEXAS MEDICAL CENTER,1900 HOSPITAL BLVD,GAINESVILLE,TX,76240,COOKE,9406128600,Acute Care Hospitals,Government - Hospital District or Authority,true,"1900 HOSPITAL BLVD
GAINESVILLE, TX 76240
(33.645361, -97.162143)"
450092,FORT DUNCAN MEDICAL CENTER,3333 N FOSTER MALDONADO BLVD,EAGLE PASS,TX,78852,MAVERICK,8307735321,Acute Care Hospitals,Proprietary,true,"3333 N FOSTER MALDONADO BLVD
EAGLE PASS, TX 78852
(28.711418, -100.454105)"
450097,BAYSHORE MEDICAL CENTER,4000 SPENCER HWY,PASADENA,TX,77504,HARRIS,7133591000,Acute Care Hospitals,Proprietary,true,"4000 SPENCER HWY
PASADENA, TX 77504
(29.665195, -95.181617)"
450099,PAMPA REGIONAL MEDICAL CENTER,1 MEDICAL PLAZA,PAMPA,TX,79065,GRAY,8066653721,Acute Care Hospitals,Proprietary,true,"1 MEDICAL PLAZA
PAMPA, TX 79065
"
450101,HILLCREST BAPTIST MEDICAL CENTER,100 HILLCREST MEDICAL BLVD,WACO,TX,76712,MCLENNAN,2542022000,Acute Care Hospitals,Voluntary non-profit - Private,true,"100 HILLCREST MEDICAL BLVD
WACO, TX 76712
(31.489272, -97.156788)"
450102,MOTHER FRANCES HOSPITAL,800 EAST DAWSON,TYLER,TX,75701,SMITH,9035938441,Acute Care Hospitals,Voluntary non-profit - Church,true,"800 EAST DAWSON
TYLER, TX 75701
(32.342265, -95.292285)"
450104,GUADALUPE REGIONAL MEDICAL CENTER,1215 E COURT ST,SEGUIN,TX,78155,GUADALUPE,8303792411,Acute Care Hospitals,Government - Local,true,"1215 E COURT ST
SEGUIN, TX 78155
(29.569035, -97.948297)"
450107,LAS PALMAS MEDICAL CENTER,1801 NORTH OREGON STREET,EL PASO,TX,79902,EL PASO,9155211200,Acute Care Hospitals,Proprietary,true,"1801 NORTH OREGON STREET
EL PASO, TX 79902
(31.770257, -106.498544)"
450108,CONNALLY MEMORIAL MEDICAL CENTER,499 10TH STREET,FLORESVILLE,TX,78114,WILSON,8303931300,Acute Care Hospitals,Government - Hospital District or Authority,true,"499 10TH STREET
FLORESVILLE, TX 78114
(29.158608, -98.172361)"
450119,SOUTH TEXAS HEALTH SYSTEM,1102 W TRENTON ROAD,EDINBURG,TX,78539,HIDALGO,9566324000,Acute Care Hospitals,Proprietary,true,"1102 W TRENTON ROAD
EDINBURG, TX 78539
(26.262556, -98.177336)"
450124,UNIVERSITY MEDICAL CENTER AT BRACKENRIDGE,601 E 15TH STREET,AUSTIN,TX,78701,TRAVIS,5123247000,Acute Care Hospitals,Voluntary non-profit - Private,true,"601 E 15TH STREET
AUSTIN, TX 78701
(30.274993, -97.732749)"
450128,KNAPP MEDICAL CENTER,1401 EAST EIGHT STREET,WESLACO,TX,78596,HIDALGO,9569688567,Acute Care Hospitals,Voluntary non-profit - Private,true,"1401 EAST EIGHT STREET
WESLACO, TX 78596
"
450130,NIX HEALTH CARE SYSTEM,"414 NAVARRO, SUITE 600",SAN ANTONIO,TX,78205,BEXAR,2102712188,Acute Care Hospitals,Proprietary,true,"414 NAVARRO, SUITE 600
SAN ANTONIO, TX 78205
(29.425383, -98.489706)"
450132,MEDICAL CENTER HOSPITAL,500 W 4TH STREET,ODESSA,TX,79761,ECTOR,4326404000,Acute Care Hospitals,Government - Hospital District or Authority,true,"500 W 4TH STREET
ODESSA, TX 79761
(31.844698, -102.374336)"
450133,MIDLAND MEMORIAL HOSPITAL,400 ROSALIND REDFERN GROVER PARKWAY,MIDLAND,TX,79701,MIDLAND,4326851111,Acute Care Hospitals,Government - Hospital District or Authority,true,"400 ROSALIND REDFERN GROVER PARKWAY
MIDLAND, TX 79701
(31.997585, -102.100006)"
450135,TEXAS HEALTH HARRIS METHODIST FORT WORTH,1301 PENNSYLVANIA AVENUE,FORT WORTH,TX,76104,TARRANT,8172502100,Acute Care Hospitals,Voluntary non-profit - Church,true,"1301 PENNSYLVANIA AVENUE
FORT WORTH, TX 76104
(32.73848, -97.339313)"
450137,BAYLOR SCOTT AND WHITE ALL SAINTS MEDICAL CENTER,1400 EIGHTH AVE,FORT WORTH,TX,76104,TARRANT,8179262544,Acute Care Hospitals,Voluntary non-profit - Private,true,"1400 EIGHTH AVE
FORT WORTH, TX 76104
(32.730288, -97.34373)"
450143,SETON SMITHVILLE REGIONAL HOSPITAL,800 EAST HIGHWAY 71,SMITHVILLE,TX,78957,BASTROP,5122373214,Acute Care Hospitals,Voluntary non-profit - Private,true,"800 EAST HIGHWAY 71
SMITHVILLE, TX 78957
(29.974448, -97.105872)"
450144,PERMIAN REGIONAL MEDICAL CENTER ANDREWS COUNTY HO,720 HOSPITAL DRIVE,ANDREWS,TX,79714,ANDREWS,4325232200,Acute Care Hospitals,Government - Hospital District or Authority,true,"720 HOSPITAL DRIVE
ANDREWS, TX 79714
(32.337144, -102.546362)"
450147,DETAR HOSPITAL NAVARRO,506 E SAN ANTONIO ST,VICTORIA,TX,77902,VICTORIA,3615757441,Acute Care Hospitals,Proprietary,true,"506 E SAN ANTONIO ST
VICTORIA, TX 77902
(28.807595, -96.99946)"
450148,TEXAS HEALTH HARRIS METHODIST HOSPITAL CLEBURNE,201 WALLS DRIVE,CLEBURNE,TX,76033,JOHNSON,8176412551,Acute Care Hospitals,Voluntary non-profit - Church,true,"201 WALLS DRIVE
CLEBURNE, TX 76033
(32.332874, -97.438798)"
450152,METROPLEX HOSPITAL,2201 S CLEAR CREEK ROAD,KILLEEN,TX,76542,BELL,2545267523,Acute Care Hospitals,Voluntary non-profit - Private,true,"2201 S CLEAR CREEK ROAD
KILLEEN, TX 76542
(31.112873, -97.799705)"
450154,VAL VERDE REGIONAL MEDICAL CENTER,801 BEDELL AVE,DEL RIO,TX,78840,VAL VERDE,8307758566,Acute Care Hospitals,Government - Hospital District or Authority,true,"801 BEDELL AVE
DEL RIO, TX 78840
(29.374519, -100.89314)"
450155,HEREFORD REGIONAL MEDICAL CENTER,801 EAST THIRD,HEREFORD,TX,79045,DEAF SMITH,8063642141,Acute Care Hospitals,Government - Hospital District or Authority,true,"801 EAST THIRD
HEREFORD, TX 79045
(34.820348, -102.391915)"
450162,GRACE MEDICAL CENTER,2412 50TH ST,LUBBOCK,TX,79412,LUBBOCK,8067884100,Acute Care Hospitals,Proprietary,true,"2412 50TH ST
LUBBOCK, TX 79412
(33.548786, -101.869732)"
450163,CHRISTUS SPOHN HOSPITAL KLEBERG,1311 EAST GENERAL CAVAZOS BLVD,KINGSVILLE,TX,78363,KLEBERG,3615951661,Acute Care Hospitals,Voluntary non-profit - Private,true,"1311 EAST GENERAL CAVAZOS BLVD
KINGSVILLE, TX 78363
(27.491403, -97.850797)"
450165,SOUTH TEXAS REGIONAL MEDICAL CENTER,1905 HWY 97 EAST,JOURDANTON,TX,78026,ATASCOSA,8307693515,Acute Care Hospitals,Proprietary,true,"1905 HWY 97 EAST
JOURDANTON, TX 78026
"
450176,MISSION REGIONAL MEDICAL CENTER,900 SOUTH BRYAN ROAD,MISSION,TX,78572,HIDALGO,9563239000,Acute Care Hospitals,Voluntary non-profit - Private,true,"900 SOUTH BRYAN ROAD
MISSION, TX 78572
(26.19658, -98.312673)"
450177,UVALDE MEMORIAL HOSPITAL,1025 GARNER FIELD ROAD,UVALDE,TX,78801,UVALDE,8302786251,Acute Care Hospitals,Government - Hospital District or Authority,true,"1025 GARNER FIELD ROAD
UVALDE, TX 78801
(29.215109, -99.768688)"
450178,PECOS COUNTY MEMORIAL HOSPITAL,387 WEST I 10,FORT STOCKTON,TX,79735,PECOS,4323364201,Acute Care Hospitals,Government - Local,true,"387 WEST I 10
FORT STOCKTON, TX 79735
(30.904962, -102.875306)"
450184,MEMORIAL HERMANN HOSPITAL SYSTEM,1635  NORTH LOOP WEST,HOUSTON,TX,77008,HARRIS,7134486796,Acute Care Hospitals,Voluntary non-profit - Private,true,"1635 NORTH LOOP WEST
HOUSTON, TX 77008
(29.812283, -95.430685)"
450187,SCOTT & WHITE HOSPITAL BRENHAM,700 MEDICAL PARKWAY,BRENHAM,TX,77833,WASHINGTON,9798366173,Acute Care Hospitals,Voluntary non-profit - Private,true,"700 MEDICAL PARKWAY
BRENHAM, TX 77833
(30.145217, -96.398828)"
450192,HILL REGIONAL HOSPITAL,101 CIRCLE DRIVE,HILLSBORO,TX,76645,HILL,2545808500,Acute Care Hospitals,Voluntary non-profit - Private,true,"101 CIRCLE DRIVE
HILLSBORO, TX 76645
(32.011484, -97.099044)"
450193,CHI ST LUKE'S HEALTH BAYLOR COLLEGE OF MEDICINE ME,6720 BERTNER,HOUSTON,TX,77030,HARRIS,8323551000,Acute Care Hospitals,Voluntary non-profit - Church,true,"6720 BERTNER
HOUSTON, TX 77030
(29.708468, -95.399166)"
450194,EAST TEXAS MEDICAL CENTER JACKSONVILLE,501 S RAGSDALE,JACKSONVILLE,TX,75766,CHEROKEE,9035415000,Acute Care Hospitals,Voluntary non-profit - Private,true,"501 S RAGSDALE
JACKSONVILLE, TX 75766
(31.961418, -95.270547)"
450196,PARIS REGIONAL MEDICAL CENTER,820 CLARKSVILLE ST,PARIS,TX,75460,LAMAR,9037854521,Acute Care Hospitals,Proprietary,true,"820 CLARKSVILLE ST
PARIS, TX 75460
(33.660277, -95.546783)"
450200,WADLEY REGIONAL MEDICAL CENTER,1000 PINE STREET,TEXARKANA,TX,75501,BOWIE,9037988000,Acute Care Hospitals,Proprietary,true,"1000 PINE STREET
TEXARKANA, TX 75501
(33.428603, -94.047255)"
450203,WEATHERFORD REGIONAL MEDICAL CENTER,713 E ANDERSON ST,WEATHERFORD,TX,76086,PARKER,8175991190,Acute Care Hospitals,Proprietary,true,"713 E ANDERSON ST
WEATHERFORD, TX 76086
(32.747472, -97.785759)"
450209,NORTHWEST TEXAS HOSPITAL,1501 COULTER ROAD,AMARILLO,TX,79106,POTTER,8063541110,Acute Care Hospitals,Proprietary,true,"1501 COULTER ROAD
AMARILLO, TX 79106
(35.198606, -101.921855)"
450210,ETMC CARTHAGE,409 WEST COTTAGE,CARTHAGE,TX,75633,PANOLA,0936933841,Acute Care Hospitals,Voluntary non-profit - Private,true,"409 WEST COTTAGE
CARTHAGE, TX 75633
"
450211,MEMORIAL MEDICAL CENTER OF EAST TEXAS,1201 WEST FRANK STREET,LUFKIN,TX,75901,ANGELINA,9366348111,Acute Care Hospitals,Voluntary non-profit - Private,true,"1201 WEST FRANK STREET
LUFKIN, TX 75901
"
450213,UNIVERSITY HEALTH SYSTEM,4502 MEDICAL DR,SAN ANTONIO,TX,78229,BEXAR,2103584000,Acute Care Hospitals,Government - Hospital District or Authority,true,"4502 MEDICAL DR
SAN ANTONIO, TX 78229
(29.509532, -98.577242)"
450214,GULF COAST MEDICAL CENTER,10141 US 59 NORTH,WHARTON,TX,77488,WHARTON,9795322500,Acute Care Hospitals,Proprietary,true,"10141 US 59 NORTH
WHARTON, TX 77488
(29.328013, -96.120493)"
450219,BAYLOR SCOTT & WHITE MEDICAL CENTER - LLANO,200 W OLLIE,LLANO,TX,78643,LLANO,3252475040,Acute Care Hospitals,Voluntary non-profit - Private,true,"200 W OLLIE
LLANO, TX 78643
(30.743343, -98.677078)"
450221,MOORE COUNTY HOSPITAL DISTRICT,224 E SECOND STREET,DUMAS,TX,79029,MOORE,8069357171,Acute Care Hospitals,Government - Hospital District or Authority,true,"224 E SECOND STREET
DUMAS, TX 79029
(35.864265, -101.971058)"
450222,CONROE REGIONAL MEDICAL CENTER,504 MEDICAL CENTER BLVD,CONROE,TX,77304,MONTGOMERY,9365391111,Acute Care Hospitals,Proprietary,true,"504 MEDICAL CENTER BLVD
CONROE, TX 77304
(30.283054, -95.46936)"
450229,HENDRICK MEDICAL CENTER,1900 PINE,ABILENE,TX,79601,TAYLOR,3256702000,Acute Care Hospitals,Voluntary non-profit - Private,true,"1900 PINE
ABILENE, TX 79601
(32.471542, -99.73115)"
450231,BAPTIST ST ANTHONY'S HOSPITAL,1600 WALLACE BLVD,AMARILLO,TX,79106,POTTER,8062122000,Acute Care Hospitals,Proprietary,true,"1600 WALLACE BLVD
AMARILLO, TX 79106
(35.196243, -101.917897)"
450235,MEMORIAL HOSPITAL,1110 NORTH SARAH DEWITT DRIVE,GONZALES,TX,78629,GONZALES,8306727581,Acute Care Hospitals,Government - Hospital District or Authority,true,"1110 NORTH SARAH DEWITT DRIVE
GONZALES, TX 78629
(29.519215, -97.450983)"
450236,HOPKINS COUNTY MEMORIAL HOSPITAL,115 AIRPORT RD,SULPHUR SPRINGS,TX,75482,HOPKINS,9038857671,Acute Care Hospitals,Government - Hospital District or Authority,true,"115 AIRPORT RD
SULPHUR SPRINGS, TX 75482
(33.156216, -95.599632)"
450237,CHRISTUS SANTA ROSA HOSPITAL,333 NORTH SANTA ROSA STEET,SAN ANTONIO,TX,78207,BEXAR,2107043342,Acute Care Hospitals,Voluntary non-profit - Church,true,"333 NORTH SANTA ROSA STEET
SAN ANTONIO, TX 78207
"
450241,FAITH COMMUNITY HOSPITAL,717 MAGNOLIA ST,JACKSBORO,TX,76458,JACK,9405676633,Acute Care Hospitals,Government - Hospital District or Authority,true,"717 MAGNOLIA ST
JACKSBORO, TX 76458
(33.226023, -98.169179)"
450243,HAMLIN MEMORIAL HOSPITAL,632 N W SECOND STREET,HAMLIN,TX,79520,JONES,3255763646,Acute Care Hospitals,Government - Hospital District or Authority,true,"632 N W SECOND STREET
HAMLIN, TX 79520
(32.885162, -100.13466)"
450253,BELLVILLE GENERAL HOSPITAL,44 N CUMMINGS,BELLVILLE,TX,77418,AUSTIN,9798653141,Acute Care Hospitals,Voluntary non-profit - Private,true,"44 N CUMMINGS
BELLVILLE, TX 77418
(29.952858, -96.260414)"
450271,WISE REGIONAL HEALTH SYSTEM,609 MEDICAL CENTER DRIVE,DECATUR,TX,76234,WISE,9406275921,Acute Care Hospitals,Government - Hospital District or Authority,true,"609 MEDICAL CENTER DRIVE
DECATUR, TX 76234
(33.219793, -97.593883)"
450272,CENTRAL TEXAS MEDICAL CENTER,1301 WONDER WORLD DRIVE,SAN MARCOS,TX,78666,HAYS,5127533690,Acute Care Hospitals,Voluntary non-profit - Private,true,"1301 WONDER WORLD DRIVE
SAN MARCOS, TX 78666
(29.85143, -97.94664)"
450280,BAYLOR SCOTT & WHITE MEDICAL CENTER GARLAND,2300 MARIE CURIE DRIVE,GARLAND,TX,75042,DALLAS,9724875000,Acute Care Hospitals,Government - Federal,true,"2300 MARIE CURIE DRIVE
GARLAND, TX 75042
(32.918601, -96.661092)"
450289,HARRIS HEALTH SYSTEM,2525 HOLLY HALL,HOUSTON,TX,77054,HARRIS,7135666417,Acute Care Hospitals,Government - Local,true,"2525 HOLLY HALL
HOUSTON, TX 77054
(29.685371, -95.390939)"
450292,TEXAS HEALTH PRESBYTERIAN HOSPITAL KAUFMAN,850 ED HALL,KAUFMAN,TX,75142,KAUFMAN,9729327200,Acute Care Hospitals,Voluntary non-profit - Private,true,"850 ED HALL
KAUFMAN, TX 75142
(32.591119, -96.315984)"
450293,FRIO REGIONAL HOSPITAL,200 S IH 35,PEARSALL,TX,78061,FRIO,8303343617,Acute Care Hospitals,Government - Hospital District or Authority,true,"200 S IH 35
PEARSALL, TX 78061
(28.896252, -99.116212)"
450299,COLLEGE STATION MEDICAL CENTER,1604 ROCK PRAIRIE ROAD,COLLEGE STATION,TX,77842,BRAZOS,9797645151,Acute Care Hospitals,Proprietary,true,"1604 ROCK PRAIRIE ROAD
COLLEGE STATION, TX 77842
(30.582626, -96.291014)"
450306,STAMFORD MEMORIAL HOSPITAL,1601 COLUMBIA STREET,STAMFORD,TX,79553,JONES,3257732725,Acute Care Hospitals,Government - Hospital District or Authority,true,"1601 COLUMBIA STREET
STAMFORD, TX 79553
(32.92799, -99.78501)"
450324,TEXOMA MEDICAL CENTER,5016 S US HIGHWAY 75,DENISON,TX,75020,GRAYSON,9034164000,Acute Care Hospitals,Proprietary,true,"5016 S US HIGHWAY 75
DENISON, TX 75020
(33.568811, -96.603059)"
450330,OAKBEND MEDICAL CENTER,1705 JACKSON ST,RICHMOND,TX,77469,FORT BEND,2813413000,Acute Care Hospitals,Government - Hospital District or Authority,true,"1705 JACKSON ST
RICHMOND, TX 77469
(29.5778, -95.771213)"
450340,SAN ANGELO COMMUNITY MEDICAL CENTER,3501 KNICKERBOCKER ROAD,SAN ANGELO,TX,76904,TOM GREEN,3259499511,Acute Care Hospitals,Proprietary,true,"3501 KNICKERBOCKER ROAD
SAN ANGELO, TX 76904
(31.422315, -100.467158)"
450346,BAPTIST BEAUMONT HOSPITAL,3080 COLLEGE STREET,BEAUMONT,TX,77701,JEFFERSON,4092125012,Acute Care Hospitals,Voluntary non-profit - Private,true,"3080 COLLEGE STREET
BEAUMONT, TX 77701
(30.068484, -94.119621)"
450347,HUNTSVILLE MEMORIAL HOSPITAL,110 MEMORIAL HOSPITAL DRIVE,HUNTSVILLE,TX,77340,WALKER,9362913411,Acute Care Hospitals,Voluntary non-profit - Private,true,"110 MEMORIAL HOSPITAL DRIVE
HUNTSVILLE, TX 77340
(30.69849, -95.55799)"
450348,FALLS COMMUNITY HOSPITAL AND CLINIC,322 COLEMAN STREET,MARLIN,TX,76661,FALLS,2548033561,Acute Care Hospitals,Voluntary non-profit - Private,true,"322 COLEMAN STREET
MARLIN, TX 76661
(31.307469, -96.894747)"
450351,TEXAS HEALTH HARRIS METHODIST HOSPITAL STEPHENVILL,411 N BELKNAP ST,STEPHENVILLE,TX,76401,ERATH,2549651500,Acute Care Hospitals,Voluntary non-profit - Private,true,"411 N BELKNAP ST
STEPHENVILLE, TX 76401
(32.222235, -98.204224)"
450352,HUNT REGIONAL MEDICAL CENTER,4215 JOE RAMSEY BLVD,GREENVILLE,TX,75401,HUNT,9034085000,Acute Care Hospitals,Government - Hospital District or Authority,true,"4215 JOE RAMSEY BLVD
GREENVILLE, TX 75401
(33.123657, -96.123204)"
450358,"METHODIST HOSPITAL,THE",6565 FANNIN,HOUSTON,TX,77030,HARRIS,7137902221,Acute Care Hospitals,Voluntary non-profit - Private,true,"6565 FANNIN
HOUSTON, TX 77030
(29.710842, -95.399887)"
450369,CHILDRESS REGIONAL MEDICAL CENTER,HWY 83 NORTH,CHILDRESS,TX,79201,CHILDRESS,9409376371,Acute Care Hospitals,Government - Hospital District or Authority,true,"HWY 83 NORTH
CHILDRESS, TX 79201
"
450370,COLUMBUS COMMUNITY HOSPITAL,110 SHULT DR,COLUMBUS,TX,78934,COLORADO,9797322371,Acute Care Hospitals,Voluntary non-profit - Private,true,"110 SHULT DR
COLUMBUS, TX 78934
(29.694203, -96.54294)"
450372,BAYLOR SCOTT & WHITE MEDICAL CENTER- WAXAHACHIE,2400 N INTERSTATE HIGHWAY 35E,WAXAHACHIE,TX,75165,ELLIS,9729237000,Acute Care Hospitals,Voluntary non-profit - Private,true,"2400 N INTERSTATE HIGHWAY 35E
WAXAHACHIE, TX 75165
"
450379,DALLAS MEDICAL CENTER,7 MEDICAL PARKWAY,DALLAS,TX,75234,DALLAS,9722471000,Acute Care Hospitals,Proprietary,true,"7 MEDICAL PARKWAY
DALLAS, TX 75234
(32.915645, -96.871433)"
450388,METHODIST HOSPITAL,7700 FLOYD CURL DR,SAN ANTONIO,TX,78229,BEXAR,2105754000,Acute Care Hospitals,Proprietary,true,"7700 FLOYD CURL DR
SAN ANTONIO, TX 78229
(29.507399, -98.573474)"
450389,EAST TEXAS MEDICAL CENTER ATHENS,2000 SOUTH PALESTINE,ATHENS,TX,75751,HENDERSON,9036761000,Acute Care Hospitals,Voluntary non-profit - Private,true,"2000 SOUTH PALESTINE
ATHENS, TX 75751
(32.167003, -95.841391)"
450395,MEMORIAL MEDICAL CENTER LIVINGSTON,1717 HWY 59 BYPASS,LIVINGSTON,TX,77351,POLK,9363274381,Acute Care Hospitals,Voluntary non-profit - Private,true,"1717 HWY 59 BYPASS
LIVINGSTON, TX 77351
"
450399,BROWNFIELD REGIONAL MEDICAL CENTER,705 EAST FELT STREET,BROWNFIELD,TX,79316,TERRY,8066373551,Acute Care Hospitals,Government - Hospital District or Authority,true,"705 EAST FELT STREET
BROWNFIELD, TX 79316
(33.187101, -102.267668)"
450400,PARKVIEW REGIONAL HOSPITAL,600 SOUTH BONHAM STREET,MEXIA,TX,76667,LIMESTONE,2545625332,Acute Care Hospitals,Proprietary,true,"600 SOUTH BONHAM STREET
MEXIA, TX 76667
(31.675937, -96.4801)"
450403,MEDICAL CENTER OF MCKINNEY,4500 MEDICAL CENTER DRIVE,MCKINNEY,TX,75069,COLLIN,9725478000,Acute Care Hospitals,Proprietary,true,"4500 MEDICAL CENTER DRIVE
MCKINNEY, TX 75069
(33.159033, -96.635558)"
450411,EASTLAND MEMORIAL HOSPITAL,304 S DAUGHERTY,EASTLAND,TX,76448,EASTLAND,2546292601,Acute Care Hospitals,Government - Hospital District or Authority,true,"304 S DAUGHERTY
EASTLAND, TX 76448
(32.399631, -98.821638)"
450419,TEXAS HEALTH HARRIS METHODIST HOSPITAL AZLE,108 DENVER TRAIL,AZLE,TX,76020,TARRANT,8174448700,Acute Care Hospitals,Voluntary non-profit - Church,true,"108 DENVER TRAIL
AZLE, TX 76020
(32.88129, -97.533632)"
450422,BAYLOR MEDICAL CENTER AT UPTOWN,2727 EAST LEMMON AVENUE BUILDING I,DALLAS,TX,75204,DALLAS,2144433000,Acute Care Hospitals,Voluntary non-profit - Private,true,"2727 EAST LEMMON AVENUE BUILDING I
DALLAS, TX 75204
(32.80429, -96.79453)"
450424,HOUSTON METHODIST SAN JACINTO HOSPITAL,4401 GARTH ROAD,BAYTOWN,TX,77521,HARRIS,2814208600,Acute Care Hospitals,Voluntary non-profit - Private,false,"4401 GARTH ROAD
BAYTOWN, TX 77521
(29.768499, -94.977543)"
450431,ST DAVID'S MEDICAL CENTER,919 E 32ND ST,AUSTIN,TX,78705,TRAVIS,5124767111,Acute Care Hospitals,Voluntary non-profit - Private,true,"919 E 32ND ST
AUSTIN, TX 78705
(30.290095, -97.725128)"
450447,NAVARRO REGIONAL HOSPITAL,3201 WEST HIGHWAY 22,CORSICANA,TX,75110,NAVARRO,9036546800,Acute Care Hospitals,Voluntary non-profit - Private,true,"3201 WEST HIGHWAY 22
CORSICANA, TX 75110
"
450451,GLEN ROSE MEDICAL CENTER,1021 HOLDEN STREET,GLEN ROSE,TX,76043,SOMERVELL,2548972215,Acute Care Hospitals,Government - Hospital District or Authority,true,"1021 HOLDEN STREET
GLEN ROSE, TX 76043
(32.241375, -97.747029)"
450460,TYLER COUNTY HOSPITAL,1100 WEST BLUFF,WOODVILLE,TX,75979,TYLER,4092838141,Acute Care Hospitals,Government - Hospital District or Authority,false,"1100 WEST BLUFF
WOODVILLE, TX 75979
"
450462,TEXAS HEALTH PRESBYTERIAN HOSPITAL  DALLAS,8200 WALNUT HILL LANE,DALLAS,TX,75231,DALLAS,2143456789,Acute Care Hospitals,Voluntary non-profit - Private,true,"8200 WALNUT HILL LANE
DALLAS, TX 75231
(32.883056, -96.763901)"
450465,MATAGORDA REGIONAL MEDICAL CENTER,104 7TH STREET,BAY CITY,TX,77414,MATAGORDA,9792456383,Acute Care Hospitals,Government - Hospital District or Authority,true,"104 7TH STREET
BAY CITY, TX 77414
(28.982805, -95.99129)"
450469,WILSON N JONES REGIONAL MEDICAL CENTER,500 N HIGHLAND AVENUE,SHERMAN,TX,75091,GRAYSON,9038704611,Acute Care Hospitals,Voluntary non-profit - Other,true,"500 N HIGHLAND AVENUE
SHERMAN, TX 75091
(33.635677, -96.622864)"
450475,ETMC HENDERSON,300 WILSON STREET,HENDERSON,TX,75652,RUSK,9036577541,Acute Care Hospitals,Voluntary non-profit - Private,true,"300 WILSON STREET
HENDERSON, TX 75652
(32.161647, -94.796035)"
450484,WOODLAND HEIGHTS MEDICAL CENTER,505 SOUTH JOHN REDDITT DRIVE,LUFKIN,TX,75904,ANGELINA,9366348311,Acute Care Hospitals,Proprietary,true,"505 SOUTH JOHN REDDITT DRIVE
LUFKIN, TX 75904
(31.327115, -94.75602)"
450488,ALLEGIANCE SPECIALTY HOSPITAL OF KILGORE,1612 SOUTH HENDERSON BLVD,KILGORE,TX,75662,GREGG,9039843505,Acute Care Hospitals,Proprietary,true,"1612 SOUTH HENDERSON BLVD
KILGORE, TX 75662
(32.37387, -94.869194)"
450489,MEDICAL ARTS HOSPITAL,2200 N BRYAN AVE,LAMESA,TX,79331,DAWSON,8068722183,Acute Care Hospitals,Government - Hospital District or Authority,true,"2200 N BRYAN AVE
LAMESA, TX 79331
(32.750279, -101.966471)"
450497,BOWIE MEMORIAL HOSPITAL,705 EAST GREENWOOD AV,BOWIE,TX,76230,MONTAGUE,9408721126,Acute Care Hospitals,Government - Hospital District or Authority,true,"705 EAST GREENWOOD AV
BOWIE, TX 76230
(33.560845, -97.834045)"
450498,STEPHENS MEMORIAL HOSPITAL,200 SOUTH GENEVA STREET,BRECKENRIDGE,TX,76424,STEPHENS,2545592241,Acute Care Hospitals,Government - Local,true,"200 SOUTH GENEVA STREET
BRECKENRIDGE, TX 76424
(32.754329, -98.887722)"
450508,MEMORIAL HOSPITAL,1204 MOUND ST,NACOGDOCHES,TX,75961,NACOGDOCHES,9365644611,Acute Care Hospitals,Government - Hospital District or Authority,true,"1204 MOUND ST
NACOGDOCHES, TX 75961
(31.613771, -94.649451)"
450518,THE MEDICAL CENTER OF SOUTHEAST TEXAS,2555 JIMMY JOHNSON BLVD,PORT ARTHUR,TX,77640,JEFFERSON,4098535900,Acute Care Hospitals,Proprietary,true,"2555 JIMMY JOHNSON BLVD
PORT ARTHUR, TX 77640
(29.934985, -93.984938)"
450537,METHODIST RICHARDSON MEDICAL CENTER,2831 E PRESIDENT GEORGE BUSH HIGHWAY,RICHARDSON,TX,75082,DALLAS,4692041000,Acute Care Hospitals,Government - Hospital District or Authority,true,"2831 E PRESIDENT GEORGE BUSH HIGHWAY
RICHARDSON, TX 75082
(32.995987, -96.669064)"
450539,COVENANT HOSPITAL PLAINVIEW,2601 DIMMITT RD,PLAINVIEW,TX,79072,HALE,8062965531,Acute Care Hospitals,Voluntary non-profit - Private,true,"2601 DIMMITT RD
PLAINVIEW, TX 79072
(34.207225, -101.731639)"
450558,ABILENE REGIONAL MEDICAL CENTER,6250 HWY 83/84,ABILENE,TX,79606,TAYLOR,3254281000,Acute Care Hospitals,Proprietary,true,"6250 HWY 83/84
ABILENE, TX 79606
"
450563,BAYLOR SCOTT & WHITE MEDICAL CENTER  GRAPEVINE,1650 W COLLEGE ST,GRAPEVINE,TX,76051,TARRANT,8174811588,Acute Care Hospitals,Voluntary non-profit - Private,true,"1650 W COLLEGE ST
GRAPEVINE, TX 76051
(32.935596, -97.093949)"
450565,PALO PINTO GENERAL HOSPITAL,400 SOUTHWEST 25 AVE,MINERAL WELLS,TX,76067,PALO PINTO,9403257891,Acute Care Hospitals,Government - Hospital District or Authority,true,"400 SOUTHWEST 25 AVE
MINERAL WELLS, TX 76067
(32.799561, -98.145343)"
450571,SHANNON MEDICAL CENTER,120 EAST HARRIS AVENUE,SAN ANGELO,TX,76903,TOM GREEN,3256536741,Acute Care Hospitals,Voluntary non-profit - Private,true,"120 EAST HARRIS AVENUE
SAN ANGELO, TX 76903
(31.46447, -100.435144)"
450573,CHRISTUS JASPER MEMORIAL HOSPITAL,1275 MARVIN HANCOCK DRIVE,JASPER,TX,75951,JASPER,4093845461,Acute Care Hospitals,Government - Local,true,"1275 MARVIN HANCOCK DRIVE
JASPER, TX 75951
(30.907296, -94.008503)"
450578,HEMPHILL COUNTY HOSPITAL,1020 S 4TH ST,CANADIAN,TX,79014,HEMPHILL,8063236622,Acute Care Hospitals,Government - Hospital District or Authority,true,"1020 S 4TH ST
CANADIAN, TX 79014
(35.902889, -100.387404)"
450580,EAST TEXAS MEDICAL CENTER CROCKETT,1100 LOOP 304 EAST,CROCKETT,TX,75835,HOUSTON,9365463862,Acute Care Hospitals,Voluntary non-profit - Private,true,"1100 LOOP 304 EAST
CROCKETT, TX 75835
(31.317869, -95.436691)"
450584,WILBARGER GENERAL HOSPITAL,920 HILLCREST DR,VERNON,TX,76384,WILBARGER,9405529351,Acute Care Hospitals,Government - Hospital District or Authority,true,"920 HILLCREST DR
VERNON, TX 76384
(34.158467, -99.312936)"
450586,SEYMOUR HOSPITAL,200 STADIUM DRIVE,SEYMOUR,TX,76380,BAYLOR,9408895572,Acute Care Hospitals,Government - Hospital District or Authority,true,"200 STADIUM DRIVE
SEYMOUR, TX 76380
(33.589277, -99.247505)"
450587,BROWNWOOD REGIONAL MEDICAL CENTER,1501 BURNET DR,BROWNWOOD,TX,76801,BROWN,3256468541,Acute Care Hospitals,Proprietary,true,"1501 BURNET DR
BROWNWOOD, TX 76801
(31.677419, -98.992315)"
450596,LAKE GRANBURY MEDICAL CENTER,1310 PALUXY RD,GRANBURY,TX,76048,HOOD,8175732683,Acute Care Hospitals,Proprietary,true,"1310 PALUXY RD
GRANBURY, TX 76048
(32.431753, -97.802844)"
450597,CUERO COMMUNITY HOSPITAL,2550 N ESPLANADE,CUERO,TX,77954,DE WITT,3612756191,Acute Care Hospitals,Government - Hospital District or Authority,true,"2550 N ESPLANADE
CUERO, TX 77954
(29.116589, -97.280492)"
450604,HILL COUNTRY MEMORIAL HOSPITAL INC,1020 SOUTH STATE HIGHWAY 16,FREDERICKSBURG,TX,78624,GILLESPIE,8309974353,Acute Care Hospitals,Voluntary non-profit - Private,true,"1020 SOUTH STATE HIGHWAY 16
FREDERICKSBURG, TX 78624
(30.26328, -98.87925)"
450605,CARE REGIONAL MEDICAL CENTER,1711 W WHEELER AVENUE,ARANSAS PASS,TX,78336,SAN PATRICIO,3617588585,Acute Care Hospitals,Proprietary,true,"1711 W WHEELER AVENUE
ARANSAS PASS, TX 78336
(27.916082, -97.162123)"
45060F,VA AMARILLO HEALTHCARE SYSTEM,6010 AMARILLO BLVD. WEST,AMARILLO,TX,79106,POTTER,8063559703,ACUTE CARE - VETERANS ADMINISTRATION,Government Federal,false,"6010 AMARILLO BLVD. WEST
AMARILLO, TX 79106
(35.202024, -101.90651)"
450610,MEMORIAL HERMANN MEMORIAL CITY MEDICAL CENTER,921 GESSNER,HOUSTON,TX,77024,HARRIS,7132423000,Acute Care Hospitals,Voluntary non-profit - Private,true,"921 GESSNER
HOUSTON, TX 77024
(29.781416, -95.544324)"
450617,CLEAR LAKE REGIONAL MEDICAL CENTER,500 MEDICAL CENTER BLVD,WEBSTER,TX,77598,HARRIS,2813322511,Acute Care Hospitals,Proprietary,true,"500 MEDICAL CENTER BLVD
WEBSTER, TX 77598
(29.540283, -95.127349)"
450620,DIMMIT REGIONAL HOSPITAL,704 HOSPITAL DRIVE,CARRIZO SPRINGS,TX,78834,DIMMIT,8308762424,Acute Care Hospitals,Voluntary non-profit - Private,true,"704 HOSPITAL DRIVE
CARRIZO SPRINGS, TX 78834
(28.519914, -99.86209)"
450634,DENTON REGIONAL MEDICAL CENTER,3535 SOUTH I35 EAST,DENTON,TX,76210,DENTON,9403843535,Acute Care Hospitals,Proprietary,true,"3535 SOUTH I35 EAST
DENTON, TX 76210
(33.176196, -97.093133)"
450638,HOUSTON NORTHWEST MEDICAL CENTER,710 CYPRESS CREEK PARKWAY,HOUSTON,TX,77090,HARRIS,2814401000,Acute Care Hospitals,Proprietary,true,"710 CYPRESS CREEK PARKWAY
HOUSTON, TX 77090
(30.018099, -95.439796)"
450639,TEXAS HEALTH HARRIS METHODIST HURST-EULESS-BEDFORD,1600 HOSPITAL PARKWAY,BEDFORD,TX,76022,TARRANT,8178484000,Acute Care Hospitals,Voluntary non-profit - Private,true,"1600 HOSPITAL PARKWAY
BEDFORD, TX 76022
(32.835348, -97.125242)"
45063F,VA WEST TEXAS HEALTHCARE SYSTEM,300 VETERANS BLVD.,BIG SPRING,TX,79720,HOWARD,4322637361,ACUTE CARE - VETERANS ADMINISTRATION,Government Federal,false,"300 VETERANS BLVD.
BIG SPRING, TX 79720
(32.231824, -101.471074)"
450641,NOCONA GENERAL HOSPITAL,100 PARK ROAD,NOCONA,TX,76255,MONTAGUE,9408253235,Acute Care Hospitals,Government - Hospital District or Authority,true,"100 PARK ROAD
NOCONA, TX 76255
(33.777813, -97.731568)"
450643,DOCTORS HOSPITAL OF LAREDO,10700 MCPHERSON ROAD,LAREDO,TX,78041,WEBB,9565232000,Acute Care Hospitals,Proprietary,true,"10700 MCPHERSON ROAD
LAREDO, TX 78041
(27.604217, -99.477038)"
450644,WEST HOUSTON MEDICAL CENTER,12141 RICHMOND AVE,HOUSTON,TX,77082,HARRIS,2815888080,Acute Care Hospitals,Proprietary,true,"12141 RICHMOND AVE
HOUSTON, TX 77082
(29.730278, -95.59486)"
450647,MEDICAL CITY DALLAS HOSPITAL,7777 FOREST LANE,DALLAS,TX,75230,DALLAS,9725666222,Acute Care Hospitals,Proprietary,true,"7777 FOREST LANE
DALLAS, TX 75230
(32.909447, -96.772089)"
450651,MEDICAL CENTER OF PLANO,3901 W 15TH ST,PLANO,TX,75075,COLLIN,9725966800,Acute Care Hospitals,Proprietary,true,"3901 W 15TH ST
PLANO, TX 75075
(33.019359, -96.765907)"
450653,SCENIC MOUNTAIN MEDICAL CENTER,1601 W 11TH PLACE,BIG SPRING,TX,79720,HOWARD,4322631211,Acute Care Hospitals,Proprietary,true,"1601 W 11TH PLACE
BIG SPRING, TX 79720
(32.239603, -101.494337)"
450654,STARR COUNTY MEMORIAL HOSPITAL,128  N FM RD 3167,RIO GRANDE CITY,TX,78582,STARR,9564875561,Acute Care Hospitals,Government - Hospital District or Authority,true,"128 N FM RD 3167
RIO GRANDE CITY, TX 78582
"
450656,NACOGDOCHES MEDICAL CENTER,4920 NE STALLINGS DRIVE,NACOGDOCHES,TX,75961,NACOGDOCHES,9365699481,Acute Care Hospitals,Voluntary non-profit - Other,true,"4920 NE STALLINGS DRIVE
NACOGDOCHES, TX 75961
(31.652058, -94.654265)"
450658,EAST TEXAS MEDICAL CENTER - FAIRFIELD,125 NEWMAN ST,FAIRFIELD,TX,75840,FREESTONE,9033891612,Acute Care Hospitals,Voluntary non-profit - Private,true,"125 NEWMAN ST
FAIRFIELD, TX 75840
(31.725902, -96.169619)"
450659,PARK PLAZA HOSPITAL,1313 HERMANN DR,HOUSTON,TX,77004,HARRIS,7135275019,Acute Care Hospitals,Proprietary,true,"1313 HERMANN DR
HOUSTON, TX 77004
(29.722334, -95.387978)"
450661,ODESSA REGIONAL HOSPITAL,520 E 6TH STREET,ODESSA,TX,79761,ECTOR,4325828340,Acute Care Hospitals,Proprietary,true,"520 E 6TH STREET
ODESSA, TX 79761
(31.851458, -102.366027)"
450662,VALLEY REGIONAL MEDICAL CENTER,100 A ALTON GLOOR,BROWNSVILLE,TX,78526,CAMERON,9563507000,Acute Care Hospitals,Proprietary,true,"100 A ALTON GLOOR
BROWNSVILLE, TX 78526
(25.979108, -97.516076)"
450668,SIERRA MEDICAL CENTER,1625 MEDICAL CENTER DR,EL PASO,TX,79902,EL PASO,9157474000,Acute Care Hospitals,Proprietary,true,"1625 MEDICAL CENTER DR
EL PASO, TX 79902
(31.77867, -106.47965)"
450669,MEDICAL CENTER OF LEWISVILLE,500 WEST MAIN STREET,LEWISVILLE,TX,75057,DENTON,9724201000,Acute Care Hospitals,Voluntary non-profit - Private,true,"500 WEST MAIN STREET
LEWISVILLE, TX 75057
(33.046306, -97.004207)"
45066F,DALLAS VA MEDICAL CENTER - VA NORTH TEXAS,4500 S. LANCASTER ROAD,DALLAS,TX,75216,DALLAS,2147428387,ACUTE CARE - VETERANS ADMINISTRATION,Government Federal,false,"4500 S. LANCASTER ROAD
DALLAS, TX 75216
(32.693825, -96.79282)"
450670,TOMBALL REGIONAL MEDICAL CENTER,605 HOLDERRIETH,TOMBALL,TX,77375,HARRIS,2813511623,Acute Care Hospitals,Government - Hospital District or Authority,true,"605 HOLDERRIETH
TOMBALL, TX 77375
(30.088849, -95.623972)"
450672,PLAZA MEDICAL CENTER OF FORT WORTH,900 EIGHTH AVENUE,FORT WORTH,TX,76104,TARRANT,8173362100,Acute Care Hospitals,Proprietary,true,"900 EIGHTH AVENUE
FORT WORTH, TX 76104
(32.734721, -97.343709)"
450674,"WOMANS HOSPITAL OF TEXAS,THE",7600 FANNIN,HOUSTON,TX,77054,HARRIS,7137901234,Acute Care Hospitals,Proprietary,true,"7600 FANNIN
HOUSTON, TX 77054
(29.692926, -95.401122)"
450675,MEDICAL CENTER OF ARLINGTON,3301 MATLOCK ROAD,ARLINGTON,TX,76015,TARRANT,8174653241,Acute Care Hospitals,Proprietary,true,"3301 MATLOCK ROAD
ARLINGTON, TX 76015
(32.691845, -97.114799)"
450677,HUGULEY MEMORIAL MEDICAL CENTER,11801 SOUTH FREEWAY,BURLESON,TX,76028,JOHNSON,8175685317,Acute Care Hospitals,Voluntary non-profit - Church,true,"11801 SOUTH FREEWAY
BURLESON, TX 76028
(32.586544, -97.319104)"
450678,DOCTORS HOSPITAL,9440 POPPY DR,DALLAS,TX,75218,DALLAS,2143246100,Acute Care Hospitals,Proprietary,true,"9440 POPPY DR
DALLAS, TX 75218
(32.835231, -96.705836)"
450684,MEMORIAL HERMANN NORTHEAST,18951 MEMORIAL NORTH,HUMBLE,TX,77338,HARRIS,2815407700,Acute Care Hospitals,Government - Hospital District or Authority,true,"18951 MEMORIAL NORTH
HUMBLE, TX 77338
(29.994517, -95.275353)"
450686,UNIVERSITY MEDICAL CENTER,602 INDIANA AVENUE,LUBBOCK,TX,79415,LUBBOCK,8067758200,Acute Care Hospitals,Government - Hospital District or Authority,true,"602 INDIANA AVENUE
LUBBOCK, TX 79415
(33.589429, -101.887977)"
450688,DALLAS REGIONAL MEDICAL CENTER,1011 NORTH GALLOWAY AVENUE,MESQUITE,TX,75149,DALLAS,2143207000,Acute Care Hospitals,Proprietary,true,"1011 NORTH GALLOWAY AVENUE
MESQUITE, TX 75149
(32.777322, -96.599646)"
450690,UNIVERSITY OF TEXAS HEALTH SCIENCE CENTER AT TYLER,11937 US HIGHWAY 271,TYLER,TX,75708,SMITH,9038777777,Acute Care Hospitals,Government - State,true,"11937 US HIGHWAY 271
TYLER, TX 75708
(32.419948, -95.218309)"
450694,EL CAMPO MEMORIAL HOSPITAL,303 SANDY CORNER RD,EL CAMPO,TX,77437,WHARTON,9795785251,Acute Care Hospitals,Voluntary non-profit - Other,true,"303 SANDY CORNER RD
EL CAMPO, TX 77437
(29.219127, -96.289577)"
450697,SOUTHWEST GENERAL HOSPITAL,7400 BARLITE BLVD,SAN ANTONIO,TX,78224,BEXAR,2109212000,Acute Care Hospitals,Proprietary,true,"7400 BARLITE BLVD
SAN ANTONIO, TX 78224
(29.354092, -98.54654)"
450698,LAMB HEALTHCARE CENTER,1500 S SUNSET,LITTLEFIELD,TX,79339,LAMB,8063856411,Acute Care Hospitals,Government - Local,true,"1500 S SUNSET
LITTLEFIELD, TX 79339
(33.91091, -102.345445)"
450702,LONGVIEW REGIONAL MEDICAL CENTER,2901 N FOURTH ST,LONGVIEW,TX,75605,GREGG,9037581818,Acute Care Hospitals,Proprietary,true,"2901 N FOURTH ST
LONGVIEW, TX 75605
(32.532039, -94.728825)"
450709,HOUSTON METHODIST ST JOHN HOSPITAL,18300 ST JOHN DRIVE,NASSAU BAY,TX,77058,HARRIS,2813335503,Acute Care Hospitals,Voluntary non-profit - Private,true,"18300 ST JOHN DRIVE
NASSAU BAY, TX 77058
(29.549553, -95.085116)"
450711,RIO GRANDE REGIONAL HOSPITAL,101 E RIDGE RD,MCALLEN,TX,78503,HIDALGO,9566326000,Acute Care Hospitals,Proprietary,true,"101 E RIDGE RD
MCALLEN, TX 78503
(26.185574, -98.221226)"
450713,ST DAVID'S SOUTH AUSTIN MEDICAL CENTER,901 WEST BEN WHITE BLVD,AUSTIN,TX,78704,TRAVIS,5124487107,Acute Care Hospitals,Proprietary,true,"901 WEST BEN WHITE BLVD
AUSTIN, TX 78704
(30.227315, -97.773392)"
450716,CYPRESS FAIRBANKS MEDICAL CENTER,10655 STEEPLETOP DRIVE,HOUSTON,TX,77065,HARRIS,2818973100,Acute Care Hospitals,Proprietary,true,"10655 STEEPLETOP DRIVE
HOUSTON, TX 77065
(29.927725, -95.588584)"
450718,ROUND ROCK MEDICAL CENTER,2400 ROUND ROCK AVE,ROUND ROCK,TX,78681,WILLIAMSON,5123411000,Acute Care Hospitals,Voluntary non-profit - Other,true,"2400 ROUND ROCK AVE
ROUND ROCK, TX 78681
(30.509439, -97.712073)"
450723,METHODIST CHARLTON MEDICAL CENTER,3500 W WHEATLAND ROAD,DALLAS,TX,75237,DALLAS,2149477777,Acute Care Hospitals,Voluntary non-profit - Private,true,"3500 W WHEATLAND ROAD
DALLAS, TX 75237
(32.647444, -96.876265)"
450730,BAYLOR MEDICAL CENTER AT CARROLLTON,4343 NORTH JOSEY LANE,CARROLLTON,TX,75010,DENTON,9724921010,Acute Care Hospitals,Proprietary,true,"4343 NORTH JOSEY LANE
CARROLLTON, TX 75010
(33.027442, -96.884763)"
450742,LAKE POINTE MEDICAL CENTER,6800 SCENIC DR,ROWLETT,TX,75088,DALLAS,9724122273,Acute Care Hospitals,Proprietary,true,"6800 SCENIC DR
ROWLETT, TX 75088
(32.921991, -96.509495)"
450743,TEXAS HEALTH PRESBYTERIAN HOSPITAL DENTON,3000 N I-35,DENTON,TX,76201,DENTON,9408987000,Acute Care Hospitals,Voluntary non-profit - Private,true,"3000 N I-35
DENTON, TX 76201
(33.212735, -97.165874)"
450746,KNOX COUNTY HOSPITAL,701 SE 5TH STREET,KNOX CITY,TX,79529,KNOX,9406573535,Acute Care Hospitals,Government - Hospital District or Authority,true,"701 SE 5TH STREET
KNOX CITY, TX 79529
(33.414084, -99.809607)"
450747,PALESTINE REGIONAL MEDICAL CENTER,2900 S LOOP 256,PALESTINE,TX,75801,ANDERSON,9037311000,Acute Care Hospitals,Proprietary,true,"2900 S LOOP 256
PALESTINE, TX 75801
(31.734082, -95.627602)"
450749,EAST TEXAS MEDICAL CENTER TRINITY,317 PROSPECT DR/PO BOX 3169,TRINITY,TX,75862,TRINITY,9365943541,Acute Care Hospitals,Voluntary non-profit - Private,true,"317 PROSPECT DR/PO BOX 3169
TRINITY, TX 75862
"
45074F,HOUSTON VA MEDICAL CENTER,2002 HOLCOMBE BLVD.,HOUSTON,TX,77030,HARRIS,7137947100,ACUTE CARE - VETERANS ADMINISTRATION,Government Federal,false,"2002 HOLCOMBE BLVD.
HOUSTON, TX 77030
(29.706509, -95.388768)"
450754,HAMILTON GENERAL HOSPITAL,400 N BROWN,HAMILTON,TX,76531,HAMILTON,2543863151,Acute Care Hospitals,Government - Hospital District or Authority,true,"400 N BROWN
HAMILTON, TX 76531
(31.703852, -98.113462)"
450755,COVENANT HOSPITAL LEVELLAND,1900 COLLEGE AVE,LEVELLAND,TX,79336,HOCKLEY,8068944963,Acute Care Hospitals,Voluntary non-profit - Church,true,"1900 COLLEGE AVE
LEVELLAND, TX 79336
(33.574063, -102.367746)"
450766,UT SOUTHWESTERN UNIVERSITY HOSPITAL-ZALE LIPSHY,5151 HARRY HINES BLVD,DALLAS,TX,75390,DALLAS,2148793758,Acute Care Hospitals,Government - State,false,"5151 HARRY HINES BLVD
DALLAS, TX 75390
"
450771,TEXAS HEALTH PRESBYTERIAN HOSPITAL PLANO,6200 W PARKER RD,PLANO,TX,75093,COLLIN,9729818000,Acute Care Hospitals,Voluntary non-profit - Private,false,"6200 W PARKER RD
PLANO, TX 75093
(33.045127, -96.838515)"
450774,TOPS SURGICAL SPECIALTY HOSPITAL,17080 RED OAK DRIVE,HOUSTON,TX,77090,HARRIS,2815392900,Acute Care Hospitals,Physician,true,"17080 RED OAK DRIVE
HOUSTON, TX 77090
(30.018255, -95.444605)"
450775,KINGWOOD MEDICAL CENTER,22999 US HWY 59,KINGWOOD,TX,77325,HARRIS,2813597500,Acute Care Hospitals,Proprietary,true,"22999 US HWY 59
KINGWOOD, TX 77325
(30.04797, -95.253468)"
450779,TEXAS HEALTH HARRIS METHODIST HOSPITAL SOUTHWEST F,6100 HARRIS PKWY,FORT WORTH,TX,76132,TARRANT,8174335000,Acute Care Hospitals,Voluntary non-profit - Private,true,"6100 HARRIS PKWY
FORT WORTH, TX 76132
(32.658155, -97.41944)"
450780,METHODIST AMBULATORY SURGERY HOSPITAL NW,9150 HUEBNER RD SUITE 100,SAN ANTONIO,TX,78240,BEXAR,2105755000,Acute Care Hospitals,Proprietary,true,"9150 HUEBNER RD SUITE 100
SAN ANTONIO, TX 78240
(29.52773, -98.595871)"
450788,"CORPUS CHRISTI MEDICAL CENTER,THE",7101 S PADRE ISLAND DR,CORPUS CHRISTI,TX,78412,NUECES,3617611501,Acute Care Hospitals,Proprietary,true,"7101 S PADRE ISLAND DR
CORPUS CHRISTI, TX 78412
(27.694289, -97.343992)"
450796,NORTHWEST TEXAS SURGERY CENTER,3501 SONCY RD SUITE 118,AMARILLO,TX,79109,RANDALL,8063597999,Acute Care Hospitals,Proprietary,true,"3501 SONCY RD SUITE 118
AMARILLO, TX 79109
(35.175394, -101.938155)"
450797,HOUSTON HOSPITAL FOR SPECIALIZED SURGERY,5445 LABRANCH STREET,HOUSTON,TX,77004,HARRIS,7135286800,Acute Care Hospitals,Proprietary,false,"5445 LABRANCH STREET
HOUSTON, TX 77004
(29.724393, -95.384401)"
450801,CHRISTUS ST MICHAEL HEALTH SYSTEM,2600 ST MICHAEL DR,TEXARKANA,TX,75504,BOWIE,9036141000,Acute Care Hospitals,Voluntary non-profit - Church,true,"2600 ST MICHAEL DR
TEXARKANA, TX 75504
(33.464034, -94.070669)"
450803,DOCTORS HOSPITAL TIDWELL,510 W TIDWELL,HOUSTON,TX,77091,HARRIS,7136911111,Acute Care Hospitals,Physician,true,"510 W TIDWELL
HOUSTON, TX 77091
(29.847222, -95.407991)"
450804,TEXAS ORTHOPEDIC HOSPITAL,7401 SOUTH MAIN STREET,HOUSTON,TX,77030,HARRIS,7137998600,Acute Care Hospitals,Voluntary non-profit - Other,true,"7401 SOUTH MAIN STREET
HOUSTON, TX 77030
(29.700371, -95.409631)"
450808,NORTHWEST HILLS SURGICAL HOSPITAL,6818 AUSTIN CTR BLVD SUITE 100,AUSTIN,TX,78731,TRAVIS,5123461994,Acute Care Hospitals,Physician,true,"6818 AUSTIN CTR BLVD SUITE 100
AUSTIN, TX 78731
(30.350571, -97.751109)"
450809,NORTH AUSTIN MEDICAL CENTER,12221 MOPAC EXPRESSWAY NORTH,AUSTIN,TX,78758,TRAVIS,5129011000,Acute Care Hospitals,Voluntary non-profit - Other,true,"12221 MOPAC EXPRESSWAY NORTH
AUSTIN, TX 78758
(30.411705, -97.708547)"
450820,METHODIST SUGAR LAND HOSPITAL,16655 SOUTHWEST FREEWAY,SUGAR LAND,TX,77479,FORT BEND,2812748000,Acute Care Hospitals,Voluntary non-profit - Church,true,"16655 SOUTHWEST FREEWAY
SUGAR LAND, TX 77479
(29.590986, -95.631198)"
450822,LAS COLINAS MEDICAL CENTER,6800 N MACARTHUR BLVD,IRVING,TX,75039,DALLAS,9729692000,Acute Care Hospitals,Voluntary non-profit - Private,true,"6800 N MACARTHUR BLVD
IRVING, TX 75039
(32.902165, -96.958677)"
450825,CORNERSTONE REGIONAL HOSPITAL,2302 CORNERSTONE BOULEVARD,EDINBURG,TX,78539,HIDALGO,9566184444,Acute Care Hospitals,Proprietary,true,"2302 CORNERSTONE BOULEVARD
EDINBURG, TX 78539
(26.262919, -98.201101)"
450827,KELL WEST REGIONAL HOSPITAL,5402 KELL WEST BOULEVARD,WICHITA FALLS,TX,76310,WICHITA,9406925888,Acute Care Hospitals,Proprietary,true,"5402 KELL WEST BOULEVARD
WICHITA FALLS, TX 76310
"
450828,CHRISTUS SPOHN HOSPITAL ALICE,2500 E MAIN STREET,ALICE,TX,78332,JIM WELLS,3616618016,Acute Care Hospitals,Voluntary non-profit - Private,true,"2500 E MAIN STREET
ALICE, TX 78332
(27.764603, -98.044991)"
450831,SURGERY SPECIALTY HOSPITALS OF AMERICA SE HOUSTON,4301 B VISTA,PASADENA,TX,77504,HARRIS,7133783000,Acute Care Hospitals,Proprietary,true,"4301 B VISTA
PASADENA, TX 77504
"
450833,ENNIS REGIONAL MEDICAL CENTER,2201 WEST LAMPASAS STREET,ENNIS,TX,75119,ELLIS,9728750900,Acute Care Hospitals,Proprietary,true,"2201 WEST LAMPASAS STREET
ENNIS, TX 75119
(32.30843, -96.64225)"
450834,"PHYSICIANS CENTRE,THE",3131 UNIVERSITY DRIVE EAST,BRYAN,TX,77802,BRAZOS,9797313100,Acute Care Hospitals,Proprietary,true,"3131 UNIVERSITY DRIVE EAST
BRYAN, TX 77802
(30.649512, -96.296433)"
450840,TEXAS HEALTH PRESBYTERIAN HOSPITAL ALLEN,1105 CENTRAL EXPRESSWAY NORTH,ALLEN,TX,75013,COLLIN,9727476197,Acute Care Hospitals,Government - Federal,true,"1105 CENTRAL EXPRESSWAY NORTH
ALLEN, TX 75013
(33.115782, -96.671289)"
450844,METHODIST WILLOWBROOK HOSPITAL,18220 TOMBALL PARKWAY,HOUSTON,TX,77070,HARRIS,2814771000,Acute Care Hospitals,Voluntary non-profit - Church,true,"18220 TOMBALL PARKWAY
HOUSTON, TX 77070
(29.964059, -95.550789)"
450845,EL PASO SPECIALTY HOSPITAL,1755 CURIE SUITE A,EL PASO,TX,79902,EL PASO,9155443636,Acute Care Hospitals,Proprietary,true,"1755 CURIE SUITE A
EL PASO, TX 79902
"
450847,MEMORIAL HERMANN KATY HOSPITAL,23900 KATY FREEWAY,KATY,TX,77494,HARRIS,2813921111,Acute Care Hospitals,Voluntary non-profit - Private,true,"23900 KATY FREEWAY
KATY, TX 77494
(29.785918, -95.785657)"
450848,MEMORIAL HERMANN SUGAR LAND HOSPITAL,17500 W GRAND PARKWAY SOUTH,SUGAR LAND,TX,77479,FORT BEND,2814994800,Acute Care Hospitals,Voluntary non-profit - Private,true,"17500 W GRAND PARKWAY SOUTH
SUGAR LAND, TX 77479
(29.56408, -95.68791)"
450851,BAYLOR HEART AND VASCULAR HOSPITAL,621 NORTH HALL STREET,DALLAS,TX,75226,DALLAS,2148200670,Acute Care Hospitals,Proprietary,true,"621 NORTH HALL STREET
DALLAS, TX 75226
(32.788418, -96.780808)"
450853,BAYLOR MEDICAL CENTER AT FRISCO,5601 WARREN PARKWAY,FRISCO,TX,75034,COLLIN,2146182000,Acute Care Hospitals,Proprietary,true,"5601 WARREN PARKWAY
FRISCO, TX 75034
(33.106709, -96.838022)"
450855,HARLINGEN MEDICAL CENTER,5501 SOUTH EXPRESSWAY 77,HARLINGEN,TX,78550,CAMERON,9563651000,Acute Care Hospitals,Proprietary,true,"5501 SOUTH EXPRESSWAY 77
HARLINGEN, TX 78550
"
450856,SOUTH TEXAS SPINE AND SURGICAL HOSPITAL,18600 NORTH HARDY OAK BLVD,SAN ANTONIO,TX,78258,BEXAR,2104040800,Acute Care Hospitals,Proprietary,true,"18600 NORTH HARDY OAK BLVD
SAN ANTONIO, TX 78258
(29.613952, -98.478446)"
450860,SUGAR LAND SURGICAL HOSPITAL LLP,16906 SOUTHWEST FREEWAY,SUGAR LAND,TX,77479,FORT BEND,2812431000,Acute Care Hospitals,Proprietary,true,"16906 SOUTHWEST FREEWAY
SUGAR LAND, TX 77479
(29.589961, -95.636835)"
450862,ST LUKE'S THE WOODLANDS HOSPITAL,17200 ST LUKE'S WAY,THE WOODLANDS,TX,77384,MONTGOMERY,9362664050,Acute Care Hospitals,Voluntary non-profit - Church,true,"17200 ST LUKE'S WAY
THE WOODLANDS, TX 77384
(30.20499, -95.459467)"
450864,TEXAS SPINE AND JOINT HOSPITAL,1814 ROSELAND BOULEVARD,TYLER,TX,75701,SMITH,9035253300,Acute Care Hospitals,Physician,true,"1814 ROSELAND BOULEVARD
TYLER, TX 75701
(32.328962, -95.299465)"
450865,SETON SOUTHWEST HOSPITAL,7900 FM 1826,AUSTIN,TX,78737,TRAVIS,5123249000,Acute Care Hospitals,Voluntary non-profit - Private,false,"7900 FM 1826
AUSTIN, TX 78737
(30.22696, -97.88951)"
450867,SETON NORTHWEST HOSPITAL,11113 RESEARCH BOULEVARD,AUSTIN,TX,78759,TRAVIS,5123246000,Acute Care Hospitals,Voluntary non-profit - Private,true,"11113 RESEARCH BOULEVARD
AUSTIN, TX 78759
(30.404743, -97.745018)"
450869,DOCTORS HOSPITAL AT RENAISSANCE,5501 SOUTH MCCOLL,EDINBURG,TX,78539,HIDALGO,9563628677,Acute Care Hospitals,Proprietary,true,"5501 SOUTH MCCOLL
EDINBURG, TX 78539
(26.252807, -98.204032)"
45086F,TEMPLE VA MEDICAL CENTER - VA CENTRAL TEXAS,1901 VETERANS MEMORIAL DRIVE,TEMPLE,TX,76504,BELL,2547784811,ACUTE CARE - VETERANS ADMINISTRATION,Government Federal,false,"1901 VETERANS MEMORIAL DRIVE
TEMPLE, TX 76504
(31.077028, -97.349604)"
450871,ARISE AUSTIN MEDICAL CENTER,3003 BEE CAVES ROAD,AUSTIN,TX,78746,TRAVIS,5123479888,Acute Care Hospitals,Physician,true,"3003 BEE CAVES ROAD
AUSTIN, TX 78746
(30.271664, -97.795469)"
450872,USMD HOSPITAL AT ARLINGTON L P,801 W INTERSTATE 20,ARLINGTON,TX,76017,TARRANT,8174723400,Acute Care Hospitals,Physician,true,"801 W INTERSTATE 20
ARLINGTON, TX 76017
(32.678855, -97.117732)"
450874,BAYLOR SURGICAL HOSPITAL AT LAS COLINAS,400 WEST INTERSTATE 635 SUITE 101,IRVING,TX,75063,DALLAS,9728684000,Acute Care Hospitals,Proprietary,true,"400 WEST INTERSTATE 635 SUITE 101
IRVING, TX 75063
(32.676648, -97.01673)"
450875,QUAIL CREEK SURGICAL HOSPITAL,6819 PLUM CREEK,AMARILLO,TX,79124,POTTER,8063546100,Acute Care Hospitals,Proprietary,true,"6819 PLUM CREEK
AMARILLO, TX 79124
"
450876,LUBBOCK HEART HOSPITAL LP,4810 NORTH LOOP 289,LUBBOCK,TX,79416,LUBBOCK,8066877777,Acute Care Hospitals,Government - Local,true,"4810 NORTH LOOP 289
LUBBOCK, TX 79416
(33.602124, -101.914918)"
450877,FOUNDATION SURGICAL HOSPITAL OF EL PASO,1416 GEORGE DIETER,EL PASO,TX,79936,EL PASO,9155984240,Acute Care Hospitals,Physician,true,"1416 GEORGE DIETER
EL PASO, TX 79936
(31.734985, -106.301578)"
450880,BAYLOR SURGICAL HOSPITAL AT FORT WORTH,1800 PARK PLACE AVENUE,FORT WORTH,TX,76110,TARRANT,6827035600,Acute Care Hospitals,Voluntary non-profit - Private,true,"1800 PARK PLACE AVENUE
FORT WORTH, TX 76110
(32.725778, -97.346185)"
450883,BAYLOR MEDICAL CENTER AT TROPHY CLUB,2850  E STATE HIGHWAY 114,TROPHY CLUB,TX,76262,DENTON,8178374600,Acute Care Hospitals,Proprietary,true,"2850 E STATE HIGHWAY 114
TROPHY CLUB, TX 76262
"
450885,CENTENNIAL MEDICAL CENTER,12505 LEBANON ROAD,FRISCO,TX,75035,COLLIN,9729633333,Acute Care Hospitals,Voluntary non-profit - Other,true,"12505 LEBANON ROAD
FRISCO, TX 75035
(33.115882, -96.771793)"
450888,TEXAS HEALTH HARRIS METHODIST HOSPITAL SOUTHLAKE,1545 E SOUTHLAKE BLVD,SOUTHLAKE,TX,76092,TARRANT,8177488700,Acute Care Hospitals,Government - State,true,"1545 E SOUTHLAKE BLVD
SOUTHLAKE, TX 76092
(32.94097, -97.127539)"
450889,TEXAS INSTITUTE FOR SURGERY AT PRESBYTERIAN HOSPIT,7115 GREENVILLE AVENUE SUITE 100,DALLAS,TX,75231,DALLAS,2146475300,Acute Care Hospitals,Proprietary,true,"7115 GREENVILLE AVENUE SUITE 100
DALLAS, TX 75231
(32.876714, -96.761567)"
450890,BAYLOR REGIONAL MEDICAL CENTER AT PLANO,4700 ALLIANCE BOULEVARD,PLANO,TX,75093,COLLIN,4698142000,Acute Care Hospitals,Voluntary non-profit - Other,true,"4700 ALLIANCE BOULEVARD
PLANO, TX 75093
(33.014377, -96.791437)"
450891,TEXAS HEALTH CENTER FOR DIAGNOSTICS & SURGERY PLAN,6020 W PARKER ROAD,PLANO,TX,75093,COLLIN,9724032700,Acute Care Hospitals,Proprietary,true,"6020 W PARKER ROAD
PLANO, TX 75093
(33.045097, -96.831869)"
450893,THE HEART HOSPITAL BAYLOR DENTON,2801 SOUTH MAYHILL ROAD,DENTON,TX,76208,DENTON,9402200600,Acute Care Hospitals,Physician,true,"2801 SOUTH MAYHILL ROAD
DENTON, TX 76208
(33.177536, -97.087444)"
450894,PINE CREEK MEDICAL CENTER LLP,9032 HARRY HINES BLVD,DALLAS,TX,75235,DALLAS,2142312273,Acute Care Hospitals,Physician,true,"9032 HARRY HINES BLVD
DALLAS, TX 75235
(32.84026, -96.868953)"
45090F,SAN ANTONIO VA MEDICAL CENTER - VA SOUTH TEXAS,7400 MERTON MINTER BLVD.,SAN ANTONIO,TX,78229,BEXAR,2106175300,ACUTE CARE - VETERANS ADMINISTRATION,Government Federal,false,"7400 MERTON MINTER BLVD.
SAN ANTONIO, TX 78229
(29.508413, -98.580931)"
451301,REAGAN MEMORIAL HOSPITAL,805 NORTH MAIN,BIG LAKE,TX,76932,REAGAN,3258442561,Critical Access Hospitals,Government - Hospital District or Authority,true,"805 NORTH MAIN
BIG LAKE, TX 76932
(31.197961, -101.461701)"
451303,LIMESTONE MEDICAL CENTER,701 MCCLINTIC DRIVE,GROESBECK,TX,76642,LIMESTONE,2547293281,Critical Access Hospitals,Government - Hospital District or Authority,true,"701 MCCLINTIC DRIVE
GROESBECK, TX 76642
(31.531876, -96.529658)"
451305,BURLESON ST JOSEPH HEALTH CENTER,1101 WOODSON DRIVE,CALDWELL,TX,77836,BURLESON,9795673245,Critical Access Hospitals,Voluntary non-profit - Church,true,"1101 WOODSON DRIVE
CALDWELL, TX 77836
(30.520951, -96.71596)"
451308,YOAKUM COUNTY HOSPITAL,412 MUSTANG AVENUE,DENVER CITY,TX,79323,YOAKUM,8065922121,Critical Access Hospitals,Government - Local,true,"412 MUSTANG AVENUE
DENVER CITY, TX 79323
(32.968561, -102.836388)"
451309,MCCAMEY HOSPITAL,2500 HWY 305 SOUTH,MCCAMEY,TX,79752,UPTON,4326528626,Critical Access Hospitals,Government - Hospital District or Authority,true,"2500 HWY 305 SOUTH
MCCAMEY, TX 79752
"
451310,BALLINGER MEMORIAL HOSPITAL,608 AVENUE B,BALLINGER,TX,76821,RUNNELS,3253652531,Critical Access Hospitals,Government - Hospital District or Authority,true,"608 AVENUE B
BALLINGER, TX 76821
(31.750195, -99.962044)"
451311,SWEENY COMMUNITY HOSPITAL,305 NORTH MCKINNEY,SWEENY,TX,77480,BRAZORIA,9795483311,Critical Access Hospitals,Government - Hospital District or Authority,true,"305 NORTH MCKINNEY
SWEENY, TX 77480
(29.048509, -95.691386)"
451313,FISHER COUNTY HOSPITAL DISTRICT,774 STATE HIGHWAY 70 N,ROTAN,TX,79546,FISHER,3257352256,Critical Access Hospitals,Government - Hospital District or Authority,true,"774 STATE HIGHWAY 70 N
ROTAN, TX 79546
(32.858917, -100.467992)"
451315,NORTH RUNNELS HOSPITAL,7821 EAST HIGHWAY 153,WINTERS,TX,79567,RUNNELS,3257544553,Critical Access Hospitals,Government - Hospital District or Authority,true,"7821 EAST HIGHWAY 153
WINTERS, TX 79567
"
451316,MADISON ST JOSEPH HEALTH CENTER,100 WEST CROSS STREET,MADISONVILLE,TX,77864,MADISON,9363482631,Critical Access Hospitals,Voluntary non-profit - Church,true,"100 WEST CROSS STREET
MADISONVILLE, TX 77864
(30.942053, -95.909929)"
451319,MOTHER FRANCES HOSPITAL JACKSONVILLE,2026 S JACKSON STREET,JACKSONVILLE,TX,75766,CHEROKEE,9035414500,Critical Access Hospitals,Voluntary non-profit - Private,true,"2026 S JACKSON STREET
JACKSONVILLE, TX 75766
(31.93937, -95.25095)"
451320,BAYSIDE COMMUNITY HOSPITAL,200 HOSPITAL DRIVE,ANAHUAC,TX,77514,CHAMBERS,4092673143,Critical Access Hospitals,Government - Local,true,"200 HOSPITAL DRIVE
ANAHUAC, TX 77514
(29.753054, -94.686651)"
451321,HUNT REGIONAL COMMUNITY HOSPITAL,2900 STERLING HART DRIVE,COMMERCE,TX,75428,HUNT,9034081881,Critical Access Hospitals,Government - Hospital District or Authority,true,"2900 STERLING HART DRIVE
COMMERCE, TX 75428
(33.230507, -95.895565)"
451322,GRIMES ST JOSEPH HEALTH CENTER,210 JUDSON ST,NAVASOTA,TX,77868,GRIMES,9368256585,Critical Access Hospitals,Voluntary non-profit - Church,true,"210 JUDSON ST
NAVASOTA, TX 77868
(30.392233, -96.07669)"
451323,ROLLINS BROOK COMMUNITY HOSPITAL,608 NORTH KEY AVENUE,LAMPASAS,TX,76550,LAMPASAS,5125563682,Critical Access Hospitals,Voluntary non-profit - Church,true,"608 NORTH KEY AVENUE
LAMPASAS, TX 76550
(31.072512, -98.185632)"
451326,CHILLICOTHE HOSPITAL DISTRICT,303 AVENUE I,CHILLICOTHE,TX,79225,HARDEMAN,9408525131,Critical Access Hospitals,Government - Hospital District or Authority,true,"303 AVENUE I
CHILLICOTHE, TX 79225
(34.255494, -99.51593)"
451330,MEDINA REGIONAL HOSPITAL,3100 AVENUE E,HONDO,TX,78861,MEDINA,8304267700,Critical Access Hospitals,Government - Hospital District or Authority,true,"3100 AVENUE E
HONDO, TX 78861
"
451331,COON MEMORIAL HOSPITAL,1411 DENVER AVENUE,DALHART,TX,79022,DALLAM,8062444571,Critical Access Hospitals,Government - Hospital District or Authority,true,"1411 DENVER AVENUE
DALHART, TX 79022
(36.0522, -102.521896)"
451333,MARTIN COUNTY HOSPITAL DISTRICT,600 E INTERSTATE 20     PO BOX 640,STANTON,TX,79782,MARTIN,4327563345,Critical Access Hospitals,Government - Hospital District or Authority,true,"600 E INTERSTATE 20 PO BOX 640
STANTON, TX 79782
"
451334,PARKVIEW HOSPITAL,901 S. SWEETWATER,WHEELER,TX,79096,WHEELER,8068265581,Critical Access Hospitals,Government - Hospital District or Authority,true,"901 S. SWEETWATER
WHEELER, TX 79096
(35.439722, -100.270812)"
451337,W J MANGOLD MEMORIAL HOSPITAL,320 NORTH MAIN,LOCKNEY,TX,79241,FLOYD,8066523373,Critical Access Hospitals,Government - Hospital District or Authority,true,"320 NORTH MAIN
LOCKNEY, TX 79241
(34.126632, -101.44179)"
451341,HASKELL MEMORIAL HOSPITAL,1 NORTH AVENUE N  PO BOX 1117,HASKELL,TX,79521,HASKELL,9408642621,Critical Access Hospitals,Government - Hospital District or Authority,true,"1 NORTH AVENUE N PO BOX 1117
HASKELL, TX 79521
"
451342,MITCHELL COUNTY HOSPITAL DISTRICT,997 WEST I-20,COLORADO CITY,TX,79512,MITCHELL,3257283431,Critical Access Hospitals,Government - Hospital District or Authority,true,"997 WEST I-20
COLORADO CITY, TX 79512
"
451343,ELECTRA MEMORIAL HOSPITAL,1207 S BAILEY STREET,ELECTRA,TX,76360,WICHITA,9404953981,Critical Access Hospitals,Government - Hospital District or Authority,true,"1207 S BAILEY STREET
ELECTRA, TX 76360
(34.019123, -98.923957)"
451344,HANSFORD COUNTY HOSPITAL,707 ROLAND ST,SPEARMAN,TX,79081,HANSFORD,8066592535,Critical Access Hospitals,Government - Hospital District or Authority,true,"707 ROLAND ST
SPEARMAN, TX 79081
(36.190785, -101.200129)"
451346,YOAKUM COMMUNITY HOSPITAL,1200 CARL RAMERT DRIVE,YOAKUM,TX,77995,DE WITT,3612932321,Critical Access Hospitals,Voluntary non-profit - Private,true,"1200 CARL RAMERT DRIVE
YOAKUM, TX 77995
(29.306658, -97.130284)"
451347,COLEMAN COUNTY MEDICAL CENTER COMPANY,310 SOUTH PECOS STREET,COLEMAN,TX,76834,COLEMAN,3256252135,Critical Access Hospitals,Government - Hospital District or Authority,true,"310 SOUTH PECOS STREET
COLEMAN, TX 76834
(31.828919, -99.425237)"
451349,SWISHER MEMORIAL HOSPITAL,539 SOUTHEAST 2ND,TULIA,TX,79088,SWISHER,8069953581,Critical Access Hospitals,Voluntary non-profit - Private,true,"539 SOUTHEAST 2ND
TULIA, TX 79088
(34.53557, -101.756231)"
451350,PLAINS MEMORIAL HOSPITAL,310 WEST HALSELL STREET,DIMMITT,TX,79027,CASTRO,8066472191,Critical Access Hospitals,Government - Hospital District or Authority,false,"310 WEST HALSELL STREET
DIMMITT, TX 79027
(34.55558, -102.315112)"
451351,LYNN COUNTY HOSPITAL DISTRICT,2600 LOCKWOOD STREET,TAHOKA,TX,79373,LYNN,8069984533,Critical Access Hospitals,Government - Hospital District or Authority,true,"2600 LOCKWOOD STREET
TAHOKA, TX 79373
(33.166538, -101.815141)"
451353,CRANE COUNTY HOSPITAL DISTRICT,1310 S ALFORD ST,CRANE,TX,79731,CRANE,4325583555,Critical Access Hospitals,Government - Hospital District or Authority,true,"1310 S ALFORD ST
CRANE, TX 79731
(31.390567, -102.349373)"
451354,HAMILTON HOSPITAL,901 WEST HAMILTON,OLNEY,TX,76374,YOUNG,9405645521,Critical Access Hospitals,Government - Hospital District or Authority,true,"901 WEST HAMILTON
OLNEY, TX 76374
(33.369214, -98.764985)"
451355,COLLINGSWORTH GENERAL HOSPITAL,1013 15TH ST,WELLINGTON,TX,79095,COLLINGSWORTH,8064472521,Critical Access Hospitals,Proprietary,true,"1013 15TH ST
WELLINGTON, TX 79095
(34.849109, -100.212939)"
451356,MEMORIAL MEDICAL CENTER,815 N VIRGINIA STREET,PORT LAVACA,TX,77979,CALHOUN,3615526713,Critical Access Hospitals,Government - Local,true,"815 N VIRGINIA STREET
PORT LAVACA, TX 77979
(28.62087, -96.6315)"
451357,LITTLE RIVER HEALTHCARE,1700 BRAZOS,ROCKDALE,TX,76567,MILAM,5124464500,Critical Access Hospitals,Proprietary,true,"1700 BRAZOS
ROCKDALE, TX 76567
(30.650156, -97.020575)"
451361,SABINE COUNTY HOSPITAL,"PO BOX 750, 2301 HWY 83 W",HEMPHILL,TX,75948,SABINE,4097873300,Critical Access Hospitals,Proprietary,true,"PO BOX 750, 2301 HWY 83 W
HEMPHILL, TX 75948
"
451363,JACKSON HEALTHCARE CENTER,1013 S WELLS,EDNA,TX,77957,JACKSON,3617827800,Critical Access Hospitals,Government - Hospital District or Authority,true,"1013 S WELLS
EDNA, TX 77957
"
451364,OTTO KAISER MEMORIAL HOSPITAL,3349 S HIGHWAY 181,KENEDY,TX,78119,KARNES,8305833401,Critical Access Hospitals,Government - Hospital District or Authority,true,"3349 S HIGHWAY 181
KENEDY, TX 78119
(28.804213, -97.85663)"
451365,SETON HIGHLAND LAKES,HIGHWAY 281 SOUTH,BURNET,TX,78611,BURNET,5127153000,Critical Access Hospitals,Voluntary non-profit - Private,true,"HIGHWAY 281 SOUTH
BURNET, TX 78611
"
451366,COCHRAN MEMORIAL HOSPITAL,205 E GRANT STREET,MORTON,TX,79346,COCHRAN,8062665565,Critical Access Hospitals,Government - Hospital District or Authority,true,"205 E GRANT STREET
MORTON, TX 79346
(33.719294, -102.758075)"
451367,EAST TEXAS MEDICAL CENTER PITTSBURG,2701 US HWY 271 N,PITTSBURG,TX,75686,CAMP,9038564520,Critical Access Hospitals,Voluntary non-profit - Private,true,"2701 US HWY 271 N
PITTSBURG, TX 75686
(33.033685, -94.961069)"
451369,GOLDEN PLAINS COMMUNITY HOSPITAL,100 MEDICAL DRIVE,BORGER,TX,79007,HUTCHINSON,8062731100,Critical Access Hospitals,Proprietary,true,"100 MEDICAL DRIVE
BORGER, TX 79007
"
451370,RED RIVER REGIONAL HOSPITAL,504 LIPSCOMB STREET,BONHAM,TX,75418,FANNIN,9036407311,Critical Access Hospitals,Government - Hospital District or Authority,true,"504 LIPSCOMB STREET
BONHAM, TX 75418
(33.578064, -96.167538)"
451371,SETON EDGAR B DAVIS HOSPITAL,130 HAYS STREET,LULING,TX,78648,CALDWELL,8308757000,Critical Access Hospitals,Voluntary non-profit - Private,true,"130 HAYS STREET
LULING, TX 78648
(29.672522, -97.654654)"
451372,MULESHOE AREA MEDICAL CENTER,708 S 1ST ST,MULESHOE,TX,79347,BAILEY,8062724524,Critical Access Hospitals,Government - Hospital District or Authority,true,"708 S 1ST ST
MULESHOE, TX 79347
(34.221162, -102.728344)"
451373,WARD MEMORIAL HOSPITAL,406 SOUTH GARY ST,MONAHANS,TX,79756,WARD,4329432511,Critical Access Hospitals,Government - Local,true,"406 SOUTH GARY ST
MONAHANS, TX 79756
(31.593969, -102.884585)"
451374,BAYLOR SCOTT & WHITE MEDICAL CENTER -TAYLOR,305 MALLARD,TAYLOR,TX,76574,WILLIAMSON,5123527611,Critical Access Hospitals,Voluntary non-profit - Private,true,"305 MALLARD
TAYLOR, TX 76574
(30.592025, -97.415012)"
451376,LAVACA MEDICAL CENTER,1400 NORTH TEXANA STREET,HALLETTSVILLE,TX,77964,LAVACA,3617983671,Critical Access Hospitals,Government - Hospital District or Authority,true,"1400 NORTH TEXANA STREET
HALLETTSVILLE, TX 77964
(29.457419, -96.939814)"
451377,REEVES COUNTY HOSPITAL DISTRICT,2323 TEXAS STREET,PECOS,TX,79772,REEVES,4324473551,Critical Access Hospitals,Government - Hospital District or Authority,true,"2323 TEXAS STREET
PECOS, TX 79772
(31.402329, -103.512645)"
451378,BIG BEND REGIONAL MEDICAL CENTER,2600 HIGHWAY 118 NORTH,ALPINE,TX,79830,BREWSTER,4328373447,Critical Access Hospitals,Proprietary,true,"2600 HIGHWAY 118 NORTH
ALPINE, TX 79830
(30.383807, -103.672137)"
451379,CORYELL MEMORIAL HEALTHCARE SYSTEM,1507 W MAIN STREET,GATESVILLE,TX,76528,CORYELL,2548658251,Critical Access Hospitals,Government - Hospital District or Authority,true,"1507 W MAIN STREET
GATESVILLE, TX 76528
(31.433152, -97.778822)"
451380,EAST TEXAS MEDICAL CENTER QUITMAN,117 WINNSBORO STREET,QUITMAN,TX,75783,WOOD,9037634500,Critical Access Hospitals,Voluntary non-profit - Private,true,"117 WINNSBORO STREET
QUITMAN, TX 75783
(32.795804, -95.445402)"
453300,COOK CHILDRENS MEDICAL CENTER,801 SEVENTH AVENUE,FORT WORTH,TX,76104,TARRANT,6828854000,Childrens,Voluntary non-profit - Private,true,"801 SEVENTH AVENUE
FORT WORTH, TX 76104
(32.736561, -97.341976)"
453301,DRISCOLL CHILDRENS HOSPITAL,3533 S ALAMEDA BOX 6530,CORPUS CHRISTI,TX,78411,NUECES,3617394846,Childrens,Voluntary non-profit - Other,true,"3533 S ALAMEDA BOX 6530
CORPUS CHRISTI, TX 78411
(27.749573, -97.385163)"
453310,DELL CHILDREN'S MEDICAL CENTER OF CENTRAL TEXAS,4900 MUELLER BLVD,AUSTIN,TX,78723,TRAVIS,5123240000,Childrens,Voluntary non-profit - Private,true,"4900 MUELLER BLVD
AUSTIN, TX 78723
(30.302549, -97.704957)"
670004,ST MARKS MEDICAL CENTER,ONE ST MARK'S PLACE,LA GRANGE,TX,78945,FAYETTE,9792422200,Acute Care Hospitals,Voluntary non-profit - Private,true,"ONE ST MARK'S PLACE
LA GRANGE, TX 78945
"
670005,MEMORIAL HERMANN SURGICAL HOSPITAL KINGWOOD,300 KINGWOOD MEDICAL DRIVE,KINGWOOD,TX,77339,HARRIS,2813124000,Acute Care Hospitals,Proprietary,false,"300 KINGWOOD MEDICAL DRIVE
KINGWOOD, TX 77339
(30.047162, -95.258247)"
670006,THE HOSPITAL AT WESTLAKE MEDICAL CENTER,"5656 BEE CAVES ROAD, SUITE M-302",AUSTIN,TX,78746,TRAVIS,5123270000,Acute Care Hospitals,Proprietary,true,"5656 BEE CAVES ROAD, SUITE M-302
AUSTIN, TX 78746
(30.294611, -97.82469)"
670008,HOUSTON PHYSICIANS' HOSPITAL,333 N TEXAS AVENUE,WEBSTER,TX,77598,HARRIS,2813351700,Acute Care Hospitals,Physician,true,"333 N TEXAS AVENUE
WEBSTER, TX 77598
(29.53456, -95.12547)"
670010,MAYHILL HOSPITAL,2809 SOUTH MAYHILL ROAD,DENTON,TX,76208,DENTON,9402393000,Acute Care Hospitals,Proprietary,false,"2809 SOUTH MAYHILL ROAD
DENTON, TX 76208
(33.17775, -97.087108)"
670012,HOUSTON ORTHOPEDIC AND SPINE HOSPITAL,5410 WEST LOOP SOUTH,BELLAIRE,TX,77401,HARRIS,7136222262,Acute Care Hospitals,Proprietary,true,"5410 WEST LOOP SOUTH
BELLAIRE, TX 77401
(29.72338, -95.460729)"
670019,UNIVERSITY GENERAL HOSPITAL,7501 FANNIN,HOUSTON,TX,77054,HARRIS,7136523800,Acute Care Hospitals,Proprietary,true,"7501 FANNIN
HOUSTON, TX 77054
(29.692834, -95.400999)"
670021,INNOVA HOSPITAL SAN ANTONIO,4243 SOUTHCROSS BLVD,SAN ANTONIO,TX,78222,BEXAR,2103687487,Acute Care Hospitals,Proprietary,true,"4243 SOUTHCROSS BLVD
SAN ANTONIO, TX 78222
(29.374943, -98.411352)"
670023,METHODIST MANSFIELD MEDICAL CENTER,2700 E BROAD STREET,MANSFIELD,TX,76063,TARRANT,6826222059,Acute Care Hospitals,Voluntary non-profit - Private,true,"2700 E BROAD STREET
MANSFIELD, TX 76063
(32.568584, -97.096962)"
670024,NORTH CYPRESS MEDICAL CENTER,21214 NORTHWEST FREEWAY,CYPRESS,TX,77429,HARRIS,2818900203,Acute Care Hospitals,Physician,true,"21214 NORTHWEST FREEWAY
CYPRESS, TX 77429
(29.92482, -95.632487)"
670025,THE HEART HOSPITAL BAYLOR PLANO,1100 ALLIED DRIVE,PLANO,TX,75093,COLLIN,4698143278,Acute Care Hospitals,Proprietary,true,"1100 ALLIED DRIVE
PLANO, TX 75093
(33.015635, -96.789918)"
670031,ST LUKE'S PATIENTS MEDICAL CENTER,4600 EAST SAM HOUSTON PARKWAY SOUTH,PASADENA,TX,77505,HARRIS,2814870700,Acute Care Hospitals,Physician,true,"4600 EAST SAM HOUSTON PARKWAY SOUTH
PASADENA, TX 77505
(29.640397, -95.160584)"
670034,SCOTT & WHITE HOSPITAL-ROUND ROCK,300 UNIVERSITY BLVD,ROUND ROCK,TX,78664,WILLIAMSON,5125090100,Acute Care Hospitals,Voluntary non-profit - Private,true,"300 UNIVERSITY BLVD
ROUND ROCK, TX 78664
(30.560291, -97.684909)"
670041,SETON MEDICAL CENTER WILLIAMSON,201 SETON PARKWAY,ROUND ROCK,TX,78664,WILLIAMSON,5123240000,Acute Care Hospitals,Voluntary non-profit - Private,true,"201 SETON PARKWAY
ROUND ROCK, TX 78664
(30.567944, -97.652784)"
670043,CEDAR PARK REGIONAL MEDICAL CENTER,1401 MEDICAL PARKWAY,CEDAR PARK,TX,78613,WILLIAMSON,5125287000,Acute Care Hospitals,Proprietary,true,"1401 MEDICAL PARKWAY
CEDAR PARK, TX 78613
(30.530162, -97.810854)"
670044,TEXAS HEALTH PRESBYTERIAN HOSPITAL ROCKWALL,3150 HORIZON ROAD,ROCKWALL,TX,75032,ROCKWALL,4696981000,Acute Care Hospitals,Physician,true,"3150 HORIZON ROAD
ROCKWALL, TX 75032
(32.885751, -96.464308)"
670045,"COOK CHILDRENS NORTHEAST HOSPITAL, LLC",6316 PRECINCT LINE RD,HURST,TX,76054,TARRANT,8176052500,Acute Care Hospitals,Physician,true,"6316 PRECINCT LINE RD
HURST, TX 76054
(32.863272, -97.186133)"
670046,USMD HOSPITAL  AT FORT WORTH LP,5900 ALTAMESA BLVD,FORT WORTH,TX,76132,TARRANT,8174339100,Acute Care Hospitals,Proprietary,true,"5900 ALTAMESA BLVD
FORT WORTH, TX 76132
(32.645592, -97.41814)"
670047,SIERRA PROVIDENCE EAST MEDICAL CENTER,3280 JOE BATTLE BLVD,EL PASO,TX,79938,EL PASO,9158567349,Acute Care Hospitals,Proprietary,true,"3280 JOE BATTLE BLVD
EL PASO, TX 79938
(31.790511, -106.267642)"
670049,NORTH CENTRAL SURGICAL CENTER LLP,9301 NORTH CENTRAL EXPRESSWAY SUITE 100,DALLAS,TX,75231,DALLAS,2142652810,Acute Care Hospitals,Voluntary non-profit - Other,true,"9301 NORTH CENTRAL EXPRESSWAY SUITE 100
DALLAS, TX 75231
(32.874836, -96.770604)"
670050,TRUSTPOINT HOSPITAL OF LUBBOCK,4302 PRINCETON,LUBBOCK,TX,79415,LUBBOCK,8067492222,Acute Care Hospitals,Physician,true,"4302 PRINCETON
LUBBOCK, TX 79415
(33.617021, -101.900489)"
670053,ST LUKE'S SUGAR LAND HOSPITAL,1317 LAKE POINTE PARKWAY,SUGAR LAND,TX,77478,FORT BEND,2816377000,Acute Care Hospitals,Voluntary non-profit - Other,true,"1317 LAKE POINTE PARKWAY
SUGAR LAND, TX 77478
(29.604655, -95.621302)"
670054,FOUNDATION SURGICAL HOSPITAL OF SAN ANTONIO,9522 HUEBNER ROAD,SAN ANTONIO,TX,78240,BEXAR,2104785400,Acute Care Hospitals,Proprietary,true,"9522 HUEBNER ROAD
SAN ANTONIO, TX 78240
(29.531035, -98.592554)"
670055,METHODIST STONE OAK HOSPITAL,1139 E SONTERRA BLVD,SAN ANTONIO,TX,78258,BEXAR,2106382100,Acute Care Hospitals,Proprietary,true,"1139 E SONTERRA BLVD
SAN ANTONIO, TX 78258
(29.614811, -98.47406)"
670056,SETON MEDICAL CENTER HAYS,6001 KYLE PKWY,KYLE,TX,78640,HAYS,5123245000,Acute Care Hospitals,Voluntary non-profit - Private,true,"6001 KYLE PKWY
KYLE, TX 78640
(30.007734, -97.85528)"
670058,EMERUS HOSPITAL,16000 SOUTHWEST FREEWAY,SUGAR LAND,TX,77479,FORT BEND,2815160911,Acute Care Hospitals,Physician,true,"16000 SOUTHWEST FREEWAY
SUGAR LAND, TX 77479
(29.597792, -95.623799)"
670059,ST LUKES LAKESIDE HOSPITAL,17400 ST LUKES WAY,THE WOODLANDS,TX,77384,MONTGOMERY,9362664055,Acute Care Hospitals,Voluntary non-profit - Other,true,"17400 ST LUKES WAY
THE WOODLANDS, TX 77384
(30.199789, -95.459386)"
670060,TEXAS REGIONAL MEDICAL CENTER AT SUNNYVALE,231 SOUTH COLLINS ROAD,SUNNYVALE,TX,75182,DALLAS,9728923000,Acute Care Hospitals,Proprietary,true,"231 SOUTH COLLINS ROAD
SUNNYVALE, TX 75182
(32.780308, -96.565611)"
670061,SOUTH TEXAS SURGICAL HOSPITAL,6130 PARKWAY DRIVE,CORPUS CHRISTI,TX,78414,NUECES,3619932000,Acute Care Hospitals,Proprietary,true,"6130 PARKWAY DRIVE
CORPUS CHRISTI, TX 78414
(27.687208, -97.374867)"
670062,BAYLOR EMERGENCY MEDICAL CENTER,26791 HIGHWAY 380,AUBREY,TX,76227,DENTON,9723472525,Acute Care Hospitals,Proprietary,true,"26791 HIGHWAY 380
AUBREY, TX 76227
"
670066,"BASIN HEALTHCARE CENTER, LLC",900 EAST 4TH STREET,ODESSA,TX,79761,ECTOR,4324259510,Acute Care Hospitals,Proprietary,true,"900 EAST 4TH STREET
ODESSA, TX 79761
(31.852135, -102.359935)"
670067,BAYLOR ORTHOPEDIC AND SPINE HOSPITAL AT ARLINGTON,707 HIGHLANDER BLVD,ARLINGTON,TX,76015,TARRANT,8175492364,Acute Care Hospitals,Proprietary,true,"707 HIGHLANDER BLVD
ARLINGTON, TX 76015
(32.682606, -97.115508)"
670068,TEXAS HEALTH PRESBYTERIAN HOSPITAL FLOWER MOUND,4400 LONG PRAIRIE ROAD,FLOWER MOUND,TX,75028,DENTON,9724191530,Acute Care Hospitals,Proprietary,true,"4400 LONG PRAIRIE ROAD
FLOWER MOUND, TX 75028
(33.045812, -97.069324)"
670069,METHODIST MCKINNEY HOSPITAL,8000 W ELDORADO PKWY,MC KINNEY,TX,75070,COLLIN,4694246400,Acute Care Hospitals,Proprietary,true,"8000 W ELDORADO PKWY
MC KINNEY, TX 75070
(33.175803, -96.72431)"
670071,TEXAS HEALTH HEART & VASCULAR HOSPITAL ARLINGTON,811 WRIGHT STREET,ARLINGTON,TX,76012,TARRANT,8179603500,Acute Care Hospitals,Proprietary,false,"811 WRIGHT STREET
ARLINGTON, TX 76012
(32.748209, -97.115578)"
670073,METHODIST HOSPITAL FOR SURGERY,17101 DALLAS PARKWAY,ADDISON,TX,75001,DALLAS,4692483900,Acute Care Hospitals,Proprietary,true,"17101 DALLAS PARKWAY
ADDISON, TX 75001
(32.986214, -96.828773)"
670075,ST LUKE'S HOSPITAL AT THE VINTAGE,20171 CHASEWOOD PARK DRIVE,HOUSTON,TX,77070,HARRIS,8325345000,Acute Care Hospitals,Proprietary,true,"20171 CHASEWOOD PARK DRIVE
HOUSTON, TX 77070
(29.989489, -95.570248)"
670076,HERITAGE PARK SURGICAL HOSPITAL,3601 CALAIS DRIVE,SHERMAN,TX,75090,GRAYSON,9038133728,Acute Care Hospitals,Physician,true,"3601 CALAIS DRIVE
SHERMAN, TX 75090
"
670077,METHODIST WEST HOUSTON HOSPITAL,18500 KATY FREEWAY,HOUSTON,TX,77094,HARRIS,8325221000,Acute Care Hospitals,Voluntary non-profit - Private,true,"18500 KATY FREEWAY
HOUSTON, TX 77094
(29.785529, -95.697331)"
670078,BAPTIST EMERGENCY HOSPITAL,16088 SAN PEDRO,SAN ANTONIO,TX,78232,BEXAR,2104024092,Acute Care Hospitals,Proprietary,true,"16088 SAN PEDRO
SAN ANTONIO, TX 78232
(29.588034, -98.474175)"
670079,"LAKEWAY REGIONAL MEDICAL CENTER, LLC",100  MEDICAL PARKWAY,LAKEWAY,TX,78734,TRAVIS,5122058102,Acute Care Hospitals,Proprietary,true,"100 MEDICAL PARKWAY
LAKEWAY, TX 78734
(30.334275, -97.970505)"
670080,SETON MEDICAL CENTER HARKER HEIGHTS,850 W CENTRAL TEXAS EXPRESSWAY,HARKER HEIGHTS,TX,76548,BELL,2549538342,Acute Care Hospitals,Proprietary,true,"850 W CENTRAL TEXAS EXPRESSWAY
HARKER HEIGHTS, TX 76548
(31.074298, -97.683725)"
670082,BAYLOR SCOTT AND WHITE  MEDICAL CENTER  MCKINNEY,5252 WEST UNIVERSITY DRIVE,MC KINNEY,TX,75071,COLLIN,4697422200,Acute Care Hospitals,Voluntary non-profit - Private,true,"5252 WEST UNIVERSITY DRIVE
MC KINNEY, TX 75071
(33.218404, -96.681052)"
670083,TEXAS GENERAL HOSPITAL,2709 HOSPITAL BLVD,GRAND PRAIRIE,TX,75051,DALLAS,4696352073,Acute Care Hospitals,Proprietary,true,"2709 HOSPITAL BLVD
GRAND PRAIRIE, TX 75051
(32.733743, -97.050999)"
670085,TEXAS HEALTH HARRIS METHODIST HOSPITAL ALLIANCE,10864 TEXAS HEALTH TRAIL,FORT WORTH,TX,76244,TARRANT,6822122004,Acute Care Hospitals,Voluntary non-profit - Private,true,"10864 TEXAS HEALTH TRAIL
FORT WORTH, TX 76244
(32.930609, -97.311092)"
670087,BAYLOR SCOTT & WHITE EMERGENCY MEDICAL CENTER AT C,900 EAST WHITESTONE BLVD,CEDAR PARK,TX,78613,WILLIAMSON,5126844911,Acute Care Hospitals,Proprietary,true,"900 EAST WHITESTONE BLVD
CEDAR PARK, TX 78613
(30.52395, -97.82018)"
670088,SCOTT & WHITE HOSPITAL- COLLEGE STATION,700 SCOTT & WHITE DRIVE,COLLEGE STATION,TX,77845,BRAZOS,9796913701,Acute Care Hospitals,Voluntary non-profit - Private,true,"700 SCOTT &amp; WHITE DRIVE
COLLEGE STATION, TX 77845
"
670089,NIX COMMUNITY GENERAL HOSPITAL,230 WEST MILLER STREET,DILLEY,TX,78017,FRIO,2102712190,Acute Care Hospitals,Voluntary non-profit - Private,true,"230 WEST MILLER STREET
DILLEY, TX 78017
(28.669867, -99.172453)"
670090,CRESCENT MEDICAL CENTER LANCASTER,2600 WEST PLEASANT RUN ROAD,LANCASTER,TX,75146,DALLAS,9722308888,Acute Care Hospitals,Proprietary,true,"2600 WEST PLEASANT RUN ROAD
LANCASTER, TX 75146
(32.604128, -96.814483)"
670092,WALNUT HILL MEDICAL CENTER,7502 GREENVILLE AVENUE,DALLAS,TX,75231,DALLAS,9728636000,Acute Care Hospitals,Proprietary,true,"7502 GREENVILLE AVENUE
DALLAS, TX 75231
(32.883788, -96.758945)"
670093,"ASPIRE BEHAVIORAL HEALTH OF CONROE, LLC","2006 SOUTH LOOP 336 WEST, SUITE 500",CONROE,TX,77304,MONTGOMERY,9366473500,Acute Care Hospitals,Physician,false,"2006 SOUTH LOOP 336 WEST, SUITE 500
CONROE, TX 77304
"
670094,LITTLE RIVER HEALTHCARE CAMERON HOSPITAL,806 N CROCKETT AVE,CAMERON,TX,76520,MILAM,2546050025,Acute Care Hospitals,Proprietary,true,"806 N CROCKETT AVE
CAMERON, TX 76520
(30.856802, -96.976839)"
670095,EMERUS COMMUNITY HOSPITAL,"24429 TOMBALL PARKWAY, SUITE 100",TOMBALL,TX,77375,HARRIS,2815160911,Acute Care Hospitals,Proprietary,true,"24429 TOMBALL PARKWAY, SUITE 100
TOMBALL, TX 77375
(30.037379, -95.605451)"
670096,"BAY AREA REGIONAL MEDICAL CENTER, LLC",200 BLOSSOM STREET,WEBSTER,TX,77598,HARRIS,2815257000,Acute Care Hospitals,Proprietary,true,"200 BLOSSOM STREET
WEBSTER, TX 77598
(29.544291, -95.125078)"
670097,BAYLOR EMERGENCY MEDICAL CENTER,1975 ALPHA STE 100,ROCKWALL,TX,75087,ROCKWALL,2142946200,Acute Care Hospitals,Proprietary,true,"1975 ALPHA STE 100
ROCKWALL, TX 75087
(32.914368, -96.445142)"
670098,RESOLUTE HEALTH HOSPITAL,"555 CREEKSIDE XING,",NEW BRAUNFELS,TX,78130,COMAL,4698396778,Acute Care Hospitals,Proprietary,true,"555 CREEKSIDE XING,
NEW BRAUNFELS, TX 78130
(29.719394, -98.071408)"
